2001 01 01 00 METAR CYVR 010000Z 09011KT 8SM BKN007 OVC020 07/06 A3015 RMK SF6SC2 SLP211
2001 01 01 01 METAR CYVR 010100Z 10010KT 8SM SCT007 SCT025 BKN045 OVC060 07/06 A3017 RMK SF3SC1SC2SC2 SLP217
2001 01 01 02 METAR CYVR 010200Z 10009KT 10SM FEW007 FEW030 OVC055 07/06 A3018 RMK SF2SC1SC6 SLP219
2001 01 01 03 METAR CYVR 010300Z 09009KT 10SM FEW007 FEW030 BKN052 OVC200 07/06 A3020 RMK SF1SC1SC6CI0 SLP225
2001 01 01 04 METAR CYVR 010400Z 10008KT 10SM FEW007 FEW030 BKN040 BKN200 07/06 A3021 RMK SF1SC2SC4CI1 SLP230
2001 01 01 05 METAR CYVR 010500Z 10008KT 10SM FEW007 FEW030 BKN050 OVC200 07/06 A3023 RMK SF1SC2SC4CI2 SLP237
2001 01 01 06 METAR CYVR 010600Z 09012KT 12SM FEW007 FEW035 BKN050 OVC200 07/06 A3019 RMK SF1SC1SC4CI2 SLP224
2001 01 01 07 METAR CYVR 010700Z 09010KT 10SM FEW007 FEW030 BKN050 OVC180 07/06 A3020 RMK SF1SC2SC2CI3 SLP226
2001 01 01 08 METAR CYVR 010800Z 09003KT 12SM FEW007 BKN028 OVC050 07/05 A3026 RMK SF1SC5SC2 PRESRR SLP248
2001 01 01 09 METAR CYVR 010900Z 09006KT 15SM FEW009 SCT029 BKN069 BKN110 07/06 A3026 RMK SF1SC2AC2AC2 SLP248
2001 01 01 10 METAR CYVR 011000Z 11008KT 15SM FEW009 FEW030 FEW060 BKN090 07/05 A3027 RMK SF1SC1SC2AC3 SLP249
2001 01 01 11 METAR CYVR 011100Z 09008KT 15SM FEW009 FEW030 SCT050 BKN070 BKN100 07/05 A3028 RMK SF1SC1SC2AC2AC1 TR SF SLP254
2001 01 01 12 METAR CYVR 011200Z 11010KT 15SM -SHRA FEW009 SCT040 BKN068 06/05 A3030 RMK SF1SC2AC2 RW-- SLP261
2001 01 01 13 METAR CYVR 011300Z 10007KT 15SM FEW009 SCT046 06/04 A3033 RMK SF1SC3 SLP269
2001 01 01 14 METAR CYVR 011400Z 07007KT 15SM FEW012 SCT052 05/03 A3035 RMK SF1SC3 TR SF SLP276
2001 01 01 15 METAR CYVR 011500Z 09004KT 15SM FEW011 FEW015 BKN045 06/05 A3035 RMK SF1CF1SC6 TR SF CF SLP278
2001 01 01 16 METAR CYVR 011600Z 09006KT 20SM FEW011 SCT025 BKN040 06/04 A3037 RMK SF2CF2SC3 SLP283
2001 01 01 17 METAR CYVR 011700Z 11007KT 20SM FEW011 SCT025 BKN040 BKN090 06/05 A3038 RMK SF1CF3SC2AC1 SLP288
2001 01 01 18 METAR CYVR 011800Z 11004KT 30SM FEW022 BKN042 BKN090 07/05 A3041 RMK SF2SC5AC1 SLP299
2001 01 01 19 METAR CYVR 011900Z 10006KT 30SM FEW022 BKN042 BKN090 BKN220 08/06 A3041 RMK SF1SC5AC1CI0 SLP297
2001 01 01 20 METAR CYVR 012000Z 11005KT 30SM FEW025 BKN048 BKN090 BKN220 09/06 A3040 RMK CF2SC4AC1CI1 SLP293
2001 01 01 21 METAR CYVR 012100Z 13004KT 30SM FEW025 SCT052 SCT090 BKN220 11/06 A3039 RMK CF1SC2AC1CI0 TR CI SLP289
2001 01 01 22 METAR CYVR 012200Z 10005KT 30SM FEW025 FEW050 FEW090 BKN220 10/06 A3036 RMK CF1SC1AC1CI1 SLP280
2001 01 01 23 METAR CYVR 012300Z 09003KT 30SM FEW035 FEW090 OVC220 09/05 A3035 RMK SC1AC2CI2 SLP276
2001 01 02 00 METAR CYVR 020000Z 33004KT 30SM FEW035 FEW090 OVC220 08/04 A3033 RMK SC1AC2CI2 SLP271
2001 01 02 01 METAR CYVR 020100Z 08005KT 30SM FEW035 FEW090 OVC190 08/04 A3032 RMK SC1AC2CI3 SLP268
2001 01 02 02 METAR CYVR 020200Z 09005KT 30SM FEW035 FEW090 OVC190 07/04 A3029 RMK SF1AC2CI3 SLP258
2001 01 02 03 METAR CYVR 020300Z 00000KT 30SM FEW035 FEW090 OVC200 07/04 A3028 RMK SF1AC2CI3 SLP255
2001 01 02 04 METAR CYVR 020400Z 15002KT 30SM FEW090 OVC200 07/04 A3028 RMK AC2CI5 SLP252
2001 01 02 05 METAR CYVR 020500Z 19003KT 30SM FEW090 OVC190 06/04 A3025 RMK AC2CI5 SLP243
2001 01 02 06 METAR CYVR 020600Z 21003KT 30SM FEW090 OVC190 05/03 A3023 RMK AC2CI5 SLP235
2001 01 02 07 METAR CYVR 020700Z 00000KT 30SM FEW090 OVC210 05/04 A3021 RMK AC2CI6 SLP229
2001 01 02 08 METAR CYVR 020800Z 28003KT 30SM FEW090 OVC180 05/03 A3023 RMK AC2AS6 SLP237
2001 01 02 09 METAR CYVR 020900Z 01005KT 30SM FEW090 OVC170 05/03 A3024 RMK AC2AS6 SLP239
2001 01 02 10 METAR CYVR 021000Z 10004KT 30SM FEW090 OVC140 05/04 A3024 RMK AC2AS6 VIRGA SLP240
2001 01 02 11 METAR CYVR 021100Z CCA 00000KT 30SM OVC097 06/04 A3028 RMK AS8 VIRGA SLP255
2001 01 02 12 METAR CYVR 021200Z 06009KT 20SM -RA SCT060 OVC090 06/04 A3030 RMK SC3AS5 SLP261
2001 01 02 13 METAR CYVR 021300Z 07013KT 20SM -RA FEW050 OVC070 07/03 A3026 RMK SC2AS6 SLP246
2001 01 02 14 METAR CYVR 021400Z 22014KT 15SM -RA FEW050 OVC070 07/03 A3031 RMK SC2AS6 PRESRR SLP264
2001 01 02 15 METAR CYVR 021500Z 35002KT 15SM FEW050 BKN070 OVC120 07/04 A3028 RMK SC2AC5AC1 SLP254
2001 01 02 16 METAR CYVR 021600Z 21007KT 30SM FEW020 FEW050 BKN070 OVC120 07/04 A3031 RMK CF1SC2AC5AS2 TR CF SLP263
2001 01 02 17 METAR CYVR 021700Z 09008KT 30SM FEW050 SCT070 BKN110 OVC220 07/05 A3027 RMK SC1AC3AS3CI1 SLP249
2001 01 02 18 METAR CYVR 021800Z 00000KT 30SM FEW050 SCT070 BKN110 BKN220 08/05 A3029 RMK SC1AC2AS3CI1 SLP258
2001 01 02 19 METAR CYVR 021900Z 23004KT 30SM FEW070 BKN120 BKN220 07/05 A3029 RMK AC2AS3CI2 SLP256
2001 01 02 20 METAR CYVR 022000Z 26002KT 30SM FEW070 BKN120 BKN220 08/05 A3028 RMK AC1AC5CI2 SLP252
2001 01 02 21 METAR CYVR 022100Z 19002KT 30SM FEW020 FEW070 BKN130 BKN220 08/06 A3028 RMK CF1AC1AC4CI2 SLP252
2001 01 02 22 METAR CYVR 022200Z 00000KT 30SM SCT130 BKN160 BKN220 09/06 A3026 RMK AC3AC2CI2 SLP246
2001 01 02 23 METAR CYVR 022300Z 32003KT 30SM SCT130 BKN180 BKN240 09/06 A3024 RMK AC3AC2CI2 SLP240
2001 01 03 00 METAR CYVR 030000Z 00000KT 15SM FEW040 FEW080 BKN140 BKN220 OVC300 07/05 A3024 RMK SC1AC2AC2CI2CI1 ST+HZ E+W ACC+CC ASOCTD SLP239
2001 01 03 01 METAR CYVR 030100Z 31003KT 15SM FEW040 FEW080 BKN160 BKN220 OVC300 07/ A3025 RMK SC1AC2AC2CI1CI1 160 LYR THIN ACC+CC ASOCTD SLP242
2001 01 03 02 METAR CYVR 030200Z 29002KT 15SM FEW040 FEW080 BKN160 BKN220 OVC300 06/05 A3025 RMK SC1AC2AC2CI1CI1 ACC ASOCTD SLP242
2001 01 03 03 METAR CYVR 030300Z 00000KT 15SM FEW040 FEW090 BKN180 BKN230 OVC300 07/05 A3023 RMK SC1AC2AC2CI2CI1 SLP238
2001 01 03 04 METAR CYVR 030400Z 18003KT 15SM FEW044 FEW090 BKN190 BKN300 07/05 A3023 RMK SC1AC2AC3CI2 TR SC ACC ASOCTD SLP238
2001 01 03 05 METAR CYVR 030500Z 09006KT 15SM FEW010 FEW044 FEW090 BKN200 BKN300 06/05 A3022 RMK ST1SC1AC2AC3CI2 TR ST+SC E SLP232
2001 01 03 06 METAR CYVR 030600Z 10006KT 15SM FEW090 BKN210 BKN300 06/05 A3020 RMK AC1CI4CI1 SLP227
2001 01 03 07 METAR CYVR 030700Z 11007KT 15SM FEW090 BKN210 OVC300 07/05 A3022 RMK AC2CI4CI2 MOON DMLY VSBL SLP233
2001 01 03 08 METAR CYVR 030800Z 09008KT 30SM FEW090 OVC230 06/04 A3021 RMK AC2CI5 SLP229
2001 01 03 09 METAR CYVR 030900Z 18002KT 30SM FEW090 OVC230 08/05 A3021 RMK AC1CI5 SLP231
2001 01 03 10 METAR CYVR 031000Z 00000KT 30SM OVC210 05/04 A3022 RMK CI4 SLP233
2001 01 03 11 METAR CYVR 031100Z 09009KT 30SM FEW100 OVC210 05/04 A3020 RMK AC2CI4 SLP225
2001 01 03 12 METAR CYVR 031200Z 10007KT 30SM FEW100 OVC180 06/04 A3017 RMK AC2CI6 SLP215
2001 01 03 13 METAR CYVR 031300Z 19003KT 30SM FEW100 OVC180 07/04 A3019 RMK AC2AC6 SLP224
2001 01 03 14 METAR CYVR 031400Z 03002KT 30SM FEW100 OVC190 06/04 A3018 RMK AC2AC6 SLP221
2001 01 03 15 METAR CYVR 031500Z 09005KT 30SM FEW015 FEW100 OVC180 07/04 A3017 RMK CF1AC2AC6 SLP215
2001 01 03 16 METAR CYVR 031600Z 10010KT 30SM BKN090 BKN150 OVC230 07/04 A3015 RMK AC5AC2CI1 SLP208
2001 01 03 17 METAR CYVR 031700Z 09011KT 30SM SCT090 BKN170 OVC230 08/03 A3015 RMK AC3AC4CI1 SLP210
2001 01 03 18 METAR CYVR 031800Z 11012KT 30SM BKN079 BKN170 OVC230 10/03 A3016 RMK AC5AC2CI1 SLP213
2001 01 03 17 METAR CYVR 031700Z 09011KT 30SM SCT090 BKN170 OVC230 08/03 A3015 RMK AC3AC4CI1 SLP210
2001 01 03 20 METAR CYVR 032000Z 00000KT 8SM -RA SCT050 BKN080 OVC170 08/04 A3020 RMK SC3AC4AC1 VSBY E-S 20 SLP225
2001 01 03 21 METAR CYVR 032100Z 33004KT 4SM -RA BR FEW020 BKN039 OVC080 08/05 A3019 RMK SF2ST4AC2 CIG RGD VSBY APRS HIER SW SLP224
2001 01 03 22 METAR CYVR 032200Z 08006KT 6SM -RA BR FEW035 BKN050 OVC080 08/06 A3018 RMK SF2SC5AC1 SLP221
2001 01 03 23 METAR CYVR 032300Z 09003KT 6SM -RA BR FEW022 OVC041 08/06 A3022 RMK SF2SC6 SLP233
2001 01 04 00 METAR CYVR 040000Z 10012KT 15SM -RA FEW009 FEW022 BKN047 OVC071 07/06 A3020 RMK SF1SF1SC6AC2 BINOVC W SLP227
2001 01 04 01 METAR CYVR 040100Z 29002KT 15SM FEW010 BKN043 OVC080 07/06 A3026 RMK SF1SC5AC2 SLP246
2001 01 04 02 METAR CYVR 040200Z 18002KT 15SM BKN019 OVC040 07/06 A3027 RMK SC6SC2 SLP250
2001 01 04 03 METAR CYVR 040300Z 09007KT 15SM SCT018 BKN044 07/05 A3026 RMK SC3SC4 SLP246
2001 01 04 04 METAR CYVR 040400Z 10006KT 15SM FEW011 BKN039 07/06 A3030 RMK SF2SC6 SLP260
2001 01 04 05 METAR CYVR 040500Z 09003KT 6SM BR BKN006 OVC013 07/06 A3031 RMK SF6SF2 SLP264
2001 01 04 06 METAR CYVR 040600Z 10004KT 6SM BR BKN006 07/06 A3031 RMK SF6 SLP265
2001 01 04 07 METAR CYVR 040700Z 10005KT 10SM BKN008 BKN025 BKN043 07/06 A3032 RMK SF5SC2SC1 SLP266
2001 01 04 08 METAR CYVR 040800Z 08006KT 6SM BR SCT008 BKN020 OVC045 07/06 A3033 RMK SF4SC2SC2 SLP269
2001 01 04 09 METAR CYVR 040900Z 06008KT 8SM FEW008 SCT020 BKN045 07/06 A3031 RMK SF2SC2SC4 SLP264
2001 01 04 10 METAR CYVR 041000Z CCA 08004KT 8SM FEW008 FEW015 BKN050 07/06 A3032 RMK SF1SC2SC5 SLP266
2001 01 04 11 METAR CYVR 041100Z 08006KT 15SM FEW015 FEW023 BKN050 06/05 A3031 RMK SC1SC2SC5 SLP263
2001 01 04 12 METAR CYVR 041200Z 10005KT 15SM FEW015 BKN051 OVC150 06/05 A3030 RMK SC2SC5AC2 SLP260
2001 01 04 13 METAR CYVR 041300Z 29002KT 15SM FEW015 SCT048 BKN150 OVC190 06/04 A3029 RMK SC1SC3AC3CI2 SLP257
2001 01 04 14 METAR CYVR 041400Z 36002KT 15SM FEW015 BKN044 OVC150 06/05 A3026 RMK SC1SC5AC2 SLP247
2001 01 04 15 METAR CYVR 041500Z 23004KT 15SM FEW015 BKN046 OVC120 06/05 A3027 RMK SF1SC5AC2 SLP251
2001 01 04 16 METAR CYVR 041600Z 16004KT 15SM FEW015 BKN044 BKN120 OVC250 06/05 A3025 RMK SF1SC4AC2SC1 SLP244
2001 01 04 17 METAR CYVR 041700Z 11008KT 15SM -RA FEW015 BKN040 BKN075 OVC120 06/05 A3023 RMK SF1SC4AC2AC2 SLP235
2001 01 04 18 METAR CYVR 041800Z 09010KT 15SM -RA FEW015 BKN037 OVC075 07/04 A3021 RMK SF1SC4AC3 SLP229
2001 01 04 19 METAR CYVR 041900Z 10012KT 15SM FEW015 BKN035 BKN075 OVC120 07/04 A3018 RMK SF1SC4AC2AC1 VIRGA SLP218
2001 01 04 20 METAR CYVR 042000Z 09009KT 15SM -RA FEW015 BKN027 OVC075 07/04 A3014 RMK SF1SC5AC2 PCPN VRY LGT-HVIER NW-NE CIG DIFFUS SLP207
2001 01 04 21 METAR CYVR 042100Z 07011KT 15SM BKN025 OVC075 08/05 A3006 RMK SC5AC3 OCNL -RA HVIER PCPN N-NE PRESFR SLP178
2001 01 04 22 METAR CYVR 042200Z 08009KT 10SM RA FEW020 BKN035 OVC060 08/06 A3002 RMK SF1SC6SC2 SLP165
2001 01 04 23 METAR CYVR 042300Z 10008KT 6SM RA BR SCT017 OVC030 08/07 A2999 RMK SF3SC5 SLP156
2001 01 05 00 METAR CYVR 050000Z 09013KT 6SM RA BR FEW010 SCT015 OVC025 07/06 A2995 RMK SF2SF2SC5 SLP143
2001 01 05 01 METAR CYVR 050100Z 09013KT 6SM -RA BR FEW009 OVC015 07/06 A2994 RMK SF2SC6 SLP139
2001 01 05 02 METAR CYVR 050200Z 09015G20KT 4SM -RA BR BKN010 OVC015 08/07 A2990 RMK SF5SC3 CIG RGD SLP126
2001 01 05 03 METAR CYVR 050300Z 08013KT 4SM -RA BR BKN008 OVC012 08/07 A2988 RMK SF6SC2 CIG 7-9 SLP117
2001 01 05 03 METAR CYVR 050300Z 08013KT 4SM -RA BR BKN008 OVC012 08/07 A2988 RMK SF6SC2
2001 01 05 05 METAR CYVR 050500Z 11009KT 4SM RA BR BKN007 OVC012 09/09 A2986 RMK SF6SC2 CIG RGD RERA SLP112
2001 01 05 06 METAR CYVR 050600Z 16017G22KT 6SM -RA BR SCT007 BKN012 OVC028 11/09 A2983 RMK SF3SC2SC2 RERA SLP101
2001 01 05 07 METAR CYVR 050700Z 16019G26KT 6SM -RA BR FEW007 SCT012 BKN028 OVC056 10/09 A2984 RMK SF2SC2SC2SC2 SLP103
2001 01 05 08 METAR CYVR 050800Z 18012KT 6SM -RA BR FEW007 SCT028 OVC051 10/09 A2986 RMK SF2SC2SC4 SLP110
2001 01 05 09 METAR CYVR 050900Z 14010KT 6SM -RA BR FEW007 FEW035 BKN052 OVC068 10/09 A2983 RMK SF1SC2SC5AC1 SLP101
2001 01 05 10 METAR CYVR 051000Z 13009KT 8SM FEW007 BKN040 OVC052 10/09 A2985 RMK SF1SC6SC2 INTMT -RA SLP109
2001 01 05 11 METAR CYVR 051100Z 18011G16KT 10SM FEW005 FEW040 BKN180 10/07 A2986 RMK SF1SC2AC4 SLP111
2001 01 05 12 METAR CYVR 051200Z 15008KT 10SM SCT040 BKN064 BKN090 10/07 A2987 RMK SC3SC2AC1 SLP114
2001 01 05 13 METAR CYVR 051300Z 15009KT 10SM FEW015 FEW045 BKN050 BKN075 10/07 A2987 RMK SC2SC1SC4AC1 SLP116
2001 01 05 14 METAR CYVR 051400Z 15009KT 10SM FEW015 BKN042 OVC060 10/07 A2990 RMK SF2SC5SC2 INTMT -SHRA SLP124
2001 01 05 15 METAR CYVR 051500Z 18011G16KT 10SM FEW015 SCT045 BKN060 OVC110 10/07 A2991 RMK SF1SC3SC2AC2 SLP128
2001 01 05 16 METAR CYVR 051600Z 19015KT 15SM FEW015 SCT045 BKN060 BKN120 BKN210 10/06 A2994 RMK SF1SC3SC2AC2CI1 ACSL ASOCTD TR SF SLP138
2001 01 05 17 METAR CYVR 051700Z 19012KT 15SM FEW020 SCT045 BKN062 BKN120 10/05 A3000 RMK SF1CU3SC2AC2 PRESRR PCPN NE-E DSNT TCU+ACSL ASOCTD SLP157
2001 01 05 17 METAR CYVR 051700Z 19012KT 15SM FEW020 SCT045 BKN062 BKN120 10/05 A3000 RMK SF1CU3SC2AC2 PRESRR PCPN NE-E DSNT TCU+ACSL ASOCTD SLP157
2001 01 05 19 METAR CYVR 051900Z 20013G26KT 15SM FEW020 FEW045 SCT060 SCT080 12/05 A3008 RMK CF1CU2SC1AC1 PCPN/VIRGA ALQDS SLP187
2001 01 05 20 METAR CYVR 052000Z 20012G22KT 15SM FEW040 SCT060 SCT080 SCT200 10/05 A3010 RMK CU2SC1AC1CI1 PCPN NE+S TCU ASOCTD SLP192
2001 01 05 L METAR CYVR NIL
2001 01 05 22 METAR CYVR 052200Z 22011G22KT 15SM FEW040 SCT060 BKN080 BKN200 10/04 A3013 RMK CU2SC2AC2CI1 TCU ASOCTD PCPN MTNS NW-N SLP202
2001 01 05 23 METAR CYVR 052300Z 21012G20KT 20SM FEW040 FEW060 SCT080 10/04 A3015 RMK CU1SC2AC1 TCU ASOCTD SHWRS N-NE SLP210
2001 01 06 00 METAR CYVR 060000Z 20006KT 20SM FEW040 FEW060 BKN080 10/04 A3017 RMK CU1SC2AC2 TCU ASOCTD SHWRS N-NE SLP217
2001 01 06 01 METAR CYVR 060100Z 17005KT 20SM FEW035 BKN050 BKN080 09/04 A3020 RMK SC1SC5AC1 TCU ASOCTD SLP226
2001 01 06 02 METAR CYVR 060200Z 25007KT 20SM FEW035 FEW055 07/04 A3021 RMK SC1SC1 SLP231
2001 01 06 03 METAR CYVR 060300Z 18004KT 20SM FEW035 FEW060 07/04 A3024 RMK SC1SC1 SLP241
2001 01 06 04 METAR CYVR 060400Z 20007KT 20SM FEW030 FEW070 07/03 A3026 RMK SC1AC1 SLP245
2001 01 06 05 METAR CYVR 060500Z 20006KT 20SM FEW030 FEW070 BKN250 07/02 A3027 RMK SC1AC2CS1 SLP249
2001 01 06 06 METAR CYVR 060600Z 00000KT 20SM FEW030 FEW070 BKN200 05/02 A3028 RMK SC1AC1CI1 SLP254
2001 01 06 07 METAR CYVR 060700Z 22002KT 20SM FEW030 05/02 A3028 RMK SC1 SLP254
2001 01 06 08 METAR CYVR 060800Z 02003KT 20SM FEW050 02/00 A3030 RMK SC1 SLP261
2001 01 06 09 METAR CYVR 060900Z 09006KT 20SM FEW050 02/00 A3031 RMK SC1 SLP263
2001 01 06 10 METAR CYVR 061000Z 09003KT 20SM FEW020 FEW050 03/02 A3032 RMK SC1SC1 SLP266
2001 01 06 11 METAR CYVR 061100Z 11007KT 20SM FEW020 FEW050 01/M00 A3032 RMK SC2SC1 SLP267
2001 01 06 12 METAR CYVR 061200Z 09006KT 20SM FEW020 FEW050 01/M01 A3032 RMK SC1SC1 SLP266
2001 01 06 13 METAR CYVR 061300Z 12002KT 20SM FEW020 02/01 A3032 RMK SC1 SLP267
2001 01 06 14 METAR CYVR 061400Z 03004KT 20SM MIFG SKC 01/00 A3031 RMK SLP265
2001 01 06 15 METAR CYVR 061500Z 09004KT 20SM SKC 01/M00 A3030 RMK SLP260
2001 01 06 16 METAR CYVR 061600Z 00000KT 20SM FEW070 FEW240 02/00 A3031 RMK AC1CI1 SLP263
2001 01 06 17 METAR CYVR 061700Z 36002KT 30SM FEW090 FEW240 02/00 A3032 RMK AC1CI1 SLP267
2001 01 06 18 METAR CYVR 061800Z 00000KT 30SM FEW040 FEW090 FEW240 04/02 A3033 RMK SC1AC1CI0 SLP269
2001 01 06 19 METAR CYVR 061900Z 26003KT 30SM FEW040 FEW090 FEW240 05/03 A3031 RMK SC1AC1CI1 TR CLD CU ASOCTD DSTNT SW SLP264
2001 01 06 20 METAR CYVR 062000Z 31003KT 30SM FEW040 FEW240 08/04 A3028 RMK CU1CI1 TR CLD SLP255
2001 01 06 21 METAR CYVR 062100Z 29008KT 30SM FEW030 FEW240 07/03 A3025 RMK CU1CI0 SLP243
2001 01 06 22 METAR CYVR 062200Z 27011KT 30SM FEW030 FEW240 07/04 A3023 RMK CU1CI0 SLP235
2001 01 06 23 METAR CYVR 062300Z 29012KT 30SM FEW015 BKN250 06/04 A3021 RMK CF1CI0 TR LOW CLD DSNT W-NW SLP231
2001 01 07 00 METAR CYVR 070000Z 30009KT 30SM SCT250 05/03 A3020 RMK CI0 SLP226
2001 01 07 01 METAR CYVR 070100Z 32003KT 30SM FEW250 05/02 A3019 RMK CI0 SLP222
2001 01 07 02 METAR CYVR 070200Z 32005KT 30SM SKC 04/02 A3017 RMK SLP216
2001 01 07 03 METAR CYVR 070300Z 02004KT 30SM SKC 04/01 A3013 RMK SLP204
2001 01 07 04 METAR CYVR 070400Z 11003KT 30SM FEW250 03/00 A3011 RMK CI0 SLP196
2001 01 07 05 METAR CYVR 070500Z 05002KT 30SM SKC 02/00 A3009 RMK SLP190
2001 01 07 06 METAR CYVR 070600Z 14002KT 30SM SKC 03/00 A3006 RMK SLP180
2001 01 07 07 METAR CYVR 070700Z 00000KT 30SM FEW250 01/M01 A3005 RMK CI1 SLP177
2001 01 07 08 METAR CYVR 070800Z 30002KT 30SM SKC 01/M01 A3004 RMK SLP172
2001 01 07 09 METAR CYVR 070900Z 00000KT 30SM MIFG SKC M01/M03 A3002 RMK SLP165
2001 01 07 10 METAR CYVR 071000Z 36002KT 30SM SKC 00/M02 A3001 RMK SLP162
2001 01 07 11 METAR CYVR 071100Z 08002KT 30SM SKC M00/M02 A2998 RMK SLP152
2001 01 07 12 METAR CYVR 071200Z 13002KT 30SM FEW250 M01/M02 A2997 RMK CI0 SLP147
2001 01 07 13 METAR CYVR 071300Z 09003KT 30SM BKN250 M02/M03 A2995 RMK CI1 FROIN SLP140
2001 01 07 14 METAR CYVR 071400Z 09003KT 30SM BKN250 M01/M02 A2992 RMK CI1 FROIN SLP131
2001 01 07 15 METAR CYVR 071500Z 01003KT 30SM BKN250 M01/M02 A2992 RMK CI2 FROIN SLP130
2001 01 07 16 METAR CYVR 071600Z 00000KT 30SM FEW160 BKN250 M01/M02 A2989 RMK AC2CI1 FROIN SLP122
2001 01 07 17 METAR CYVR 071700Z 09003KT 30SM SCT120 BKN200 BKN250 00/M01 A2988 RMK AC2CC1CI1 SLP118
2001 01 07 18 METAR CYVR 071800Z 13002KT 30SM SCT180 BKN250 01/M01 A2988 RMK AC3CI1 VIRGA S-SW SLP117
2001 01 07 19 METAR CYVR 071900Z 02002KT 30SM SCT180 BKN220 02/M00 A2985 RMK AC3CI2 SLP109
2001 01 07 20 METAR CYVR 072000Z 25002KT 30SM SCT150 BKN180 BKN220 05/01 A2982 RMK AC3AC2CI1 VIRGA S-SW SLP097
2001 01 07 21 METAR CYVR 072100Z 00000KT 30SM SCT150 BKN220 06/01 A2978 RMK AC3CI2 SLP084
2001 01 07 22 METAR CYVR 072200Z 00000KT 30SM BKN150 OVC220 05/02 A2975 RMK AC6CI1 ACSL ASOCTD N VIRGA SLP075
2001 01 07 23 METAR CYVR 072300Z 08003KT 30SM BKN180 BKN220 06/02 A2973 RMK CI6CI2 SLP068
2001 01 08 00 METAR CYVR 080000Z 08002KT 30SM BKN180 OVC220 05/02 A2972 RMK CI6CI2 SLP064
2001 01 08 01 METAR CYVR 080100Z 00000KT 30SM BKN140 OVC200 05/01 A2970 RMK AC6CI2 VIRGA SLP057
2001 01 08 02 METAR CYVR 080200Z 09002KT 30SM BKN130 OVC200 04/02 A2969 RMK AC6CI0 SLP052
2001 01 08 03 METAR CYVR 080300Z 11002KT 30SM BKN120 OVC200 05/02 A2967 RMK AC6CI1 SLP048
2001 01 08 04 METAR CYVR 080400Z 04004KT 30SM BKN110 OVC200 06/01 A2969 RMK AC7CI1 SLP052
2001 01 08 05 METAR CYVR 080500Z 04005KT 30SM SCT083 BKN100 OVC200 06/01 A2968 RMK AC3AC4CI1 SLP050
2001 01 08 06 METAR CYVR 080600Z 07008KT 30SM -RA SCT076 OVC091 07/02 A2966 RMK AC3AC5 SLP042
2001 01 08 07 METAR CYVR 080700Z 15003KT 30SM FEW060 SCT076 OVC090 06/01 A2964 RMK SC2AC2AC4 SLP038
2001 01 08 08 METAR CYVR 080800Z 25002KT 30SM FEW050 SCT073 OVC090 05/02 A2967 RMK SC2AC2AC5 SLP046
2001 01 08 09 METAR CYVR 080900Z 17003KT 30SM FEW050 OVC090 06/02 A2967 RMK SC2AC6 SLP047
2001 01 08 10 METAR CYVR 081000Z 05008KT 30SM FEW050 OVC085 06/02 A2968 RMK SC2AC6 SLP049
2001 01 08 11 METAR CYVR 081100Z 07005KT 20SM -RA SCT060 OVC085 06/02 A2969 RMK SC4AC4 SLP053
2001 01 08 12 METAR CYVR 081200Z 09006KT 15SM -RA FEW035 BKN055 OVC085 06/04 A2969 RMK SC2SC3AC2 SLP054
2001 01 08 13 METAR CYVR 081300Z 04007KT 15SM -RA FEW035 BKN052 OVC085 07/05 A2969 RMK SC2SC4AC2 SLP052
2001 01 08 14 METAR CYVR 081400Z 05009KT 15SM -RA FEW030 BKN050 OVC085 08/06 A2968 RMK SC2SC4AC2 SLP050
2001 01 08 15 METAR CYVR 081500Z 05009KT 15SM -RA FEW030 BKN055 OVC085 08/06 A2966 RMK SC2SC4AC2 SLP045
2001 01 08 16 METAR CYVR 081600Z 13007KT 15SM -RA FEW045 SCT055 OVC085 07/05 A2967 RMK SC1SC3AC4 SLP047
2001 01 08 17 METAR CYVR 081700Z 10007KT 15SM FEW040 SCT055 OVC095 08/06 A2969 RMK SC2SC2AC4 SLP053
2001 01 08 18 METAR CYVR 081800Z 09008KT 15SM FEW035 FEW055 BKN075 OVC110 08/06 A2971 RMK SC1SC2AC3AC2 SLP060
2001 01 08 19 METAR CYVR 081900Z 08011KT 15SM -RA FEW040 SCT055 BKN075 OVC100 08/06 A2971 RMK SC1SC2AC2AC2 SLP062
2001 01 08 20 METAR CYVR 082000Z 11010KT 15SM -RA FEW040 SCT050 BKN065 OVC110 09/05 A2972 RMK SC2SC2SC3AC2 SLP064
2001 01 08 21 METAR CYVR 082100Z 11009KT 10SM -RA FEW032 BKN053 BKN065 BKN110 08/06 A2973 RMK SC2SC3SC2AC1 SLP067
2001 01 08 22 METAR CYVR 082200Z 14010KT 12SM -RA FEW035 BKN045 BKN070 BKN120 09/05 A2974 RMK SC2SC3AC2AC1 SLP070
2001 01 08 23 METAR CYVR 082300Z 13009KT 30SM FEW033 BKN045 BKN070 BKN120 09/05 A2975 RMK SC2SC4AC1AC1 SLP075
2001 01 09 00 METAR CYVR 090000Z 14008KT 30SM FEW033 BKN045 BKN070 BKN120 09/06 A2977 RMK SC2SC3AC2AC1 VSBY LWR N-E SLP081
2001 01 09 01 METAR CYVR 090100Z 16006KT 30SM FEW015 SCT038 BKN070 BKN090 09/06 A2981 RMK SC1SC3AC2AC1 VSBY LWR N-E SLP093
2001 01 09 02 METAR CYVR 090200Z 22007KT 30SM FEW015 FEW035 BKN065 BKN090 08/04 A2983 RMK CF1SC2SC4AC1 VSBY LWR N-E SLP101
2001 01 09 03 METAR CYVR 090300Z 20004KT 20SM FEW015 FEW035 BKN062 08/04 A2985 RMK CF1SC2SC4 SLP108
2001 01 09 04 METAR CYVR 090400Z 11003KT 20SM FEW040 SCT058 06/02 A2987 RMK SC1SC2 SLP116
2001 01 09 05 METAR CYVR 090500Z 09005KT 20SM FEW040 FEW058 FEW240 05/02 A2989 RMK SC1SC1CI1 SLP121
2001 01 09 06 METAR CYVR 090600Z 08010KT 20SM FEW040 SCT070 03/01 A2989 RMK SC1AC3 SLP123
2001 01 09 07 METAR CYVR 090700Z 10008KT 20SM FEW030 BKN056 06/04 A2990 RMK SC1SC6 SLP126
2001 01 09 08 METAR CYVR 090800Z 11007KT 20SM FEW015 FEW030 BKN056 BKN110 06/04 A2991 RMK SF1SC2SC3AC2 SLP127
2001 01 09 09 METAR CYVR 090900Z 08010KT 20SM FEW015 BKN038 BKN100 06/04 A2990 RMK SF1SC5AC2 SLP124
2001 01 09 10 METAR CYVR 091000Z 08010KT 15SM FEW015 SCT038 BKN100 06/04 A2990 RMK SF1SC4AC3 SLP125
2001 01 09 11 METAR CYVR 091100Z 09015KT 15SM FEW019 SCT038 BKN085 06/04 A2987 RMK SF1SC3AC3 SLP114
2001 01 09 12 METAR CYVR 091200Z 10011KT 15SM FEW019 BKN036 BKN080 06/03 A2984 RMK SF2SC4AC2 SLP104
2001 01 09 13 METAR CYVR 091300Z 09010KT 15SM FEW019 BKN035 BKN080 06/03 A2981 RMK SF2SC4AC2 SLP095
2001 01 09 14 METAR CYVR 091400Z 08011KT 15SM FEW020 BKN033 BKN080 06/02 A2979 RMK SF2SC4AC2 SLP086
2001 01 09 15 METAR CYVR 091500Z 12010KT 15SM FEW020 SCT035 OVC085 06/03 A2977 RMK SF2SC2AC4 SLP080
2001 01 09 16 METAR CYVR 091600Z 10010KT 15SM FEW035 BKN085 05/03 A2974 RMK SC2AC6 SLP070
2001 01 09 17 METAR CYVR 091700Z 10011KT 15SM FEW035 BKN085 BKN120 06/03 A2971 RMK SC1AC4AC1 SLP062
2001 01 09 18 METAR CYVR 091800Z 09014KT 15SM FEW035 BKN085 BKN120 07/03 A2967 RMK SC1AC4AC1 SLP048
2001 01 09 19 METAR CYVR 091900Z 09013KT 15SM FEW050 SCT085 BKN150 07/03 A2963 RMK SC2AC2AC4 SLP035
2001 01 09 20 METAR CYVR 092000Z 10013G18KT 15SM FEW080 SCT150 BKN180 07/02 A2958 RMK AC2AC2AC4 SLP017
2001 01 09 21 METAR CYVR 092100Z 09014KT 15SM FEW080 SCT150 BKN180 07/02 A2954 RMK AC2AC2AC3 SLP002
2001 01 09 22 METAR CYVR 092200Z 10012G20KT 15SM FEW080 SCT120 OVC150 07/02 A2949 RMK AC1AC3AC4 SLP985
2001 01 09 23 METAR CYVR 092300Z 10009KT 30SM FEW080 BKN120 OVC150 08/01 A2946 RMK AC2AC3AC2 VIRGA NE SLP975
2001 01 10 00 METAR CYVR 100000Z 11010KT 30SM FEW070 BKN120 OVC220 07/01 A2944 RMK AC2AC4CI2 SLP969
2001 01 10 01 METAR CYVR 100100Z 10009KT 30SM FEW070 BKN100 OVC150 08/01 A2943 RMK AC2AC5AC1 SLP967
2001 01 10 02 METAR CYVR 100200Z 13010KT 20SM FEW055 BKN085 OVC120 08/00 A2946 RMK SC2AC4AC2 VIRGA SLP977
2001 01 10 03 METAR CYVR 100300Z 09012KT 15SM -RA FEW035 BKN052 OVC080 07/02 A2949 RMK SC2SC4AC2 SLP986
2001 01 10 04 METAR CYVR 100400Z 14022G30KT 15SM -RA FEW030 BKN055 OVC080 09/03 A2952 RMK SC2SC4AC2 SLP996
2001 01 10 05 METAR CYVR 100500Z 14017G28KT 15SM FEW030 SCT055 BKN070 OVC120 09/04 A2953 RMK SC2SC2AC3AC2 SLP001
2001 01 10 06 METAR CYVR 100600Z 14024G33KT 15SM FEW030 BKN070 BKN120 09/04 A2955 RMK SC2AC4AC2 SLP006
2001 01 10 07 METAR CYVR 100700Z 15010G15KT 15SM -RA FEW025 BKN070 OVC110 09/04 A2960 RMK SC2AC4AC2 RA VRY LGT SLP023
2001 01 10 08 METAR CYVR 100800Z 15012G17KT 15SM -RA FEW025 OVC062 09/04 A2962 RMK SC2SC6 RA VRY LGT INTMT SLP030
2001 01 10 09 METAR CYVR 100900Z 14017G22KT 15SM FEW025 BKN057 BKN092 08/04 A2965 RMK SC2SC4AC1 SLP041
2001 01 10 10 METAR CYVR 101000Z 14011KT 15SM FEW025 SCT057 SCT092 08/05 A2968 RMK SC2SC2AC1 SLP049
2001 01 10 11 METAR CYVR 101100Z 14008KT 15SM FEW025 SCT038 BKN041 OVC057 08/05 A2973 RMK SC2SC2SC2SC2 TCU ASOCTD SLP068
2001 01 10 12 METAR CYVR 101200Z 16007KT 15SM FEW015 SCT025 BKN038 BKN092 07/04 A2974 RMK CF1SC2SC2AC1 TCU ASOCTD VSBY LWR E SHWRS SLP072
2001 01 10 13 METAR CYVR 101300Z 11009KT 15SM FEW015 FEW025 SCT052 07/04 A2976 RMK CF1SC2SC2 TCU ASOCTD E SLP079
2001 01 10 14 METAR CYVR 101400Z 10010KT 15SM FEW015 FEW025 SCT045 06/04 A2980 RMK CF1SC2SC1 SLP091
2001 01 10 15 METAR CYVR 101500Z 07008KT 20SM FEW025 SCT045 BKN090 04/03 A2982 RMK SC2SC2AC2 SLP097
2001 01 10 16 METAR CYVR 101600Z 08007KT 30SM FEW015 FEW025 FEW045 SCT090 05/04 A2983 RMK SF1SC1SC1AC1 SLP101
2001 01 10 17 METAR CYVR 101700Z 08006KT 30SM FEW025 FEW045 FEW090 05/03 A2985 RMK SF1SC1AC1 TR SF SLP108
2001 01 10 18 METAR CYVR 101800Z 09007KT 30SM FEW012 FEW025 FEW045 SCT090 08/05 A2987 RMK SF1SC1SC1AC1 SLP114
2001 01 10 19 METAR CYVR 101900Z 11007KT 30SM FEW012 FEW025 FEW045 FEW090 09/05 A2987 RMK CF1CU1SC1AC1 TR CF SLP113
2001 01 10 20 METAR CYVR 102000Z 10007KT 30SM FEW025 BKN040 BKN080 09/05 A2986 RMK CU2SC3AC1 SLP110
2001 01 10 21 METAR CYVR 102100Z 08008KT 30SM FEW025 FEW040 SCT090 09/06 A2982 RMK CU2SC1AC1 SLP099
2001 01 10 22 METAR CYVR 102200Z 10008KT 30SM FEW012 FEW025 FEW040 10/05 A2981 RMK CF1CU1SC1 SLP093
2001 01 10 23 METAR CYVR 102300Z 05007KT 30SM FEW035 FEW240 10/03 A2979 RMK SC1CI1 CU ASOCTD SLP088
2001 01 11 00 METAR CYVR 110000Z 04003KT 30SM FEW035 FEW150 BKN240 09/03 A2977 RMK SC1AC1CI1 SLP082
2001 01 11 01 METAR CYVR 110100Z 33002KT 30SM FEW035 FEW150 BKN240 07/02 A2978 RMK SC1AC1CI2 TR SC SLP084
2001 01 11 02 METAR CYVR 110200Z 00000KT 30SM FEW150 BKN240 06/02 A2977 RMK AC1CI2 SLP080
2001 01 11 03 METAR CYVR 110300Z 34006KT 30SM FEW150 BKN240 05/02 A2974 RMK AC1CI2 SLP069
2001 01 11 04 METAR CYVR 110400Z 00000KT 30SM FEW150 OVC220 05/03 A2972 RMK AC1CI4 SLP064
2001 01 11 05 METAR CYVR 110500Z 31002KT 30SM OVC190 06/03 A2972 RMK CI6 SLP064
2001 01 11 06 METAR CYVR 110600Z 30003KT 30SM SCT150 OVC190 04/02 A2974 RMK AC3CI4 SLP069
2001 01 11 07 METAR CYVR 110700Z 32008KT 30SM SCT140 OVC180 06/03 A2973 RMK AC3CI4 SLP067
2001 01 11 08 METAR CYVR 110800Z 32006KT 30SM SCT140 OVC190 05/03 A2973 RMK AC4CI3 SLP066
2001 01 11 09 METAR CYVR 110900Z 34005KT 30SM SCT100 OVC120 06/03 A2972 RMK AC3AS4 SLP064
2001 01 11 10 METAR CYVR 111000Z 27007KT 30SM SCT100 OVC120 06/03 A2974 RMK AC4AS3 MOON DMLY VSBL SLP069
2001 01 11 11 METAR CYVR 111100Z 31014KT 30SM SCT080 OVC130 06/04 A2972 RMK AC4AS4 SLP065
2001 01 11 12 METAR CYVR 111200Z 31009KT 30SM SCT080 OVC120 06/04 A2972 RMK AC3AC5 SLP063
2001 01 11 13 METAR CYVR 111300Z 30014KT 30SM SCT080 OVC110 07/02 A2973 RMK AC3AC5 SLP066
2001 01 11 14 METAR CYVR 111400Z 30012KT 30SM BKN081 OVC110 06/04 A2973 RMK AC5AC3 SLP067
2001 01 11 15 METAR CYVR 111500Z 30012KT 30SM BKN081 07/03 A2972 RMK AC6 SLP065
2001 01 11 16 METAR CYVR 111600Z 30015KT 30SM SCT081 BKN150 OVC220 06/03 A2975 RMK AC4AS2CI2 SLP073
2001 01 11 17 METAR CYVR 111700Z 32010KT 30SM SCT078 BKN150 BKN220 07/03 A2977 RMK AC4AS2CS1 SLP080
2001 01 11 18 METAR CYVR 111800Z 32011KT 30SM BKN078 BKN150 BKN220 07/04 A2977 RMK AC6AS1CS1 SLP082
2001 01 11 19 METAR CYVR 111900Z 31013KT 30SM BKN078 BKN150 07/04 A2980 RMK AC6AS1 SLP091
2001 01 11 20 METAR CYVR 112000Z 30017KT 30SM BKN078 OVC150 07/04 A2982 RMK AC7AS1 SLP097
2001 01 11 21 METAR CYVR 112100Z 30017KT 30SM BKN078 OVC150 07/04 A2981 RMK AC7AS1 SLP093
2001 01 11 22 METAR CYVR 112200Z 30017KT 30SM BKN078 BKN110 07/04 A2981 RMK AC6AS1 SLP095
2001 01 11 23 METAR CYVR 112300Z 31012KT 30SM FEW030 SCT075 BKN120 07/04 A2982 RMK CF1AC3AC2 TR CF SLP096
2001 01 12 00 METAR CYVR 120000Z 30014KT 30SM FEW025 FEW075 SCT120 SCT230 06/04 A2983 RMK CF1AC2AC2CI1 TR CF W QUAD SLP100
2001 01 12 01 METAR CYVR 120100Z 30017KT 30SM FEW075 SCT120 SCT230 06/03 A2984 RMK AC2AC1CI1 SLP106
2001 01 12 02 METAR CYVR 120200Z 30012KT 30SM SCT069 BKN075 BKN120 06/04 A2985 RMK AC3AC3AC1 SLP109
2001 01 12 03 METAR CYVR 120300Z 30012KT 30SM FEW070 SCT078 BKN093 06/04 A2986 RMK AC2AC2AC4 SLP112
2001 01 12 04 METAR CYVR 120400Z 31010KT 30SM FEW070 BKN080 BKN095 06/03 A2988 RMK AC2AC3AC2 SLP118
2001 01 12 05 METAR CYVR 120500Z 31008KT 30SM FEW070 OVC100 06/04 A2989 RMK AC2AC6 SLP122
2001 01 12 06 METAR CYVR 120600Z 31008KT 30SM FEW070 OVC100 06/04 A2990 RMK AC2AC6 SLP126
2001 01 12 07 METAR CYVR 120700Z 34003KT 30SM FEW070 OVC110 06/04 A2992 RMK AC2AC6 SML BINOVC SLP130
2001 01 12 08 METAR CYVR 120800Z 34004KT 30SM FEW070 OVC110 05/03 A2994 RMK AC1AC6 SLP138
2001 01 12 09 METAR CYVR 120900Z 32007KT 30SM FEW060 OVC110 06/03 A2995 RMK SC1AC6 SLP141
2001 01 12 10 METAR CYVR 121000Z 33006KT 30SM FEW060 OVC110 05/03 A2996 RMK SC1AC6 SLP144
2001 01 12 11 METAR CYVR 121100Z 33006KT 30SM FEW060 OVC110 05/03 A2997 RMK SC1AC6 SLP147
2001 01 12 12 METAR CYVR 121200Z 35004KT 30SM FEW060 OVC110 04/02 A2997 RMK SC1AC7 SLP150
2001 01 12 13 METAR CYVR 121300Z 30009KT 30SM FEW060 OVC110 04/03 A3000 RMK SC1AC7 SLP157
2001 01 12 14 METAR CYVR 121400Z 36004KT 30SM FEW070 OVC110 05/03 A3000 RMK AC2AC6 SLP159
2001 01 12 15 METAR CYVR 121500Z 10005KT 30SM SCT078 BKN110 04/02 A3001 RMK AC3AC4 SLP161
2001 01 12 16 METAR CYVR 121600Z 12003KT 30SM FEW078 BKN110 04/02 A3002 RMK AC2AC5 SLP164
2001 01 12 17 METAR CYVR 121700Z 12004KT 30SM FEW078 BKN100 04/02 A3002 RMK AC2AC5 SLP166
2001 01 12 18 METAR CYVR 121800Z 10006KT 30SM FEW015 SCT070 BKN100 05/02 A3004 RMK SF1AC2AC4 SLP171
2001 01 12 19 METAR CYVR 121900Z 11003KT 30SM FEW030 SCT062 BKN100 06/02 A3004 RMK CF1SC3AC4 SLP171
2001 01 12 20 METAR CYVR 122000Z 18003KT 30SM FEW030 BKN060 BKN100 06/02 A3003 RMK CF1SC4AC2 SLP169
2001 01 12 21 METAR CYVR 122100Z 19004KT 30SM SCT060 BKN100 07/02 A3003 RMK SC3AC4 SLP168
2001 01 12 22 METAR CYVR 122200Z 26003KT 30SM FEW065 BKN100 OVC150 06/04 A3002 RMK SC2AC3AC2 SLP166
2001 01 12 23 METAR CYVR 122300Z 29003KT 30SM BKN064 OVC110 06/03 A3002 RMK SC5AC3 SLP167
2001 01 13 00 METAR CYVR 130000Z 00000KT 30SM SCT062 BKN110 06/03 A3003 RMK SC4AC3 SLP168
2001 01 13 01 METAR CYVR 130100Z 00000KT 20SM SCT062 BKN110 06/03 A3003 RMK SC3AC4 VIRGA SW SLP168
2001 01 13 02 METAR CYVR 130200Z 00000KT 20SM FEW040 BKN070 OVC110 05/03 A3003 RMK SC2AC3AC3 SLP169
2001 01 13 03 METAR CYVR 130300Z 15003KT 20SM FEW040 BKN072 OVC110 05/03 A3004 RMK SC1AC5AC2 SLP171
2001 01 13 04 METAR CYVR 130400Z 20003KT 30SM SCT070 BKN120 05/03 A3004 RMK AC3AC4 SLP171
2001 01 13 05 METAR CYVR 130500Z 10005KT 20SM BKN076 BKN120 05/03 A3003 RMK AC5AC2 SLP169
2001 01 13 06 METAR CYVR 130600Z 08006KT 20SM BKN070 OVC120 04/03 A3003 RMK AC6AC2 SLP168
2001 01 13 07 METAR CYVR 130700Z 11004KT 20SM FEW052 BKN072 BKN120 05/03 A3002 RMK SC2AC3AC2 SLP167
2001 01 13 08 METAR CYVR 130800Z 09005KT 20SM FEW050 BKN072 BKN110 04/02 A3003 RMK SC2AC3AC2 SLP168
2001 01 13 09 METAR CYVR 130900Z 06004KT 12SM -RA FEW025 BKN060 OVC075 05/03 A3002 RMK SC2SC3AC3 SLP166
2001 01 13 10 METAR CYVR 131000Z 10004KT 12SM -RA FEW020 BKN050 OVC075 05/03 A3002 RMK SC2SC5AC2 SLP166
2001 01 13 11 METAR CYVR 131100Z 10003KT 12SM -RA FEW018 BKN045 OVC075 05/03 A3002 RMK SC2SC4AC2 SLP165
2001 01 13 12 METAR CYVR 131200Z 12004KT 12SM -RA SCT018 BKN045 OVC070 05/03 A3002 RMK SC3SC3AC2 SLP166
2001 01 13 13 METAR CYVR 131300Z 11002KT 12SM -RA FEW015 BKN025 OVC045 04/03 A3002 RMK SC2SC4SC2 SLP167
2001 01 13 14 METAR CYVR 131400Z 10008KT 12SM -RA FEW018 BKN027 OVC040 04/02 A3004 RMK SC2SC4SC2 SLP172
2001 01 13 15 METAR CYVR 131500Z 08009KT 12SM -RA FEW012 BKN022 OVC040 04/02 A3004 RMK SF2SC4SC2 SLP172
2001 01 13 16 METAR CYVR 131600Z 08011KT 8SM -RA FEW022 OVC040 04/02 A3005 RMK SC2SC6 SLP174
2001 01 13 17 METAR CYVR 131700Z 08011KT 6SM -RA BR BKN020 OVC040 04/02 A3006 RMK SC5SC3 SLP178
2001 01 13 18 METAR CYVR 131800Z 08011KT 6SM -RA BR BKN020 OVC040 05/02 A3008 RMK SC5SC3 SLP184
2001 01 13 19 METAR CYVR 131900Z 09011KT 10SM -RA BKN020 BKN040 OVC080 05/02 A3009 RMK SC6SC2AC1 SLP189
2001 01 13 20 METAR CYVR 132000Z 09011KT 8SM -RA FEW012 BKN020 BKN040 OVC080 05/02 A3009 RMK SF1SC5SC2AC1 SLP189
2001 01 13 21 METAR CYVR 132100Z 08006KT 8SM -RA FEW012 BKN020 BKN040 OVC080 05/03 A3009 RMK SF2SC4SC2AC1 SLP188
2001 01 13 22 METAR CYVR 132200Z 13006KT 12SM -RA FEW012 BKN020 BKN040 BKN080 06/03 A3009 RMK SF2SC3SC2AC1 SLP189
2001 01 13 23 METAR CYVR 132300Z 08003KT 20SM FEW012 FEW020 BKN040 BKN080 07/03 A3009 RMK SF1SC2SC2AC1 SLP188
2001 01 14 00 METAR CYVR 140000Z 31002KT 20SM FEW012 FEW020 SCT040 BKN090 07/02 A3010 RMK SF1SC1SC2AC2 SLP191
2001 01 14 01 METAR CYVR 140100Z 29004KT 20SM FEW020 FEW040 SCT130 04/01 A3011 RMK SF1SC1AC2 SLP196
2001 01 14 02 METAR CYVR 140200Z 32004KT 20SM FEW020 FEW040 FEW130 03/01 A3012 RMK SF1SC1AC2 TR SF SLP200
2001 01 14 03 METAR CYVR 140300Z 32003KT 20SM FEW040 FEW130 03/02 A3013 RMK SC1AC2 SLP204
2001 01 14 04 METAR CYVR 140400Z 30008KT 20SM BKN037 BKN130 04/02 A3015 RMK SC5AC1 SLP210
2001 01 14 05 METAR CYVR 140500Z 31006KT 20SM FEW020 OVC036 05/03 A3016 RMK SC1SC7 SLP213
2001 01 14 06 METAR CYVR 140600Z 31007KT 20SM BKN015 BKN033 05/03 A3018 RMK SF5SC2 SLP219
2001 01 14 07 METAR CYVR 140700Z 30007KT 20SM FEW012 SCT017 BKN033 05/03 A3019 RMK SF2SF2SC4 SLP223
2001 01 14 08 METAR CYVR 140800Z 01002KT 15SM FEW010 SCT022 BKN037 04/03 A3021 RMK SF2SC2SC3 SLP229
2001 01 14 08 METAR CYVR 140800Z 01002KT 15SM FEW010 SCT022 BKN037 04/03 A3021 RMK SF2SC2SC3 SLP229
2001 01 14 10 METAR CYVR 141000Z 11005KT 12SM FEW015 SCT025 BKN044 03/02 A3024 RMK SF2SC2SC4 SLP240
2001 01 14 11 METAR CYVR 141100Z 09003KT 15SM FEW015 FEW025 BKN040 OVC120 04/02 A3026 RMK SF1SC2SC4AC2 SLP247
2001 01 14 12 METAR CYVR 141200Z 13002KT 15SM -RA FEW015 SCT023 OVC040 04/02 A3027 RMK SF2SC2SC5 SLP250
2001 01 14 13 METAR CYVR 141300Z 11004KT 15SM SCT022 BKN045 BKN090 03/02 A3028 RMK SC4SC2AC1 SLP254
2001 01 14 14 METAR CYVR 141400Z 10004KT 15SM BKN021 BKN042 OVC090 04/02 A3030 RMK SC5SC2AC1 SLP261
2001 01 14 15 METAR CYVR 141500Z 00000KT 12SM FEW012 BKN022 BKN040 OVC090 04/02 A3033 RMK ST2SC3SC2AC1 VSBY LWR N-E SLP271
2001 01 14 16 METAR CYVR 141600Z 08002KT 10SM FEW010 BKN019 BKN040 OVC090 04/02 A3036 RMK ST2SC2SC2AC2 VSBY LWR N-SE SLP279
2001 01 14 17 METAR CYVR 141700Z 14003KT 6SM -SHRA BR SCT010 BKN021 BKN046 04/02 A3038 RMK ST3SC2SC2 SLP286
2001 01 14 18 METAR CYVR 141800Z 00000KT 6SM BR FEW010 BKN022 OVC047 05/02 A3040 RMK ST2SC2SC2 SLP293
2001 01 14 19 METAR CYVR 141900Z 24004KT 8SM -RA SCT010 BKN014 OVC041 05/03 A3041 RMK ST3SC2SC2 VSBY/CIG LWR W-N SLP298
2001 01 14 20 METAR CYVR 142000Z 17002KT 12SM FEW010 SCT015 BKN041 BKN140 05/03 A3040 RMK SF2SC2SC2AC1 VSBY/CIG LWR NW-E TCU EMBDD SLP293
2001 01 14 21 METAR CYVR 142100Z 23004KT 12SM FEW010 SCT020 BKN041 05/03 A3041 RMK SF2SC2SC3 TCU EMBDD SLP296
2001 01 14 22 METAR CYVR 142200Z 24003KT 12SM FEW010 SCT020 BKN045 06/03 A3041 RMK SF1SC3SC3 SLP298
2001 01 14 23 METAR CYVR 142300Z 23002KT 12SM FEW010 FEW020 BKN045 06/02 A3042 RMK SF1SC2SC6 SHWRS DSNT NE VSBY SW-NW 30 SLP301
2001 01 15 00 METAR CYVR 150000Z 27002KT 30SM FEW012 BKN044 05/03 A3044 RMK CF2SC6 VSBY NE-SE 15 SLP306
2001 01 15 01 METAR CYVR 150100Z 00000KT 30SM FEW012 OVC044 05/02 A3045 RMK CF2SC6 VSBY NE-SE 15 SLP310
2001 01 15 02 METAR CYVR 150200Z 00000KT 30SM FEW010 OVC043 05/02 A3046 RMK CF2SC6 SML BINOVC VSBY NE 12 SLP314
2001 01 15 03 METAR CYVR 150300Z 18002KT 20SM FEW010 OVC045 05/02 A3047 RMK CF2SC6 SLP318
2001 01 15 04 METAR CYVR 150400Z 00000KT 20SM FEW010 BKN047 05/02 A3047 RMK CF1SC6 SLP319
2001 01 15 05 METAR CYVR 150500Z 00000KT 12SM FEW010 BKN047 04/02 A3047 RMK CF1SC7 TR CF VSBY NE-E 8 SLP319
2001 01 15 06 METAR CYVR 150600Z 00000KT 15SM FEW010 BKN046 04/02 A3048 RMK CF1SC6 TR CF SLP322
2001 01 15 07 METAR CYVR 150700Z 11004KT 15SM FEW045 03/01 A3049 RMK SC2 SLP326
2001 01 15 08 METAR CYVR 150800Z 13003KT 10SM SCT045 03/01 A3051 RMK SC3 SLP330
2001 01 15 09 METAR CYVR 150900Z 07002KT 10SM FEW015 FEW045 02/00 A3051 RMK SC1SC2 SLP330
2001 01 15 10 METAR CYVR 151000Z 01003KT 8SM MIFG FEW015 FEW040 00/M01 A3051 RMK SC1SC1 SLP332
2001 01 15 11 METAR CYVR 151100Z 00000KT 15SM MIFG SCT011 SCT040 01/M01 A3052 RMK ST2SC1 SLP335
2001 01 15 12 METAR CYVR 151200Z 11003KT 15SM MIFG FEW010 SCT140 01/M01 A3051 RMK ST1AS2 SLP332
2001 01 15 13 METAR CYVR 151300Z 09002KT 15SM FEW012 FEW030 M00/M01 A3052 RMK SF1SC2 SLP334
2001 01 15 14 METAR CYVR 151400Z 00000KT 15SM FEW025 M01/M02 A3052 RMK SC1 SLP334
2001 01 15 15 METAR CYVR 151500Z 00000KT 15SM FEW025 BKN100 M00/M02 A3052 RMK SC1AC2 SLP335
2001 01 15 16 METAR CYVR 151600Z 00000KT 15SM MIFG FEW020 SCT100 BKN240 M00/M02 A3052 RMK SC1AC2CI0 SLP336
2001 01 15 17 METAR CYVR 151700Z 00000KT 20SM FEW020 SCT100 BKN240 01/M01 A3052 RMK SC1AC1CI0 SLP335
2001 01 15 18 METAR CYVR 151800Z 00000KT 30SM FEW020 FEW100 SCT240 01/00 A3052 RMK SC1AC1CI0 TR LWR LYR SLP335
2001 01 15 19 METAR CYVR 151900Z 00000KT 30SM FEW020 FEW240 05/01 A3052 RMK SC1CI1 TR SC SLP336
2001 01 15 20 METAR CYVR 152000Z 25003KT 30SM FEW020 FEW240 05/00 A3052 RMK SC1CI1 HZ TR SC SLP333
2001 01 15 21 METAR CYVR 152100Z 32008KT 30SM FEW020 FEW140 FEW240 06/M01 A3050 RMK SC1AC1CI1 HZ TR SC/AC SLP329
2001 01 15 22 METAR CYVR 152200Z 30007KT 30SM FEW030 FEW140 FEW240 06/01 A3049 RMK SC1AC1CI0 HZ TR SC/AC SLP326
2001 01 15 23 METAR CYVR 152300Z 29005KT 30SM FEW030 FEW140 FEW240 06/01 A3048 RMK SC1AC1CI0 HZ TR SC/AC SLP320
2001 01 16 00 METAR CYVR 160000Z 29005KT 30SM FEW030 FEW140 BKN240 05/01 A3047 RMK CU1AC1CI0 TR CU/AC HZ E SLP319
2001 01 16 01 METAR CYVR 160100Z 28004KT 30SM FEW030 FEW240 04/01 A3047 RMK SC1CI0 TR LOW CLD DSNT SW-W SLP319
2001 01 16 02 METAR CYVR 160200Z 32002KT 30SM FEW240 04/01 A3047 RMK CI1 SLP316
2001 01 16 03 METAR CYVR 160300Z 00000KT 30SM SKC 02/M00 A3047 RMK SLP317
2001 01 16 04 METAR CYVR 160400Z 00000KT 30SM SKC 02/M00 A3047 RMK SLP316
2001 01 16 05 METAR CYVR 160500Z 04003KT 30SM SKC 01/M01 A3047 RMK SLP316
2001 01 16 06 METAR CYVR 160600Z 09003KT 30SM SKC 00/M02 A3047 RMK SLP318
2001 01 16 07 METAR CYVR 160700Z 13004KT 30SM SKC 00/M02 A3047 RMK SLP318
2001 01 16 08 METAR CYVR 160800Z 10003KT 30SM SKC M01/M03 A3047 RMK SLP319
2001 01 16 09 METAR CYVR 160900Z 36002KT 30SM SKC M01/M03 A3047 RMK FROIN SLP319
2001 01 16 10 METAR CYVR 161000Z 10004KT 30SM FEW240 M02/M03 A3047 RMK CI1 FROIN SLP318
2001 01 16 11 METAR CYVR 161100Z 11004KT 30SM FEW140 FEW240 M00/M02 A3047 RMK AC1CI0 FROIN SLP319
2001 01 16 12 METAR CYVR 161200Z 09003KT 30SM FEW140 M02/M04 A3046 RMK AC1 FROIN SLP314
2001 01 16 13 METAR CYVR 161300Z 08004KT 30SM FEW018 FEW140 M02/M04 A3045 RMK ST2AC1 FROIN TR AC SLP310
2001 01 16 14 METAR CYVR 161400Z 09005KT 30SM FEW018 FEW140 M03/M05 A3044 RMK ST1AC1 FROIN TR AC SLP307
2001 01 16 15 METAR CYVR 161500Z 09003KT 30SM FEW020 FEW140 M02/M04 A3043 RMK ST1AC1 FROIN SLP304
2001 01 16 16 METAR CYVR 161600Z 11006KT 30SM FEW070 FEW240 M02/M04 A3043 RMK AC1CI0 FROIN SLP303
2001 01 16 17 METAR CYVR 161700Z 10005KT 20SM FEW030 FEW070 FEW240 M01/M03 A3043 RMK CU1AC1CI0 HZ TR CU/AC SW SLP305
2001 01 16 18 METAR CYVR 161800Z 12004KT 30SM FEW020 FEW240 01/M01 A3044 RMK CU1CI0 HZ TR CU SW SLP307
2001 01 16 19 METAR CYVR 161900Z 14005KT 20SM FEW020 FEW240 03/M01 A3043 RMK CU1CI0 HZ TR CU SW SLP304
2001 01 16 20 METAR CYVR 162000Z 15003KT 30SM FEW020 FEW240 04/M02 A3041 RMK CU1CI1 HZ TR CU SW SLP296
2001 01 16 21 METAR CYVR 162100Z 20005KT 30SM FEW030 FEW240 05/M02 A3040 RMK CU1CI1 HZ TR CU SW SLP293
2001 01 16 22 METAR CYVR 162200Z 24005KT 30SM FEW030 FEW240 06/M02 A3039 RMK CF1CI2 HZ SLP291
2001 01 16 23 METAR CYVR 162300Z 27003KT 30SM FEW020 BKN240 04/M01 A3040 RMK ST1CI2 SLP295
2001 01 17 00 METAR CYVR 170000Z 00000KT 30SM FEW020 FEW150 BKN240 04/M02 A3041 RMK SC1AC1CI2 SLP296
2001 01 17 01 METAR CYVR 170100Z 00000KT 20SM FEW020 FEW150 BKN240 03/M02 A3041 RMK SC1AC1CI2 SLP298
2001 01 17 02 METAR CYVR 170200Z 00000KT 20SM FEW020 BKN240 02/M02 A3041 RMK SC1CI2 SLP297
2001 01 17 03 METAR CYVR 170300Z 00000KT 20SM OVC240 02/M01 A3040 RMK CI3 SLP295
2001 01 17 04 METAR CYVR 170400Z 09004KT 20SM OVC240 01/M02 A3038 RMK CI5 SLP287
2001 01 17 05 METAR CYVR 170500Z 08002KT 20SM OVC240 01/M02 A3039 RMK CI4 SLP292
2001 01 17 06 METAR CYVR 170600Z 04002KT 20SM FEW240 00/M02 A3041 RMK CI2 SLP299
2001 01 17 07 METAR CYVR 170700Z 00000KT 20SM FEW240 00/M02 A3040 RMK CI2 SLP295
2001 01 17 08 METAR CYVR 170800Z 10005KT 20SM BKN240 00/M02 A3040 RMK CI3 SLP295
2001 01 17 09 METAR CYVR 170900Z 00000KT 20SM BKN240 M00/M03 A3041 RMK CI3 SLP298
2001 01 17 10 METAR CYVR 171000Z 09004KT 20SM BKN220 M00/M03 A3041 RMK CI5 FROIN SLP299
2001 01 17 11 METAR CYVR 171100Z 09002KT 20SM BKN210 01/M02 A3042 RMK CI6 SLP300
2001 01 17 12 METAR CYVR 171200Z 14002KT 20SM OVC210 01/M02 A3041 RMK CI6 SLP299
2001 01 17 13 METAR CYVR 171300Z 05003KT 20SM BKN140 OVC210 M01/M03 A3041 RMK AC5CI3 MOON DMLY VSBL SLP299
2001 01 17 14 METAR CYVR 171400Z 14003KT 20SM BKN140 OVC210 02/M01 A3041 RMK AC6CI2 MOON DMLY VSBL SLP298
2001 01 17 15 METAR CYVR 171500Z 11004KT 20SM BKN150 BKN210 01/M02 A3041 RMK AC6CI1 SLP299
2001 01 17 16 METAR CYVR 171600Z 10005KT 20SM FEW120 BKN150 OVC210 00/M02 A3043 RMK AC2AC3CI2 SLP303
2001 01 17 17 METAR CYVR 171700Z 08005KT 20SM SCT100 BKN150 BKN210 02/M02 A3043 RMK AC3AC2CI2 VIRGA SLP305
2001 01 17 18 METAR CYVR 171800Z 11006KT 20SM BKN092 BKN120 02/M01 A3045 RMK AC5AC2 FG BNK OVR WTR DSTNT SW SLP310
2001 01 17 19 METAR CYVR 171900Z 09005KT 20SM BKN082 BKN100 OVC140 03/M01 A3046 RMK AC5AC2AC1 FG BNK OVR WTR DSTNT SW SLP313
2001 01 17 20 METAR CYVR 172000Z 11004KT 20SM BKN074 BKN100 OVC140 04/M00 A3045 RMK AS5AC2AC1 FG BNK OVR WTR DSTNT SW VIRGA SLP311
2001 01 17 21 METAR CYVR 172100Z 09004KT 20SM BKN064 BKN080 OVC100 05/00 A3043 RMK SC5AS2AC2 FG BNK OVR WTR DSTNT SW-W VIRGA HZ SLP304
2001 01 17 22 METAR CYVR 172200Z 09002KT 20SM OVC057 05/00 A3041 RMK SC8 FG BNK OVR WTR SW-NW HZ SLP296
2001 01 17 23 METAR CYVR 172300Z 21004KT 15SM OVC055 05/M00 A3040 RMK SC8 VIRGA N SLP295
2001 01 18 00 METAR CYVR 180000Z 21003KT 15SM -RA FEW030 OVC054 04/00 A3041 RMK SF2SC6 SLP297
2001 01 18 01 METAR CYVR 180100Z 36006KT 8SM -RA FEW017 OVC042 04/00 A3043 RMK SF2SC6 SLP303
2001 01 18 02 METAR CYVR 180200Z 07010KT 8SM -RA FEW015 OVC045 04/01 A3042 RMK SF2SC6 SLP301
2001 01 18 03 METAR CYVR 180300Z 04007KT 10SM -RA FEW015 OVC043 04/01 A3042 RMK SF2SC6 SLP300
2001 01 18 04 METAR CYVR 180400Z 08008KT 6SM -RA BR FEW015 OVC038 04/02 A3041 RMK SF2SC6 SLP299
2001 01 18 05 METAR CYVR 180500Z 09005KT 6SM -RA BR FEW015 BKN024 OVC038 04/02 A3041 RMK SF2SF4SC2 SLP297
2001 01 18 06 METAR CYVR 180600Z 09004KT 10SM -RA FEW015 OVC027 03/02 A3040 RMK SF2SF6 SLP293
2001 01 18 07 METAR CYVR 180700Z 11005KT 15SM FEW015 OVC026 03/02 A3040 RMK SF2SC6 SLP293
2001 01 18 08 METAR CYVR 180800Z 11005KT 15SM FEW015 OVC030 03/02 A3040 RMK SF2SC6 SLP294
2001 01 18 09 METAR CYVR 180900Z 09003KT 15SM -RA FEW015 OVC030 04/02 A3039 RMK SF2SC6 RA- VRY LGT SLP290
2001 01 18 10 METAR CYVR 181000Z 11002KT 15SM FEW015 BKN030 OVC047 04/02 A3038 RMK SF2SC5SC2 SLP287
2001 01 18 11 METAR CYVR 181100Z CCC 00000KT 15SM FEW015 BKN030 OVC047 04/02 A3037 RMK SF2SC5SC2 SLP285
2001 01 18 12 METAR CYVR 181200Z 00000KT 15SM FEW015 BKN032 OVC060 04/02 A3035 RMK SF1SC5SC2 SLP278
2001 01 18 13 METAR CYVR 181300Z 08004KT 15SM FEW015 BKN035 OVC060 04/02 A3033 RMK SF1SC4SC3 SLP269
2001 01 18 14 METAR CYVR 181400Z 01002KT 15SM FEW015 SCT035 BKN069 OVC090 04/03 A3031 RMK SF2ST2SC3AC2 FOG PTCHS SLP265
2001 01 18 15 METAR CYVR 181500Z 12004KT 15SM FEW015 SCT036 BKN059 OVC084 04/02 A3030 RMK SF2SC2SC2AC2 SLP260
2001 01 18 16 METAR CYVR 181600Z 09006KT 8SM -DZ FEW014 BKN030 OVC059 04/03 A3028 RMK SF2ST3SC2 CIG+VSBY LWR NE BR PTCHS SLP255
2001 01 18 17 METAR CYVR 181700Z 08004KT 15SM FEW013 SCT027 BKN060 OVC085 04/03 A3027 RMK SF2SC2SC2AC2 CIG+VSBY LWR NW-NE BR SLP251
2001 01 18 18 METAR CYVR 181800Z 10004KT 8SM -DZ FEW013 OVC029 05/03 A3026 RMK SF2SC6 VSBY LWR NW-NE BR SLP246
2001 01 18 19 METAR CYVR 181900Z 13004KT 5SM -RADZ BR FEW014 BKN022 OVC060 05/04 A3026 RMK SF2ST4SC2 VSBY NE-E-SE 3BR SLP246
2001 01 18 20 METAR CYVR 182000Z 07005KT 8SM -RA FEW015 SCT028 BKN060 OVC090 06/04 A3023 RMK SF2ST2SC2AC2 VSBY W10 NE 5BR SLP238
2001 01 18 21 METAR CYVR 182100Z 10003KT 4SM -RA BR FEW007 SCT024 BKN033 OVC060 06/04 A3022 RMK SF1SC2SC2SC2 SLP233
2001 01 18 22 METAR CYVR 182200Z 11007KT 3SM -RA BR FEW006 BKN021 OVC033 05/04 A3021 RMK SF2SC4NS2 BR PTCHS ALQDS SLP229
2001 01 18 23 METAR CYVR 182300Z 10008KT 3SM RA BR SCT006 OVC022 06/04 A3019 RMK SF3NS5 SLP222
2001 01 19 00 METAR CYVR 190000Z 10004KT 8SM -RA FEW006 BKN017 OVC022 06/05 A3019 RMK SF2SF2NS3 SLP222
2001 01 19 01 METAR CYVR 190100Z 10009KT 10SM FEW006 BKN019 OVC025 06/05 A3016 RMK SF2SF4NS2 SLP214
2001 01 19 02 METAR CYVR 190200Z 09004KT 6SM -RA BR FEW004 FEW011 BKN019 OVC035 06/05 A3014 RMK SF1SF2SF2SC3 SLP206
2001 01 19 03 METAR CYVR 190300Z 18004KT 5SM -RA BR FEW004 FEW012 BKN022 OVC035 06/05 A3014 RMK SF1SF2SC4SC2 SLP207
2001 01 19 04 METAR CYVR 190400Z 08005KT 5SM -RA BR FEW004 FEW012 SCT022 OVC035 06/05 A3015 RMK SF1SF2SC2SC4 SLP209
2001 01 19 05 METAR CYVR 190500Z 08007KT 8SM FEW004 SCT020 BKN035 OVC060 06/05 A3015 RMK SF1SF2SC3SC2 SLP210
2001 01 19 06 METAR CYVR 190600Z 09010KT 10SM FEW020 FEW035 SCT060 BKN200 06/04 A3015 RMK SF1SC2SC2CI0 SLP209
2001 01 19 07 METAR CYVR 190700Z 08011KT 10SM FEW020 FEW035 SCT060 BKN190 06/04 A3015 RMK SF1SC1SC2CI2 SLP211
2001 01 19 08 METAR CYVR 190800Z 07008KT 8SM SCT010 BKN022 OVC180 06/04 A3016 RMK SF4SC2CI2 SLP213
2001 01 19 09 METAR CYVR 190900Z 09009KT 8SM FEW009 SCT016 BKN022 06/05 A3015 RMK SF2SC2SC1 SLP211
2001 01 19 10 METAR CYVR 191000Z 10009KT 8SM SCT008 BKN012 OVC220 06/05 A3016 RMK SF3SC2CI2 SLP213
2001 01 19 11 METAR CYVR 191100Z 09008KT 8SM BKN008 BKN012 OVC220 07/06 A3016 RMK SF5SC2CI1 SLP212
2001 01 19 12 METAR CYVR 191200Z 10007KT 8SM BKN008 OVC012 07/06 A3015 RMK SF6SC2 SLP209
2001 01 19 13 METAR CYVR 191300Z 11006KT 8SM BKN008 BKN014 OVC200 07/06 A3015 RMK SF6SC1CI1 SLP208
2001 01 19 14 METAR CYVR 191400Z 09007KT 8SM FEW008 FEW014 OVC160 06/05 A3013 RMK SF2SC1AC6 SLP204
2001 01 19 15 METAR CYVR 191500Z 11008KT 15SM FEW008 FEW014 OVC160 06/05 A3012 RMK SF2SC1AC6 SLP200
2001 01 19 16 METAR CYVR 191600Z 10007KT 10SM SCT008 BKN014 OVC160 06/05 A3013 RMK SF3SC2AC3 VSBY NW-NE 3 BR SLP202
2001 01 19 17 METAR CYVR 191700Z 10004KT 5SM -SHRA FEW008 SCT015 BKN040 OVC160 07/05 A3013 RMK SF2SF2SC2AC2 CIG VIS LWR NW-NE SLP201
2001 01 19 18 METAR CYVR 191800Z 13005KT 3SM -SHRA BKN005 OVC015 07/06 A3015 RMK SF5SC3 VIS LWR NW-NE SLP209
2001 01 19 19 METAR CYVR 191900Z 09007KT 15SM FEW005 SCT060 BKN160 07/06 A3014 RMK SF2SC2AC2 TCU TPS NW VIRGA SLP205
2001 01 19 20 METAR CYVR 192000Z 11010KT 20SM FEW005 SCT060 BKN160 09/06 A3015 RMK SF1SC2AC1 TCU ASOCTD VIRGA NW SLP208
2001 01 19 21 METAR CYVR 192100Z 11010KT 20SM FEW010 BKN050 BKN160 08/06 A3015 RMK SF1SC4AC1 TCU ASOCTD VIRGA NW SLP208
2001 01 19 22 METAR CYVR 192200Z 15011KT 15SM FEW010 BKN050 BKN160 09/05 A3014 RMK SF1CU4AC2 TCU ASOCTD VIRGA CB TP E SLP207
2001 01 19 23 METAR CYVR 192300Z 16010KT 12SM FEW010 BKN050 BKN160 09/04 A3016 RMK SF2SC4AC2 TCU ASOCTD NE SLP212
2001 01 20 00 METAR CYVR 200000Z 17009KT 12SM FEW012 BKN055 BKN160 09/04 A3018 RMK SF2SC3AC2 SLP220
2001 01 20 01 METAR CYVR 200100Z 15008KT 15SM FEW015 BKN060 BKN150 08/04 A3018 RMK SF2SC3AC2 SLP221
2001 01 20 02 METAR CYVR 200200Z 14007KT 15SM FEW015 BKN060 BKN110 08/04 A3019 RMK SF2SC3AC2 SLP223
2001 01 20 03 METAR CYVR 200300Z 12005KT 15SM FEW020 BKN065 BKN110 07/03 A3020 RMK SF2SC3AC2 SLP227
2001 01 20 04 METAR CYVR 200400Z 09006KT 15SM FEW020 SCT065 BKN110 03/01 A3021 RMK SF2SC2AC2 SLP230
2001 01 20 05 METAR CYVR 200500Z 09005KT 15SM FEW020 SCT065 BKN110 05/03 A3021 RMK SF2SC2AC2 SLP231
2001 01 20 06 METAR CYVR 200600Z 07004KT 15SM FEW015 BKN050 BKN110 05/03 A3022 RMK SF2SC4AC1 SLP233
2001 01 20 L METAR CYVR NIL
2001 01 20 08 METAR CYVR 200800Z 07010KT 15SM FEW020 FEW050 BKN240 05/03 A3019 RMK SF1SC1CI2 SLP223
2001 01 20 09 METAR CYVR 200900Z 08007KT 15SM FEW020 FEW050 BKN240 05/03 A3019 RMK SF1SF2CI2 SLP222
2001 01 20 10 METAR CYVR 201000Z 08009KT 15SM FEW030 SCT120 OVC220 05/02 A3016 RMK SF2AC2CI4 SLP214
2001 01 20 11 METAR CYVR 201100Z 08008KT 15SM FEW030 SCT100 BKN160 OVC220 04/03 A3016 RMK SF1AC2AC3CI2 SLP212
2001 01 20 12 METAR CYVR 201200Z 07011KT 15SM FEW030 SCT110 BKN160 OVC220 05/02 A3012 RMK SF1AC2AC2CI2 SLP198
2001 01 20 13 METAR CYVR 201300Z 09008KT 15SM FEW030 FEW120 OVC160 04/02 A3011 RMK SF1AC2AC6 SLP196
2001 01 20 14 METAR CYVR 201400Z 10010KT 15SM BKN120 OVC150 04/02 A3010 RMK AC5AC3 SLP192
2001 01 20 15 METAR CYVR 201500Z 10007KT 15SM OVC120 04/02 A3008 RMK AC8 SLP185
2001 01 20 16 METAR CYVR 201600Z 11011KT 20SM OVC120 05/02 A3008 RMK AC8 VIRGA SLP185
2001 01 20 17 METAR CYVR 201700Z 09011KT 15SM SCT080 OVC100 05/02 A3006 RMK AC3AC5 VIRGA SLP178
2001 01 20 18 METAR CYVR 201800Z 11009KT 15SM SCT050 OVC090 06/02 A3007 RMK SC3AC5 VIRGA SLP181
2001 01 20 19 METAR CYVR 201900Z 15003KT 15SM FEW030 OVC070 06/02 A3011 RMK SC2AC6 SHWRS OVR MTNS N SLP195
2001 01 20 20 METAR CYVR 202000Z 13006KT 15SM FEW030 OVC060 07/02 A3011 RMK SF2SC6 VIRGA SLP197
2001 01 20 21 METAR CYVR 202100Z 09006KT 12SM -RA FEW020 OVC040 07/03 A3012 RMK SF2SC6 SLP199
2001 01 20 22 METAR CYVR 202200Z 09016KT 10SM -RA FEW015 OVC038 07/02 A3013 RMK SF2SC6 SLP201
2001 01 20 23 METAR CYVR 202300Z 05012G19KT 6SM -RA BR FEW012 OVC038 06/03 A3013 RMK SF2SC6 SLP201
2001 01 21 00 METAR CYVR 210000Z 04010G15KT 5SM -RA BR FEW012 OVC040 06/03 A3013 RMK SF2SC6 SLP202
2001 01 21 01 METAR CYVR 210100Z 04011G17KT 8SM -RA FEW012 BKN039 OVC080 06/04 A3012 RMK SF2SC4AC2 SLP199
2001 01 21 02 METAR CYVR 210200Z 04012KT 15SM -RA FEW012 BKN040 OVC080 06/04 A3010 RMK SF2SC4AC2 SLP192
2001 01 21 03 METAR CYVR 210300Z 04013KT 15SM -RA FEW012 BKN040 OVC060 06/03 A3008 RMK SF2SC5SC2 SLP187
2001 01 21 04 METAR CYVR 210400Z 08006KT 15SM -RA FEW020 SCT045 OVC060 06/04 A3009 RMK SF2SC2SC4 SLP190
2001 01 21 05 METAR CYVR 210500Z 09008KT 12SM -RA FEW020 OVC043 06/03 A3010 RMK SF2SC6 SLP192
2001 01 21 06 METAR CYVR 210600Z 06008KT 8SM -RA FEW016 OVC034 06/04 A3010 RMK SF2SC6 SLP192
2001 01 21 07 METAR CYVR 210700Z 08007KT 6SM -RA BR FEW015 BKN033 OVC060 06/05 A3009 RMK SF2SC5SC2 SLP189
2001 01 21 08 METAR CYVR 210800Z 06009KT 6SM -RA BR SCT015 BKN028 OVC035 06/05 A3008 RMK SF3SC2SC2 SLP186
2001 01 21 09 METAR CYVR 210900Z 08007KT 6SM -RA BR FEW015 BKN029 OVC036 06/05 A3008 RMK SF2SC3SC3 SLP184
2001 01 21 10 METAR CYVR 211000Z 06005KT 6SM -RA BR FEW015 OVC029 06/05 A3008 RMK SF2SC6 SLP185
2001 01 21 11 METAR CYVR 211100Z 08006KT 6SM -RA BR FEW011 BKN020 OVC028 06/05 A3008 RMK SF2SC4SC2 CIG RGD SLP187
2001 01 21 12 METAR CYVR 211200Z 10005KT 6SM -RA BR FEW015 BKN025 OVC038 05/04 A3008 RMK SF2SC3SC3 CIG RGD SLP184
2001 01 21 13 METAR CYVR 211300Z 03004KT 6SM -RA BR FEW015 SCT020 OVC034 06/04 A3007 RMK SF2SF2SC5 SLP181
2001 01 21 14 METAR CYVR 211400Z 03006KT 6SM -RA BR FEW015 SCT025 OVC034 05/04 A3006 RMK SF2SC2SC4 SLP180
2001 01 21 15 METAR CYVR 211500Z 36004KT 6SM -RA BR FEW015 SCT025 OVC036 05/04 A3007 RMK SF2SC2SC4 SLP182
2001 01 21 16 METAR CYVR 211600Z 35002KT 8SM -RA FEW015 FEW025 OVC033 05/04 A3008 RMK SF2SF1SC6 SLP186
2001 01 21 17 METAR CYVR 211700Z 00000KT 10SM -RA FEW008 FEW015 OVC030 05/04 A3009 RMK SF1SF2SC6 SLP188
2001 01 21 17 METAR CYVR 211700Z 00000KT 10SM -RA FEW008 FEW015 OVC030 05/04 A3009 RMK
2001 01 21 18 METAR CYVR 211800Z 15004KT 10SM -RA FEW009 FEW020 BKN030 OVC080 05/04 A3010 RMK SF1SF2SC5AC1 SLP194
2001 01 21 20 METAR CYVR 212000Z 32007KT 10SM -RA SCT005 BKN018 OVC035 06/04 A3015 RMK CF3SC3SC2 SLP209
2001 01 21 21 METAR CYVR 212100Z 31007KT 10SM FEW005 SCT015 BKN040 BKN090 06/05 A3017 RMK CF2CU2SC3AC1 VSBY LWR E SHWRS NE-SE SLP216
2001 01 21 22 METAR CYVR 212200Z 30011KT 12SM FEW005 FEW015 SCT025 BKN070 07/05 A3018 RMK CF1CU2SC1AC3 SLP221
2001 01 21 23 METAR CYVR 212300Z 32005KT 15SM FEW005 FEW025 FEW050 SCT200 07/05 A3018 RMK CF1CU1SC2CI2 TR CF/CU SLP221
2001 01 22 00 METAR CYVR 220000Z 27004KT 15SM FEW010 FEW025 FEW050 SCT090 07/05 A3020 RMK CF1CU1SC2AC2 TR CF/CU SLP226
2001 01 22 01 METAR CYVR 220100Z 29004KT 15SM FEW007 FEW025 SCT050 BKN090 06/04 A3024 RMK CF1CU2SC2AC2 PCPN DSNT N-E SLP239
2001 01 22 02 METAR CYVR 220200Z 32006KT 15SM FEW007 FEW025 SCT050 BKN090 06/04 A3025 RMK CF1SC2SC2AC2 SLP242
2001 01 22 03 METAR CYVR 220300Z 00000KT 15SM FEW006 FEW025 SCT050 06/04 A3026 RMK CF1SC2SC2 SLP248
2001 01 22 04 METAR CYVR 220400Z 00000KT 15SM FEW006 SCT025 BKN050 04/03 A3028 RMK CF1SC3SC3 SLP252
2001 01 22 05 METAR CYVR 220500Z 15002KT 15SM FEW006 BKN022 BKN050 06/04 A3029 RMK SF1SC5SC2 SLP257
2001 01 22 06 METAR CYVR 220600Z 09002KT 15SM FEW006 BKN019 BKN050 05/04 A3031 RMK SF1SF5SC2 SLP262
2001 01 22 07 METAR CYVR 220700Z 06003KT 15SM FEW006 SCT019 SCT050 SCT110 04/03 A3031 RMK SF1SF2SC1AC1 SLP264
2001 01 22 08 METAR CYVR 220800Z 10005KT 15SM FEW006 SCT020 BKN050 OVC110 05/03 A3031 RMK SF1SF2SC2AC2 FOG BNKS N-E + S BINOVC SLP264
2001 01 22 09 METAR CYVR 220900Z 09005KT 15SM FEW006 FEW020 FEW050 FEW110 04/03 A3031 RMK SF1SF1SC1AC1 TR SF FOG BNK N SLP262
2001 01 22 10 METAR CYVR 221000Z 09002KT 5SM BR FEW004 SCT010 BKN020 BKN040 OVC110 03/02 A3030 RMK FG2ST1ST1SF2SC2AC2 FOG+ST+BR ALQDS FOG+BR PTCHY DRFTG WWDS BINOVC
2001 01 22  METAR      VSBY N2 VSBY S10 SLP260
2001 01 22 11 METAR CYVR 221100Z 00000KT 10SM MIFG FEW003 FEW110 03/02 A3029 RMK FG1ST1AC1 TR ST N DENSE FOG BNK W-NW VSBY 1/2F FOG BNK S VSBY 2BR SLP256
2001 01 22 12 METAR CYVR 221200Z 27003KT 1/8SM FG SKC 01/M00 A3028 RMK FG6 -X SLP253
2001 01 22 13 METAR CYVR 221300Z 18003KT 6SM BCFG FEW009 00/M01 A3027 RMK FG2ST1 DENSE FOG BNK N-E VSBY 1BR FOG BCMG PTCHY 100 FT THICK SLP250
2001 01 22 14 METAR CYVR 221400Z 11002KT 15SM MIFG FEW012 01/00 A3026 RMK SF1 TR SF FOG+ST LYRS NE-E + S SLP248
2001 01 22 15 METAR CYVR 221500Z 11002KT 30SM MIFG FEW220 01/M00 A3026 RMK CI1 SLP245
2001 01 22 16 METAR CYVR 221600Z 08002KT 30SM MIFG FEW025 FEW220 01/M00 A3025 RMK ST1CI1 SLP243
2001 01 22 17 METAR CYVR 221700Z 00000KT 30SM MIFG FEW025 FEW220 02/01 A3026 RMK SC1CI0 SLP245
2001 01 22 18 METAR CYVR 221800Z 28002KT 30SM FEW025 FEW220 04/02 A3026 RMK SC1CI0 SLP246
2001 01 22 19 METAR CYVR 221900Z 00000KT 30SM FEW025 FEW220 07/04 A3025 RMK SC1CI0 SLP242
2001 01 22 20 METAR CYVR 222000Z 25004KT 30SM FEW025 FEW220 07/03 A3023 RMK CU1CI0 SLP237
2001 01 22 21 METAR CYVR 222100Z 24005KT 30SM FEW025 FEW220 07/03 A3021 RMK CU1CI0 SLP230
2001 01 22 22 METAR CYVR 222200Z 26007KT 30SM FEW025 FEW160 FEW220 07/04 A3020 RMK CU1AC1CI0 SLP227
2001 01 22 23 METAR CYVR 222300Z 28004KT 30SM FEW065 FEW220 07/03 A3018 RMK SC1CI0 SLP221
2001 01 23 00 METAR CYVR 230000Z 27005KT 30SM FEW070 FEW220 06/03 A3017 RMK AC1CI0 SLP217
2001 01 23 01 METAR CYVR 230100Z 27004KT 30SM FEW220 05/02 A3016 RMK CI0 SLP214
2001 01 23 02 METAR CYVR 230200Z 27002KT 30SM FEW220 05/02 A3015 RMK CI0 SLP210
2001 01 23 03 METAR CYVR 230300Z 05002KT 30SM FEW220 04/02 A3015 RMK CI0 SLP208
2001 01 23 04 METAR CYVR 230400Z 00000KT 30SM SKC 04/02 A3013 RMK SLP204
2001 01 23 05 METAR CYVR 230500Z 00000KT 30SM SKC 04/02 A3012 RMK SLP199
2001 01 23 06 METAR CYVR 230600Z 12003KT 30SM SKC 03/02 A3010 RMK SLP194
2001 01 23 07 METAR CYVR 230700Z 11003KT 30SM SKC 02/00 A3010 RMK SLP191
2001 01 23 08 METAR CYVR 230800Z 12003KT 15SM MIFG FEW012 FEW220 02/ A3008 RMK SF1CI0 SF LYR NW-NE FOG BNK SE SLP186
2001 01 23 09 METAR CYVR 230900Z 35007KT 15SM FEW012 FEW220 01/M00 A3007 RMK SF1CI0 BR PTCHS ALQDS SLP183
2001 01 23 10 METAR CYVR 231000Z 00000KT 15SM FEW012 FEW220 M01/M03 A3005 RMK SF1CI1 TR CLDS SLP176
2001 01 23 11 METAR CYVR 231100Z 14003KT 15SM SKC 01/M01 A3004 RMK SLP173
2001 01 23 12 METAR CYVR 231200Z 12004KT 15SM MIFG SKC 01/M01 A3002 RMK SLP167
2001 01 23 13 METAR CYVR 231300Z 09003KT 15SM MIFG SKC M00/M02 A3000 RMK BR PTCHS DSTNT E+W SLP160
2001 01 23 14 METAR CYVR 231400Z 35003KT 15SM MIFG FEW010 01/M01 A2999 RMK ST1 TR ST+FOG DSTNT E SLP156
2001 01 23 15 METAR CYVR 231500Z 16003KT 30SM FEW120 FEW250 01/M01 A2999 RMK AC1CI1 SLP155
2001 01 23 16 METAR CYVR 231600Z 10003KT 30SM FEW120 FEW250 M01/M03 A2998 RMK AC1CI0 FG PTCHS E SLP152
2001 01 23 17 METAR CYVR 231700Z 09002KT 30SM FEW120 SCT250 02/M01 A2998 RMK AC1CI0 FG PTCHS E SLP152
2001 01 23 18 METAR CYVR 231800Z 10002KT 30SM FEW150 SCT230 04/02 A2998 RMK AC2CI0 FG PTCHS E HZ SLP152
2001 01 23 19 METAR CYVR 231900Z 00000KT 30SM FEW150 SCT230 06/02 A2998 RMK AC1CI1 HZ SLP151
2001 01 23 20 METAR CYVR 232000Z 22004KT 30SM FEW150 SCT230 06/01 A2998 RMK AC1CI0 HZ SLP151
2001 01 23 21 METAR CYVR 232100Z 28006KT 30SM FEW150 FEW230 06/02 A2997 RMK AC1CI0 HZ SLP148
2001 01 23 22 METAR CYVR 232200Z 34007KT 30SM FEW150 FEW230 07/02 A2995 RMK AC1CI0 HZ SLP141
2001 01 23 23 METAR CYVR 232300Z 29004KT 30SM FEW150 FEW230 09/02 A2992 RMK AC1CI1 HZ SLP133
2001 01 24 00 METAR CYVR 240000Z 27004KT 30SM FEW150 SCT230 SCT300 05/02 A2991 RMK AC2CI1CI1 HZ SLP129
2001 01 24 01 METAR CYVR 240100Z 34004KT 30SM FEW150 SCT230 BKN300 04/02 A2991 RMK AC2CI1CI1 HZ SLP129
2001 01 24 02 METAR CYVR 240200Z 29008KT 30SM FEW150 SCT230 BKN300 04/01 A2991 RMK AC2CI1CI1 HZ SLP129
2001 01 24 03 METAR CYVR 240300Z 36003KT 30SM FEW150 SCT230 BKN300 05/01 A2992 RMK AC2CI1CI1 HZ SLP131
2001 01 24 04 METAR CYVR 240400Z 00000KT 20SM FEW150 BKN230 BKN300 03/M00 A2992 RMK AC2CI2CI1 SLP131
2001 01 24 05 METAR CYVR 240500Z 05002KT 20SM SCT150 BKN230 BKN300 04/00 A2992 RMK AC3CI2CI1 SLP133
2001 01 24 06 METAR CYVR 240600Z 00000KT 20SM FEW100 FEW150 BKN230 04/01 A2993 RMK AC1AC2CI2 SLP134
2001 01 24 07 METAR CYVR 240700Z 18002KT 20SM FEW100 FEW150 BKN230 04/01 A2994 RMK AC1AC2CI1 SLP137
2001 01 24 08 METAR CYVR 240800Z 17005KT 30SM SCT097 BKN120 BKN230 04/01 A2994 RMK AC4AC2CI0 SLP139
2001 01 24 09 METAR CYVR 240900Z 00000KT 30SM BKN093 OVC230 03/01 A2994 RMK AC6CI0 SLP137
2001 01 24 10 METAR CYVR 241000Z 09005KT 30SM BKN097 OVC110 03/00 A2994 RMK AC6AC2 VIRGA SLP139
2001 01 24 11 METAR CYVR 241100Z 36003KT 30SM BKN091 OVC110 03/01 A2995 RMK AC6AC2 VIRGA SLP142
2001 01 24 12 METAR CYVR 241200Z 06006KT 30SM OVC090 04/01 A2995 RMK AC8 VIRGA SLP143
2001 01 24 13 METAR CYVR 241300Z 05005KT 30SM BKN072 OVC090 04/01 A2995 RMK AC5AC3 VIRGA SLP141
2001 01 24 14 METAR CYVR 241400Z 34003KT 30SM BKN070 BKN090 OVC230 04/01 A2995 RMK AC5AC2CI2 SLP142
2001 01 24 15 METAR CYVR 241500Z 00000KT 20SM BKN064 BKN090 OVC230 05/01 A2995 RMK SC5AC2CI2 SLP143
2001 01 24 16 METAR CYVR 241600Z 00000KT 20SM BKN064 BKN090 05/01 A2996 RMK SC5AC2 SLP145
2001 01 24 17 METAR CYVR 241700Z 20004KT 20SM SCT064 BKN071 BKN090 06/01 A2997 RMK SC3AC2AC2 SLP148
2001 01 24 18 METAR CYVR 241800Z 20003KT 20SM BKN063 BKN082 OVC230 06/01 A2998 RMK SC5AC2CI0 VIRGA SW SLP151
2001 01 24 19 METAR CYVR 241900Z 00000KT 20SM BKN066 BKN080 OVC230 07/01 A2999 RMK AC5AC2CI1 VIRGA CIG/VSBY LWR SW SLP154
2001 01 24 20 METAR CYVR 242000Z 00000KT 20SM FEW040 BKN065 OVC080 07/02 A2998 RMK SC2AC5AC2 SHWRS W-NW CIG/VSBY LWR SW-NW SLP152
2001 01 24 21 METAR CYVR 242100Z 11003KT 20SM FEW040 BKN067 OVC080 07/01 A2998 RMK SC2AC4AC2 CIG/VSBY LWR SW-NW SHWRS W-NW SLP151
2001 01 24 22 METAR CYVR 242200Z 13004KT 12SM -RA SCT030 BKN050 OVC080 06/02 A2998 RMK SC3SC3AC2 CIG RGD SLP153
2001 01 24 23 METAR CYVR 242300Z 09007KT 15SM -RA SCT028 BKN053 OVC080 06/03 A2999 RMK SC4SC2AC2 SLP155
2001 01 25 00 METAR CYVR 250000Z 09008KT 7SM -RA FEW020 BKN036 OVC070 06/03 A2999 RMK SC2SC4AC2 CIG LWR NW-NE SLP156
2001 01 25 01 METAR CYVR 250100Z 09009KT 6SM -RA BR FEW015 BKN026 OVC040 05/03 A2999 RMK SF2SC4SC2 SLP156
2001 01 25 02 METAR CYVR 250200Z 09008KT 6SM -RA BR SCT007 BKN017 OVC030 06/04 A2999 RMK SF3SC3SC2 SLP155
2001 01 25 03 METAR CYVR 250300Z 09009KT 6SM -RA BR SCT008 BKN014 OVC030 06/04 A2999 RMK SF3SC3SC2 SLP156
2001 01 25 04 METAR CYVR 250400Z 09007KT 6SM -RA BR FEW006 SCT009 BKN015 OVC030 06/04 A2999 RMK SF2SF2SC2SC2 SLP156
2001 01 25 05 METAR CYVR 250500Z 11007KT 5SM -RA BR BKN007 BKN015 OVC030 06/04 A3000 RMK SF6SC1SC2 SLP158
2001 01 25 06 METAR CYVR 250600Z 09007KT 6SM -RA BR BKN007 BKN017 OVC030 06/04 A3000 RMK SF6SC2SC1 SLP160
2001 01 25 07 METAR CYVR 250700Z 09007KT 7SM -RA SCT007 BKN011 OVC020 06/04 A3001 RMK SF3SC2SC2 PCPN VRY LGT SLP163
2001 01 25 08 METAR CYVR 250800Z 09009KT 10SM SCT009 BKN015 OVC020 06/04 A3002 RMK SF3SC3SC2 SLP165
2001 01 25 09 METAR CYVR 250900Z 09009KT 8SM FEW006 SCT009 OVC016 06/04 A3002 RMK SF2SF2SC4 SLP164
2001 01 25 10 METAR CYVR 251000Z 09006KT 10SM FEW006 SCT010 OVC017 05/04 A3001 RMK SF2SF2SC4 SLP163
2001 01 25 11 METAR CYVR 251100Z 09007KT 10SM FEW009 SCT012 OVC025 05/04 A3002 RMK SF2SF2SC5 SLP164
2001 01 25 12 METAR CYVR 251200Z 09005KT 10SM FEW009 BKN016 OVC025 05/04 A3002 RMK SF1SF4SC3 SLP165
2001 01 25 13 METAR CYVR 251300Z 07005KT 15SM FEW012 SCT016 BKN025 OVC042 05/03 A3002 RMK SF1SF2SC3SC2 SLP164
2001 01 25 14 METAR CYVR 251400Z 07005KT 15SM FEW015 BKN025 OVC040 05/03 A3001 RMK SF2SC3SC2 SLP163
2001 01 25 15 METAR CYVR 251500Z 09005KT 15SM FEW015 BKN046 BKN080 05/03 A3002 RMK SF2SC3AC2 SLP166
2001 01 25 16 METAR CYVR 251600Z 11006KT 20SM FEW020 BKN050 BKN080 04/03 A3002 RMK SC2SC3AC0 SLP167
2001 01 25 17 METAR CYVR 251700Z 07005KT 20SM FEW020 FEW040 BKN060 06/04 A3003 RMK SF1SC2SC2 60 LYR THN ACC ASOCTD SLP170
2001 01 25 18 METAR CYVR 251800Z 07007KT 30SM FEW020 FEW040 SCT060 SCT240 07/04 A3004 RMK SF1SC2SC1CI0 TR SF CU EMBDD SLP173
2001 01 25 19 METAR CYVR 251900Z 09006KT 30SM FEW015 FEW030 FEW060 FEW240 08/03 A3004 RMK CF1CU1SC1CI0 TR CF/CI SLP173
2001 01 25 20 METAR CYVR 252000Z 13002KT 30SM FEW025 FEW045 09/02 A3003 RMK CU1SC1 SLP169
2001 01 25 21 METAR CYVR 252100Z 29006KT 30SM FEW025 FEW050 FEW240 09/03 A3001 RMK CU1SC1CI1 SLP163
2001 01 25 22 METAR CYVR 252200Z 31006KT 30SM FEW025 FEW050 FEW240 08/03 A3000 RMK CU1SC1CI1 TR SC SLP159
2001 01 25 23 METAR CYVR 252300Z 31010KT 30SM FEW025 FEW240 08/03 A3000 RMK CU1CI0 SLP158
2001 01 26 00 METAR CYVR 260000Z 31012KT 30SM FEW140 FEW240 07/04 A3000 RMK AC1CI1 AC TR SLP160
2001 01 26 01 METAR CYVR 260100Z 31010KT 30SM FEW140 FEW240 06/03 A3001 RMK AC1CI1 AC TR SLP163
2001 01 26 02 METAR CYVR 260200Z 31011KT 30SM FEW240 06/03 A3001 RMK CI1 SLP163
2001 01 26 03 METAR CYVR 260300Z 31009KT 30SM FEW170 FEW240 05/03 A3002 RMK AC1CI1 SLP167
2001 01 26 04 METAR CYVR 260400Z 30013KT 30SM SKC 06/04 A3004 RMK SLP171
2001 01 26 05 METAR CYVR 260500Z 29011KT 30SM SKC 05/03 A3006 RMK SLP179
2001 01 26 06 METAR CYVR 260600Z 29011KT 30SM SKC 05/03 A3008 RMK SLP185
2001 01 26 07 METAR CYVR 260700Z 31009KT 30SM SKC 04/03 A3010 RMK SLP192
2001 01 26 08 METAR CYVR 260800Z 34007KT 30SM SKC 04/03 A3011 RMK SLP196
2001 01 26 09 METAR CYVR 260900Z 35003KT 30SM SKC 04/02 A3012 RMK SLP199
2001 01 26 10 METAR CYVR 261000Z 08003KT 30SM SKC 02/M00 A3013 RMK SLP201
2001 01 26 11 METAR CYVR 261100Z 05002KT 30SM MIFG SKC 02/M00 A3014 RMK SLP205
2001 01 26 12 METAR CYVR 261200Z 31002KT 20SM MIFG SKC M01/M02 A3014 RMK SLP206
2001 01 26 07 METAR CYVR 260700Z 31009KT 30SM SKC 04/03 A3010 RMK SLP192
2001 01 26 14 METAR CYVR 261400Z 30011KT 30SM MIFG SKC 02/01 A3015 RMK SLP209
2001 01 26 15 METAR CYVR 261500Z 31010KT 3/4SM BR BKN002 03/02 A3016 RMK ST6 FG APRX 200FT THK. CLR ABV SLP213
2001 01 26 16 METAR CYVR 261600Z 31010G16KT 4SM BR BKN002 03/02 A3018 RMK ST5 UA TOPS 600FT AGL. BASES RGD CLR ABV SLP218
2001 01 26 17 METAR CYVR 261700Z 32007KT 15SM SCT003 03/02 A3018 RMK ST3 SLP220
2001 01 26 18 METAR CYVR 261800Z 29008KT 15SM SCT003 04/03 A3020 RMK ST2 ST/FG THKR E-SW SLP227
2001 01 26 19 METAR CYVR 261900Z 30006KT 15SM SCT008 05/03 A3021 RMK ST2 ST/FG XTNSV NE-S SLP231
2001 01 26 20 METAR CYVR 262000Z 30005KT 10SM FEW001 BKN008 BKN012 05/03 A3021 RMK ST2ST3SC1 VSBY N-SE 3 FG CIG LWR N-S SLP228
2001 01 26 21 METAR CYVR 262100Z 24005KT 12SM FEW005 BKN008 BKN015 05/03 A3020 RMK ST2ST2SC2 XTNSV FG/LWR VIS NE-SE SLP225
2001 01 26 22 METAR CYVR 262200Z 21004KT 15SM FEW005 SCT008 06/03 A3019 RMK SF2SF2 SLP223
2001 01 26 23 METAR CYVR 262300Z 29003KT 30SM SKC 06/03 A3021 RMK SLP229
2001 01 27 00 METAR CYVR 270000Z 29008KT 30SM SKC 05/03 A3022 RMK F BNK APCHNG FM W HZ E SLP233
2001 01 27 01 METAR CYVR 270100Z 32005KT 2SM BR OVC002 03/02 A3023 RMK ST8 VSBY VRBL 1-3 OVC OCNL BKN SLP235
2001 01 27 02 METAR CYVR 270200Z 30006KT 20SM FEW003 03/02 A3023 RMK SF1 VSBY LWR SE-NW F BNK SLP236
2001 01 27 03 METAR CYVR 270300Z 32003KT 3/4SM BR OVC002 03/02 A3024 RMK SF8 CNDX VRBL SLP239
2001 01 27 04 METAR CYVR 270400Z 00000KT 1/4SM FG VV001 02/01 A3024 RMK FG8 SLP239
2001 01 27 05 METAR CYVR 270500Z 00000KT 1/4SM FG BKN001 01/M01 A3025 RMK FG4SF2 SLP242
2001 01 27 06 METAR CYVR 270600Z CCA 00000KT 1/4SM FG SCT001 01/M01 A3026 RMK FG2SF2 ROOF TOP VSBY N 20 SLP246
2001 01 27 07 METAR CYVR 270700Z 00000KT 3SM BR FEW001 00/M02 A3026 RMK FG1SF1 ROOF TOP VSBY 20 VSBY LWR W SLP248
2001 01 27 08 METAR CYVR 270800Z 28007KT 3/8SM FG SKC 01/M01 A3029 RMK FG6 SLP256
2001 01 27 09 METAR CYVR 270900Z 32004KT 1/2SM FG SKC 03/02 A3028 RMK FG7 SLP252
2001 01 27 11 METAR CYVR 271100Z 29004KT 1SM BR VV003 03/02 A3031 RMK FG8 SLP262
2001 01 27 12 METAR CYVR 271200Z 00000KT 1 1/2SM BR VV002 03/01 A3028 RMK FG8 SLP255
2001 01 27 13 METAR CYVR 271300Z 08003KT 1SM BR VV002 02/00 A3029 RMK FG8 SLP258
2001 01 27 14 METAR CYVR 271400Z 34003KT 3/8SM FG VV001 01/M00 A3031 RMK FG8 SLP264
2001 01 27 15 METAR CYVR 271500Z 05002KT 1/2SM FG VV001 03/01 A3031 RMK FG8 SLP263
2001 01 27 16 METAR CYVR 271600Z 00000KT 1/4SM FG VV000 02/01 A3030 RMK FG8 SLP260
2001 01 27 17 METAR CYVR 271700Z 00000KT 3/4SM BR VV002 02/01 A3030 RMK FG8 VSBY VRBL 3/8-1SM VIS/CIG HIR W SLP261
2001 01 27 18 METAR CYVR 271800Z 00000KT 1/8SM FG VV000 02/01 A3030 RMK FG8 SLP260
2001 01 27 19 METAR CYVR 271900Z 00000KT 1/8SM FG VV000 02/01 A3029 RMK FG8 SLP257
2001 01 27 20 METAR CYVR 272000Z 30004KT 1SM BR VV002 03/02 A3028 RMK FG8 VSBY/CIG HIR SW-NW SLP254
2001 01 27 21 METAR CYVR 272100Z 00000KT 8SM BKN006 BKN230 04/03 A3025 RMK SF5CI0 VSBY NW 15 SLP243
2001 01 27 22 METAR CYVR 272200Z 30003KT 12SM FEW005 SCT020 SCT230 05/03 A3023 RMK SF2SC1CI0 CIG/VIS LWR NW-SE SLP237
2001 01 27 23 METAR CYVR 272300Z 24003KT 20SM SCT230 05/02 A3022 RMK CI2 SLP232
2001 01 28 00 METAR CYVR 280000Z 00000KT 20SM SCT240 05/02 A3019 RMK CI2 SLP223
2001 01 28 01 METAR CYVR 280100Z 00000KT 20SM SCT240 03/01 A3018 RMK CI2 SLP221
2001 01 28 02 METAR CYVR 280200Z 27002KT 20SM FEW200 SCT240 03/01 A3017 RMK CC2CI1 SLP217
2001 01 28 03 METAR CYVR 280300Z 36003KT 30SM FEW200 01/M01 A3016 RMK CI1 SLP214
2001 01 28 04 METAR CYVR 280400Z 10002KT 30SM BCFG FEW200 03/01 A3014 RMK CI0 SLP207
2001 01 28 05 METAR CYVR 280500Z 13002KT 30SM FEW150 FEW200 02/M00 A3013 RMK AC1CI0 SLP204
2001 01 28 06 METAR CYVR 280600Z 08005KT 10SM FEW140 01/M01 A3013 RMK AC2 BR SLP202
2001 01 28 07 METAR CYVR 280700Z 10004KT 10SM SCT140 01/M01 A3011 RMK AC2 BR SLP197
2001 01 28 08 METAR CYVR 280800Z 11004KT 15SM MIFG BKN140 02/00 A3009 RMK AC6 SLP190
2001 01 28 09 METAR CYVR 280900Z 11006KT 15SM MIFG BKN140 02/M00 A3007 RMK AC6 SLP183
2001 01 28 10 METAR CYVR 281000Z 10006KT 15SM BKN140 01/M02 A3005 RMK AC6 SLP176
2001 01 28 11 METAR CYVR 281100Z 16002KT 15SM BKN150 02/M01 A3005 RMK AC6 SLP175
2001 01 28 12 METAR CYVR 281200Z 00000KT 15SM SCT100 OVC150 01/M01 A3003 RMK AC3AC5 SLP169
2001 01 28 13 METAR CYVR 281300Z 11004KT 15SM BKN100 OVC120 02/M00 A3001 RMK AC6AC2 SLP163
2001 01 28 14 METAR CYVR 281400Z 09008KT 15SM BKN090 OVC120 02/M00 A2998 RMK AC6AC2 SLP152
2001 01 28 15 METAR CYVR 281500Z 16005KT 15SM OVC090 03/M00 A2997 RMK AC8 SLP150
2001 01 28 16 METAR CYVR 281600Z 09005KT 15SM SCT090 OVC110 02/M00 A2997 RMK AC3AC5 SLP149
2001 01 28 17 METAR CYVR 281700Z 10008KT 15SM SCT065 OVC090 03/M00 A2996 RMK SC3AC5 SLP146
2001 01 28 18 METAR CYVR 281800Z 08014G19KT 15SM -RA BKN060 OVC075 04/M00 A2994 RMK SC5AC3 SLP138
2001 01 28 19 METAR CYVR 281900Z 11012KT 15SM FEW050 BKN075 OVC100 05/00 A2992 RMK SF2AC3AC2 SLP133
2001 01 28 20 METAR CYVR 282000Z 13008KT 30SM BKN075 OVC110 05/00 A2990 RMK AC6AC2 SLP125
2001 01 28 21 METAR CYVR 282100Z 13007KT 30SM BKN078 OVC110 06/00 A2986 RMK AC5AC3 SLP112
2001 01 28 22 METAR CYVR 282200Z 09007KT 30SM BKN077 OVC110 06/01 A2982 RMK AC6AC2 VIRGA N SLP098
2001 01 28 23 METAR CYVR 282300Z 12007KT 30SM SCT072 OVC090 06/02 A2982 RMK AC3AC5 VIRGA ALQDS SLP096
2001 01 29 00 METAR CYVR 290000Z 07004KT 20SM SCT062 OVC090 07/02 A2979 RMK SC3AC5 VIRGA ALQDS SLP087
2001 01 29 01 METAR CYVR 290100Z 25008KT 20SM FEW040 SCT057 OVC090 06/02 A2978 RMK SC1SC3AC4 VIRGA ALQDS SLP083
2001 01 29 02 METAR CYVR 290200Z 12007KT 10SM -RA FEW030 BKN045 OVC080 07/02 A2976 RMK SC2SC4AC2 SLP078
2001 01 29 03 METAR CYVR 290300Z 11007KT 10SM -RA FEW018 OVC035 06/02 A2974 RMK SF2SC6 SLP069
2001 01 29 04 METAR CYVR 290400Z 09011G16KT 10SM -RA FEW018 OVC035 06/02 A2971 RMK SF2SC6 SLP060
2001 01 29 05 METAR CYVR 290500Z 11017KT 6SM -RA BR FEW011 SCT018 OVC035 07/03 A2970 RMK SF1SF2SC5 SLP056
2001 01 29 06 METAR CYVR 290600Z 12017G26KT 6SM -RA BR FEW011 SCT018 OVC035 06/03 A2970 RMK SF1SF2SC5 SLP057
2001 01 29 07 METAR CYVR 290700Z 09014G20KT 5SM -RA BR FEW011 OVC024 05/03 A2969 RMK SF2SC6 SLP052
2001 01 29 08 METAR CYVR 290800Z 10013G19KT 5SM -RA BR FEW010 OVC022 05/03 A2968 RMK SF2SC6 RERA SLP050
2001 01 29 09 METAR CYVR 290900Z 11013G21KT 6SM -RA BR FEW010 OVC018 05/03 A2967 RMK SF2SC6 SLP046
2001 01 29 10 METAR CYVR 291000Z 12019G30KT 10SM FEW013 BKN022 OVC046 06/03 A2966 RMK CF2SC5SC2 SLP044
2001 01 29 11 METAR CYVR 291100Z 09010KT 6SM -RA BR FEW011 OVC021 05/03 A2965 RMK SF2SC6 SLP041
2001 01 29 12 METAR CYVR 291200Z 11007KT 10SM -RA FEW011 FEW014 BKN028 OVC045 06/03 A2963 RMK SF1CF2SC3SC2 PCPN VRY LGT SLP035
2001 01 29 13 METAR CYVR 291300Z 17012G17KT 15SM FEW010 FEW020 BKN080 OVC200 06/03 A2964 RMK SF1SC1AC5CI2 SLP037
2001 01 29 14 METAR CYVR 291400Z 12009KT 15SM FEW010 FEW020 SCT140 BKN200 06/02 A2966 RMK SF1CF1AC3CI2 TR SF SLP045
2001 01 29 15 METAR CYVR 291500Z 13007KT 30SM FEW010 BKN057 OVC140 06/02 A2971 RMK SF1SC5AC2 SLP062
2001 01 29 16 METAR CYVR 291600Z 29025G30KT 8SM -SHRA FEW012 BKN020 BKN035 OVC068 04/03 A2978 RMK CF2SC3SC2AC2 CU EMBDD PRESRR SLP083
2001 01 29 17 METAR CYVR 291700Z 29030G36KT 30SM FEW012 BKN030 BKN090 05/01 A2982 RMK CF1SC4AC1 CU EMBDD ACSL ASOCTD PRESRR SLP099
2001 01 29 18 METAR CYVR 291800Z 28037G42KT 30SM FEW012 SCT030 BKN150 06/02 A2988 RMK CF1SC3AC1 CU EMBDD PRESRR SLP117
2001 01 29 19 METAR CYVR 291900Z 29027G34KT 30SM FEW012 FEW030 FEW120 07/02 A2996 RMK CF1CU2AC1 PRESRR SHWRS N-NE SLP144
2001 01 29 20 METAR CYVR 292000Z 29022G27KT 30SM FEW015 FEW035 FEW140 07/02 A3000 RMK CF1CU2AC1 SHWRS NE SLP159
2001 01 29 21 METAR CYVR 292100Z 29025G33KT 30SM FEW035 FEW230 07/01 A3002 RMK CU2CI1 SLP165
2001 01 29 22 METAR CYVR 292200Z 28026G31KT 30SM FEW030 FEW140 SCT230 06/01 A3005 RMK CU1AC2CI1 ACSL S+W SLP177
2001 01 29 23 METAR CYVR 292300Z 29021G29KT 30SM FEW038 SCT160 BKN220 07/01 A3012 RMK SC2AC2CI3 CU+CC ASOCTD SLP198
2001 01 30 00 METAR CYVR 300000Z 28019G24KT 30SM FEW038 FEW060 BKN160 BKN220 07/01 A3015 RMK SC1SC2AC2CI2 CU+CC ASOCTD SLP210
2001 01 30 01 METAR CYVR 300100Z 28016KT 30SM FEW038 FEW060 SCT150 BKN220 06/00 A3018 RMK SC1SC1AC2CI2 CU ASOCTD SLP219
2001 01 30 02 METAR CYVR 300200Z 28011KT 30SM FEW038 SCT060 BKN140 BKN220 06/01 A3021 RMK SC1SC2AC2CI1 SLP228
2001 01 30 03 METAR CYVR 300300Z 27008KT 30SM FEW040 SCT060 BKN130 BKN220 06/02 A3023 RMK SC1SC2AC2CI1 CC ASOCTD SLP238
2001 01 30 04 METAR CYVR 300400Z 27007KT 30SM FEW040 SCT060 BKN110 BKN220 06/01 A3025 RMK SC1SC2AC2CI2 SLP243
2001 01 30 05 METAR CYVR 300500Z 18004KT 30SM FEW040 FEW060 SCT110 BKN170 BKN220 06/00 A3026 RMK SC1SC2AC2AC1CI1 SLP248
2001 01 30 06 METAR CYVR 300600Z 21005KT 30SM FEW042 SCT073 BKN090 BKN160 OVC220 06/01 A3028 RMK SC2AC2AC2AS2CI1 BINOVC SLP254
2001 01 30 07 METAR CYVR 300700Z 19005KT 20SM FEW040 BKN059 BKN090 OVC150 06/00 A3029 RMK SF2SC2AC2AS2 XTNSV VIRGA ALQDS SLP258
2001 01 30 08 METAR CYVR 300800Z 08008KT 15SM -RA FEW020 SCT036 BKN050 OVC090 05/01 A3029 RMK SF2SC2SC2AC2 SLP258
2001 01 30 09 METAR CYVR 300900Z 09009KT 12SM -RA FEW020 BKN027 OVC060 05/01 A3029 RMK SF2SC5SC2 SLP257
2001 01 30 10 METAR CYVR 301000Z 09010G15KT 10SM -RA FEW013 BKN024 OVC060 03/01 A3029 RMK SF2SC5SC2 SLP258
2001 01 30 11 METAR CYVR 301100Z 15011KT 10SM FEW013 SCT024 OVC039 05/03 A3028 RMK SF2SC2SC4 SLP252
2001 01 30 12 METAR CYVR 301200Z 07009KT 15SM FEW015 FEW025 BKN038 OVC062 04/02 A3026 RMK SF1SC2SC2SC3 SLP246
2001 01 30 13 METAR CYVR 301300Z 13010KT 10SM FEW015 BKN020 OVC055 06/02 A3025 RMK SF1SF4SC3 SLP242
2001 01 30 14 METAR CYVR 301400Z 14009KT 12SM FEW012 BKN019 BKN055 06/03 A3023 RMK SF2SC3SC2 VSBY LWR N SLP236
2001 01 30 15 METAR CYVR 301500Z 15009KT 12SM FEW010 SCT014 BKN055 06/03 A3022 RMK SF2SC2SC4 VSBY LWR N SLP233
2001 01 30 16 METAR CYVR 301600Z 15012G17KT 15SM FEW012 BKN050 BKN060 BKN100 06/03 A3021 RMK SC2SC2SC2AC1 VSBY S-W 30 ACSL DSNT S SLP231
2001 01 30 17 METAR CYVR 301700Z 16013G19KT 30SM FEW012 BKN055 BKN095 07/04 A3022 RMK SC2SC3AC2 VSBY N-NW 10 IN SHWRS SLP232
2001 01 30 18 METAR CYVR 301800Z 16009G15KT 12SM FEW012 BKN055 BKN100 BKN120 07/04 A3022 RMK SC2SC3AC2AC1 VSBY SW-W 30 SHWRS MTNS N-NE SLP232
2001 01 30 19 METAR CYVR 301900Z 17013KT 30SM FEW012 SCT055 BKN094 BKN120 08/05 A3023 RMK SC2SC2AC2AC2 VSBY N-NE 12 IN SHWRS SLP235
2001 01 30 20 METAR CYVR 302000Z 17014KT 30SM FEW015 FEW055 BKN088 BKN120 08/05 A3022 RMK SC2SC1AC3AC2 VSBY 12 N-NE ACSL DSNT S SLP234
2001 01 30 21 METAR CYVR 302100Z 17014KT 30SM -RA FEW015 BKN050 08/05 A3021 RMK SC2SC6 VSBY N-NE 15 SLP231
2001 01 30 22 METAR CYVR 302200Z 16014KT 10SM -RA FEW012 BKN043 08/06 A3021 RMK SC2SC6 VSBY S-SW 30 SLP230
2001 01 30 23 METAR CYVR 302300Z 15008KT 10SM -RA FEW012 OVC045 08/06 A3021 RMK SC2SC5 VSBY S-SW 30 SLP230
2001 01 31 00 METAR CYVR 310000Z 09005KT 10SM -RA FEW012 OVC041 08/06 A3023 RMK SC2SC5 VSBY S-SW 30 SLP235
2001 01 31 01 METAR CYVR 310100Z 08004KT 10SM -RA FEW012 SCT045 OVC060 08/06 A3024 RMK SC2SC2SC3 VSBY S-SW 30 SLP239
2001 01 31 02 METAR CYVR 310200Z 09005KT 10SM -RA FEW010 SCT050 BKN065 08/06 A3024 RMK SF2SC2SC2 SLP241
2001 01 31 03 METAR CYVR 310300Z 08006KT 10SM -RA FEW012 SCT045 OVC060 07/05 A3026 RMK SF2SC2SC3 SLP247
2001 01 31 04 METAR CYVR 310400Z 07008KT 10SM -RA SCT012 BKN047 OVC070 06/05 A3027 RMK SF3SC2AC2 SLP251
2001 01 31 05 METAR CYVR 310500Z 07007KT 15SM -DZ SCT015 BKN045 OVC070 07/05 A3028 RMK SF3SC2AC2 VSBY N-NE 10 SLP254
2001 01 31 06 METAR CYVR 310600Z 09007KT 10SM -RA BKN010 BKN045 OVC070 07/06 A3029 RMK SF5SC2AC2 SLP258
2001 01 31 07 METAR CYVR 310700Z 08009KT 5SM -RADZ FEW010 BKN045 OVC065 07/05 A3031 RMK SF2SC3SC3 SLP262
2001 01 31 08 METAR CYVR 310800Z 09009KT 4SM -RA BR FEW005 BKN007 OVC043 06/05 A3032 RMK SF1SF4SC3 SLP267
2001 01 31 09 METAR CYVR 310900Z 09010KT 4SM -RA BR OVC007 06/05 A3033 RMK SF8 CIG RGD SLP270
2001 01 31 10 METAR CYVR 311000Z 09009KT 6SM -RA BR OVC006 06/05 A3034 RMK SF8 CIG RGD SLP274
2001 01 31 11 METAR CYVR 311100Z 09008KT 6SM -RA BR OVC006 06/05 A3035 RMK SF8 CIG RGD SLP277
2001 01 31 12 METAR CYVR 311200Z 09009KT 6SM BR OVC006 06/05 A3035 RMK SF8 SLP278
2001 01 31 13 METAR CYVR 311300Z 08008KT 6SM BR OVC005 06/04 A3035 RMK SF8 SLP278
2001 01 31 14 METAR CYVR 311400Z 07009KT 6SM BR OVC005 06/05 A3036 RMK SF8 SLP279
2001 01 31 15 METAR CYVR 311500Z 07006KT 6SM BR BKN005 OVC008 07/05 A3036 RMK SF6ST2 SLP281
2001 01 31 16 METAR CYVR 311600Z 07007KT 6SM BR BKN005 BKN045 OVC090 07/05 A3037 RMK SF6SC2AC1 CIG HIER S VSBY S 12 SLP285
2001 01 31 17 METAR CYVR 311700Z 09008KT 8SM FEW005 BKN046 BKN090 OVC220 07/05 A3038 RMK SF2SC3AC2CI0 VSBY NW 4 SLP288
2001 01 31 18 METAR CYVR 311800Z 10008KT 8SM FEW005 BKN046 BKN060 OVC090 07/06 A3040 RMK SF2SC3SC2AC1 VSBY LWR N SLP295
2001 01 31 19 METAR CYVR 311900Z 09008KT 10SM FEW005 SCT046 BKN090 OVC180 08/06 A3041 RMK SF1SC2AC2AC1 SLP296
2001 01 31 20 METAR CYVR 312000Z 12005KT 12SM FEW005 FEW040 SCT070 OVC140 09/06 A3041 RMK CF2SC1AC2AC2 VSBY W-NW 4 SLP296
2001 01 31 21 METAR CYVR 312100Z 12008KT 8SM BKN010 BKN050 OVC090 09/07 A3040 RMK CU5SC2AC2 SLP295
2001 01 31 22 METAR CYVR 312200Z 12006KT 10SM SCT010 BKN050 OVC110 09/06 A3039 RMK CU3SC2AC2 SLP291
2001 01 31 23 METAR CYVR 312300Z 13007KT 15SM FEW010 BKN018 BKN050 BKN110 09/07 A3038 RMK CF2SC2SC2AC1 VSBY LWR N-SE SLP288
2001 02 01 00 METAR CYVR 010000Z 12006KT 15SM FEW013 BKN025 BKN050 OVC110 09/06 A3038 RMK CF2SC3SC2AC2 VSBY LWR N-SE SLP288
2001 02 01 01 METAR CYVR 010100Z 11009KT 15SM FEW013 SCT028 BKN051 BKN110 08/06 A3037 RMK CF2SC2SC2AC2 VSBY LWR N-SE SLP283
2001 02 01 02 METAR CYVR 010200Z 11008KT 15SM FEW013 BKN034 BKN051 OVC110 08/06 A3036 RMK CF2SC3SC2AC2 VSBY LWR N-SE SLP282
2001 02 01 03 METAR CYVR 010300Z 09005KT 15SM FEW013 BKN034 BKN051 OVC110 08/05 A3036 RMK CF2SC3SC2AC2 VSBY LWR N-SE SLP280
2001 02 01 04 METAR CYVR 010400Z 09003KT 15SM FEW013 BKN038 BKN052 OVC110 07/06 A3034 RMK CF2SC4SC2AC1 VSBY LWR N-SE SLP275
2001 02 01 05 METAR CYVR 010500Z 09005KT 15SM FEW013 FEW038 BKN051 BKN110 06/05 A3033 RMK CF1SC2SC2AC1 VSBY LWR NE-SE SLP269
2001 02 01 06 METAR CYVR 010600Z 09006KT 10SM FEW013 FEW036 FEW051 SCT140 SCT220 04/03 A3031 RMK CF1SC1SC1AC1CS0 HZ SLP263
2001 02 01 07 METAR CYVR 010700Z 11005KT 10SM FEW027 FEW051 SCT140 BKN230 05/03 A3030 RMK SC1SC1AC2CS2 HZ SLP260
2001 02 01 08 METAR CYVR 010800Z 11004KT 20SM BKN030 BKN047 OVC150 05/04 A3029 RMK SC5SC2AC2 SLP256
2001 02 01 09 METAR CYVR 010900Z 08004KT 20SM FEW030 FEW050 OVC210 04/02 A3027 RMK SC2SC1CS4 SLP251
2001 02 01 10 METAR CYVR 011000Z 11002KT 20SM FEW050 OVC180 04/03 A3027 RMK SC2AS6 SLP249
2001 02 01 11 METAR CYVR 011100Z 17003KT 20SM FEW050 OVC170 05/03 A3026 RMK SC1AS7 SLP247
2001 02 01 12 METAR CYVR 011200Z 11006KT 20SM FEW020 OVC160 04/02 A3026 RMK SC1AS7 SLP245
2001 02 01 13 METAR CYVR 011300Z 09007KT 20SM FEW025 OVC160 04/02 A3024 RMK SC1AS7 SLP239
2001 02 01 14 METAR CYVR 011400Z 11007KT 20SM FEW025 OVC160 04/02 A3023 RMK SC1AS7 SLP236
2001 02 01 15 METAR CYVR 011500Z 11006KT 20SM FEW028 SCT090 BKN160 04/02 A3023 RMK SC2AC2AS3 SLP235
2001 02 01 16 METAR CYVR 011600Z 13005KT 20SM FEW029 SCT080 OVC180 05/03 A3023 RMK SC2AC2CS3 SHWRS DSTNT NW VIRGA SLP238
2001 02 01 17 METAR CYVR 011700Z 05009KT 15SM -SHRA BKN031 BKN080 OVC180 05/03 A3023 RMK SC6AC1CS1 VSBY W-N 5 SLP236
2001 02 01 18 METAR CYVR 011800Z 05014KT 15SM FEW030 BKN050 BKN080 OVC180 07/04 A3021 RMK SC2SC3AS2CS1 SLP228
2001 02 01 19 METAR CYVR 011900Z 08014KT 15SM -SHRA FEW030 SCT050 BKN097 OVC180 07/05 A3021 RMK SC2SC2AS2CS1 VSBY/CIG LWR E SLP228
2001 02 01 20 METAR CYVR 012000Z 12009KT 20SM FEW030 FEW050 BKN083 OVC180 08/05 A3018 RMK SC1SC2AC2CS2 SLP219
2001 02 01 21 METAR CYVR 012100Z 09005KT 20SM FEW010 FEW050 BKN077 OVC200 09/05 A3015 RMK SF1SC2AC5CS1 TR SF SLP210
2001 02 01 22 METAR CYVR 012200Z 08009KT 20SM FEW010 FEW050 BKN076 OVC200 09/05 A3011 RMK SF1SC2AC5CS1 SLP197
2001 02 01 23 METAR CYVR 012300Z 08007KT 30SM BKN080 OVC120 09/05 A3009 RMK AC6AS2 SLP190
2001 02 02 00 METAR CYVR 020000Z 13007KT 30SM BKN083 OVC120 08/04 A3009 RMK AC6AS2 SLP190
2001 02 02 01 METAR CYVR 020100Z 09010KT 30SM FEW040 FEW100 BKN140 OVC250 07/04 A3005 RMK SC1AC2AS3CI2 BINOVC TR SC W VSBY NW 10BR SLP176
2001 02 02 02 METAR CYVR 020200Z 11008KT 30SM FEW040 FEW089 BKN140 OVC250 07/03 A3004 RMK SC1AC2AS3CI2 BINOVC TR SC W SLP171
2001 02 02 03 METAR CYVR 020300Z 11010KT 30SM SCT086 BKN120 OVC250 08/03 A3002 RMK AC3AS3CI2 VIRGA CIG DFUS SLP167
2001 02 02 04 METAR CYVR 020400Z 11011KT 30SM FEW056 BKN074 BKN140 OVC250 08/03 A3001 RMK SC2AC3AS2CI2 VIRGA CIG DFUS SLP161
2001 02 02 05 METAR CYVR 020500Z 08013G18KT 10SM -RA FEW028 SCT044 BKN058 BKN075 OVC130 07/03 A3001 RMK SF1SF2SC2AC2AS1 CIG RGD CIG+VSBY LWR N-NE SLP163
2001 02 02 06 METAR CYVR 020600Z 11015KT 15SM FEW025 SCT044 BKN057 OVC120 09/03 A3000 RMK SF2SC2SC2AS2 VIRGA CIG RGD SLP157
2001 02 02 07 METAR CYVR 020700Z 13015G28KT 10SM -RA FEW024 BKN036 BKN062 OVC120 09/04 A2998 RMK SF2SC2SC2AS2 BR PTCHS ALQDS SLP151
2001 02 02 08 METAR CYVR 020800Z 14014KT 10SM -RA FEW025 BKN042 OVC070 08/04 A2997 RMK SF2SC5AC2 SLP150
2001 02 02 09 METAR CYVR 020900Z 15017KT 10SM -RA FEW025 BKN041 BKN070 08/04 A2997 RMK SF2SC5AC1 LTGCC DSNT W SLP150
2001 02 02 10 METAR CYVR 021000Z 15014G19KT 20SM FEW025 FEW045 FEW090 07/04 A2997 RMK SF1SC2AC1 SLP150
2001 02 02 11 METAR CYVR 021100Z 18010KT 12SM -SHRA BKN032TCU BKN045 OVC090 08/05 A2999 RMK TCU5SC2AC2 SLP156
2001 02 02 12 METAR CYVR 021200Z 15009KT 20SM FEW030 FEW050 BKN160 07/04 A2999 RMK CF1SC2AC2 SLP154
2001 02 02 13 METAR CYVR 021300Z 13009KT 20SM FEW050 BKN110 BKN160 07/03 A2999 RMK SC2AC2AC2 SLP155
2001 02 02 14 METAR CYVR 021400Z 13012KT 20SM FEW030 BKN053 BKN120 07/04 A2999 RMK SC2SC3AC2 SLP156
2001 02 02 15 METAR CYVR 021500Z 16011G20KT 20SM FEW030 BKN045 BKN110 07/03 A3002 RMK SC2SC3AC1 SLP164
2001 02 02 16 METAR CYVR 021600Z 14014KT 20SM FEW030 BKN045 BKN150 07/03 A3004 RMK SC2SC2AC1 VIRGA SLP172
2001 02 02 13 METAR CYVR 021300Z 13009KT 20SM FEW050 BKN110 BKN160 07/03 A2999 RMK SC2AC2AC2 SLP155
2001 02 02 18 METAR CYVR 021800Z 17014G19KT 6SM -SHRA FEW015 BKN022 OVC030CB 08/03 A3007 RMK CF2CU2CB3 SLP183
2001 02 02 19 METAR CYVR 021900Z 16014G19KT 12SM FEW015 SCT025 BKN035CB BKN120 07/03 A3009 RMK CF1CU2CB2AC2 SLP188
2001 02 02 20 METAR CYVR 022000Z 17020G29KT 12SM FEW015 SCT025 BKN040CB BKN070 08/03 A3010 RMK CF1CU2CB2AC2 SLP191
2001 02 02 21 METAR CYVR 022100Z 16016KT 12SM -SHRA FEW020 SCT030 BKN040CB BKN090 BKN120 08/04 A3010 RMK CF1CU2CB2AC2AC1 SLP192
2001 02 02 22 METAR CYVR 022200Z 18016KT 15SM FEW030 BKN050 BKN080 BKN120 08/04 A3009 RMK CU2SC2AC2AC1 SLP190
2001 02 02 23 METAR CYVR 022300Z 17016KT 15SM FEW025 BKN045 BKN090 BKN150 08/04 A3011 RMK SC2SC2AC1AC1 SLP195
2001 02 03 00 METAR CYVR 030000Z 15013G19KT 15SM FEW025 BKN050 BKN120 08/04 A3012 RMK SC2SC2AC2 TCU ASOCTD SLP199
2001 02 03 01 METAR CYVR 030100Z 17014G20KT 15SM FEW025 SCT050 BKN130 08/04 A3013 RMK SC2SC2AC2 TCU ASOCTD SLP201
2001 02 03 02 METAR CYVR 030200Z 16013G20KT 15SM FEW025 SCT050 BKN080 BKN130 08/03 A3015 RMK SC2SC2AC2AC2 SLP210
2001 02 03 03 METAR CYVR 030300Z 18011KT 15SM FEW025 BKN050 BKN080 07/03 A3017 RMK SC2SC3AC2 SLP217
2001 02 03 04 METAR CYVR 030400Z 18009KT 15SM FEW025 SCT045 BKN072 07/02 A3021 RMK SC2SC2AC2 SLP228
2001 02 03 03 METAR CYVR 030300Z 18011KT 15SM FEW025 BKN050 BKN080 07/03 A3017 RMK SC2SC3AC2 SLP217
2001 02 03 06 METAR CYVR 030600Z 20009KT 15SM FEW025 BKN048 BKN075 07/02 A3024 RMK SC2SC3AC2 SLP240
2001 02 03 07 METAR CYVR 030700Z 19008KT 15SM FEW025 SCT050 BKN072 07/02 A3028 RMK SC2SC2AC2 SLP253
2001 02 03 08 METAR CYVR 030800Z 21011G16KT 15SM FEW050 BKN060 BKN092 07/03 A3029 RMK SC2SC2AC2 SLP258
2001 02 03 09 METAR CYVR 030900Z 22012G18KT 15SM FEW035 FEW060 06/02 A3031 RMK SC1SC1 SLP263
2001 02 03 10 METAR CYVR 031000Z 24012KT 15SM FEW060 06/02 A3034 RMK SC1 TR CLD SLP273
2001 02 03 11 METAR CYVR 031100Z 14005KT 15SM FEW040 FEW070 06/01 A3036 RMK SC1AC1 TR CLD SLP279
2001 02 03 12 METAR CYVR 031200Z 11004KT 15SM FEW040 FEW070 05/00 A3036 RMK SC1AC2 TR SC SLP282
2001 02 03 13 METAR CYVR 031300Z 11004KT 15SM FEW040 FEW120 03/M01 A3038 RMK SC1AC2 TR SC SLP287
2001 02 03 14 METAR CYVR 031400Z 10006KT 15SM FEW040 FEW080 02/M01 A3039 RMK SC1AC2 TR SC SLP289
2001 02 03 15 METAR CYVR 031500Z 10005KT 15SM FEW040 FEW080 02/M01 A3040 RMK SC1AC1 SLP294
2001 02 03 16 METAR CYVR 031600Z 10005KT 15SM FEW040 FEW080 SCT240 01/M01 A3042 RMK SC1AC1CI0 SLP301
2001 02 03 17 METAR CYVR 031700Z 10008KT 20SM FEW059 FEW080 FEW240 02/M00 A3043 RMK SC1AC0CI0 CU ASOCTD DSTNT E SLP305
2001 02 03 18 METAR CYVR 031800Z 10007KT 20SM FEW030 FEW050 FEW120 SCT240 05/02 A3043 RMK CU1SC1AC1CI1 TCU ASOCTD SE SLP304
2001 02 03 19 METAR CYVR 031900Z 10008KT 20SM FEW020 FEW120 SCT240 07/03 A3043 RMK CU1AC1CI1 TCU ASOCTD SE SLP304
2001 02 03 20 METAR CYVR 032000Z 13007KT 20SM FEW020 SCT030 SCT120 BKN240 08/03 A3043 RMK CF1CU3AC1CI0 TCU ASOCTD SLP304
2001 02 03 21 METAR CYVR 032100Z 13006KT 20SM FEW020 SCT035 BKN045 BKN120 BKN240 08/03 A3043 RMK CF1CU3SC1AC1CI0 TCU EMBDD SLP303
2001 02 03 22 METAR CYVR 032200Z 14008KT 20SM FEW020 SCT040 SCT120 BKN240 08/03 A3040 RMK CF1CU2AC1CI1 TCU EMBDD SHWRS N-NE SLP295
2001 02 03 23 METAR CYVR 032300Z 13004KT 20SM FEW020 FEW045 FEW140 OVC240 08/01 A3039 RMK CF1CU2AC1CS2 SLP292
2001 02 04 00 METAR CYVR 040000Z 11006KT 20SM FEW045 SCT120 OVC240 07/01 A3039 RMK CU1AC2CS5 SLP292
2001 02 04 01 METAR CYVR 040100Z 10007KT 20SM FEW045 FEW120 OVC240 06/01 A3036 RMK CU1AC2CS4 SLP282
2001 02 04 02 METAR CYVR 040200Z 09006KT 20SM SCT110 OVC240 06/02 A3036 RMK AC3CS2 SLP279
2001 02 04 03 METAR CYVR 040300Z 07008KT 20SM SCT100 OVC240 06/02 A3032 RMK AC4CS2 SLP267
2001 02 04 04 METAR CYVR 040400Z 08007KT 20SM BKN096 OVC240 06/02 A3031 RMK AC5CS2 SLP265
2001 02 04 05 METAR CYVR 040500Z 11006KT 20SM SCT090 BKN120 OVC220 05/02 A3029 RMK AC4AC2CS2 SLP257
2001 02 04 06 METAR CYVR 040600Z 11008KT 20SM BKN086 OVC120 05/01 A3029 RMK AC6AC2 VIRGA SLP257
2001 02 04 07 METAR CYVR 040700Z 11013KT 10SM -RA FEW040 BKN080 OVC120 06/02 A3030 RMK SC2AC4AC2 SLP259
2001 02 04 08 METAR CYVR 040800Z 11012KT 10SM -RA FEW040 BKN070 OVC120 05/02 A3027 RMK SC2AC5AC2 SLP251
2001 02 04 09 METAR CYVR 040900Z 11013KT 10SM -RA FEW040 BKN065 OVC110 05/02 A3024 RMK SC2SC4AC2 SLP241
2001 02 04 10 METAR CYVR 041000Z 11010KT 10SM FEW040 BKN065 OVC100 04/01 A3021 RMK SC2SC5AC2 SLP231
2001 02 04 11 METAR CYVR 041100Z 10008KT 12SM FEW030 BKN060 OVC090 04/02 A3019 RMK SC2SC4AC2 SLP224
2001 02 04 12 METAR CYVR 041200Z 10007KT 12SM SCT025 BKN040 OVC065 04/01 A3018 RMK SC3SC2SC2 SLP220
2001 02 04 13 METAR CYVR 041300Z 09009KT 10SM SCT022 BKN035 OVC050 04/02 A3015 RMK SC3SC3SC2 SLP210
2001 02 04 14 METAR CYVR 041400Z 10011KT 8SM -RA FEW007 BKN020 OVC038 04/02 A3013 RMK CF2SC4SC2 SLP203
2001 02 04 15 METAR CYVR 041500Z 09011KT 8SM -RA FEW007 OVC017 04/02 A3012 RMK SF2SC6 SLP199
2001 02 04 16 METAR CYVR 041600Z 09014KT 8SM -RA FEW007 BKN017 OVC044 04/02 A3011 RMK SF2SC5SC2 R VERY LGT SLP195
2001 02 04 17 METAR CYVR 041700Z 10013KT 8SM -RA FEW007 BKN017 OVC044 05/03 A3008 RMK SF2SC5SC1 SLP187
2001 02 04 18 METAR CYVR 041800Z 09013KT 8SM FEW007 BKN017 OVC044 06/04 A3008 RMK SF2SC4SC2 SLP187
2001 02 04 19 METAR CYVR 041900Z 10012KT 10SM FEW007 SCT017 OVC039 06/04 A3007 RMK SF2SC2SC4 SLP181
2001 02 04 20 METAR CYVR 042000Z 09011KT 15SM FEW017 BKN030 OVC049 07/04 A3006 RMK SF2SC4SC2 VSBY NW-N 10 SLP179
2001 02 04 21 METAR CYVR 042100Z 10009KT 15SM FEW017 BKN030 OVC049 07/05 A3005 RMK SF2SC4SC2 VSBY NW - N 10 SLP176
2001 02 04 22 METAR CYVR 042200Z 10009KT 20SM FEW017 BKN037 BKN220 09/07 A3003 RMK SF2SC5CI0 SLP169
2001 02 04 23 METAR CYVR 042300Z 10010KT 20SM FEW020 BKN048 BKN100 BKN220 10/07 A3002 RMK SC1SC5AC1CI1 SHWRS NE SLP167
2001 02 05 00 METAR CYVR 050000Z 14007KT 20SM FEW020 BKN044 BKN220 11/06 A3002 RMK SC1SC4CI1 SHWRS N-NE SLP166
2001 02 05 01 METAR CYVR 050100Z 12005KT 20SM FEW020 BKN045 BKN078 BKN220 09/05 A3002 RMK SC1SC4AC1CI1 SHWRS N-NE SLP164
2001 02 05 02 METAR CYVR 050200Z 16006KT 20SM FEW020 BKN060 BKN070 09/04 A3002 RMK SC1SC4AC2 SLP166
2001 02 05 03 METAR CYVR 050300Z 19013KT 20SM FEW020 SCT056 BKN077 09/04 A3002 RMK SC1SC2AC4 SLP166
2001 02 05 04 METAR CYVR 050400Z 18008KT 20SM FEW020 SCT062 BKN078 09/04 A3002 RMK SC1SC2AC4 SLP166
2001 02 05 05 METAR CYVR 050500Z 18007KT 20SM FEW020 BKN058 BKN083 09/04 A3003 RMK SC1SC4AC2 SLP168
2001 02 05 06 METAR CYVR 050600Z 27015G21KT 6SM -SHRA BR FEW009 SCT020 OVC036 07/05 A3006 RMK SF2SC2SC4 SLP178
2001 02 05 07 METAR CYVR 050700Z 28018KT 15SM FEW009 FEW020 BKN040 BKN100 06/04 A3008 RMK SF1SC1SC5AC2 TR SF SLP186
2001 02 05 08 METAR CYVR 050800Z 29025G31KT 20SM FEW012 SCT043 BKN097 06/03 A3010 RMK SF1SC3AC2 SLP192
2001 02 05 09 METAR CYVR 050900Z 29029KT 20SM FEW045 FEW095 BKN140 06/02 A3011 RMK SC2AC1AC3 SLP195
2001 02 05 10 METAR CYVR 051000Z 29023G31KT 20SM FEW078 BKN130 06/01 A3012 RMK AC2AC2 SLP199
2001 02 05 11 METAR CYVR 051100Z 30024G29KT 20SM FEW083 FEW120 05/00 A3014 RMK AC1AC2 SLP206
2001 02 05 12 METAR CYVR 051200Z 27026G33KT 20SM FEW044 FEW085 05/01 A3015 RMK SC1AC1 SLP210
2001 02 05 13 METAR CYVR 051300Z 27023G30KT 20SM FEW023 FEW085 05/01 A3019 RMK SC1AC1 SLP222
2001 02 05 14 METAR CYVR 051400Z 29021G28KT 20SM FEW047 05/00 A3021 RMK SC2 SLP231
2001 02 05 15 METAR CYVR 051500Z 29020G27KT 20SM BKN033 05/00 A3024 RMK SC5 SLP239
2001 02 05 16 METAR CYVR 051600Z 29013G18KT 30SM FEW011 BKN044 BKN090 05/01 A3026 RMK CF1SC5AC1 ACSL W SLP247
2001 02 05 17 METAR CYVR 051700Z 29015KT 30SM -SHRA FEW011 BKN028 BKN090 05/01 A3029 RMK CF1SC5AC1 TCU EMBDD SLP258
2001 02 05 18 METAR CYVR 051800Z 29013KT 30SM FEW011 BKN035 OVC090 05/01 A3031 RMK CF1SC6AC1 TCU EMBDD SHWRS N + E SLP264
2001 02 05 19 METAR CYVR 051900Z 29012KT 30SM FEW011 BKN037 OVC090 06/01 A3032 RMK CF1SC6AC1 TCU EMBDD SLP267
2001 02 05 20 METAR CYVR 052000Z 29009KT 30SM FEW011 BKN032 OVC090 06/01 A3032 RMK CF1SC6AC1 TCU EMBDD VIRGA SLP266
2001 02 05 21 METAR CYVR 052100Z 30008KT 30SM FEW011 OVC034 06/01 A3031 RMK CF1SC7 TCU EMBDD VIRGA SLP263
2001 02 05 22 METAR CYVR 052200Z 28008KT 20SM FEW011 SCT020 BKN034 OVC090 06/01 A3030 RMK CF1CF2SC3AC2 SLP260
2001 02 05 23 METAR CYVR 052300Z 29007KT 20SM FEW011 SCT020 BKN036 OVC090 06/01 A3029 RMK CF2CU2SC3AC1 SLP258
2001 02 06 00 METAR CYVR 060000Z 30005KT 20SM FEW011 SCT020 BKN036 OVC088 06/01 A3029 RMK CF2CU2SC2AC2 TCU EMBDD SLP257
2001 02 06 01 METAR CYVR 060100Z 00000KT 20SM FEW013 FEW022 BKN039 BKN048 OVC090 06/01 A3028 RMK CF1CU2SC2SC2AC2 SLP254
2001 02 06 02 METAR CYVR 060200Z 00000KT 20SM FEW013 BKN032 BKN060 OVC085 06/00 A3028 RMK SF2SC4SC1AC2 SLP253
2001 02 06 03 METAR CYVR 060300Z 14003KT 20SM FEW013 BKN032 BKN060 BKN090 05/01 A3027 RMK CF2SC4SC1AC1 TCU ASCTD SLP249
2001 02 06 04 METAR CYVR 060400Z 11007KT 20SM SCT025 BKN064 BKN085 05/01 A3026 RMK SC3SC3AC1 SLP245
2001 02 06 05 METAR CYVR 060500Z 11007KT 20SM BKN026 OVC062 05/01 A3024 RMK SC6SC2 SLP241
2001 02 06 06 METAR CYVR 060600Z 11006KT 20SM BKN024 OVC060 04/01 A3023 RMK SC6SC2 SLP238
2001 02 06 07 METAR CYVR 060700Z 36006KT 8SM -SHRA FEW008 BKN012 OVC028 03/M00 A3023 RMK CF2CF4SC2 TCU EMBDD SLP238
2001 02 06 08 METAR CYVR 060800Z 04002KT 10SM -RA BKN022 OVC046 02/M00 A3023 RMK SC5SC3 SLP236
2001 02 06 09 METAR CYVR 060900Z 00000KT 10SM -RA FEW017 OVC037 03/00 A3021 RMK SF2SC6 TCU ASOCTD SLP231
2001 02 06 10 METAR CYVR 061000Z 30002KT 15SM FEW043 OVC079 02/00 A3020 RMK SC2AC5 SLP226
2001 02 06 11 METAR CYVR 061100Z 35003KT 15SM BKN049 OVC072 02/00 A3020 RMK SC5AC2 MOON DIMLY VSBL SLP225
2001 02 06 12 METAR CYVR 061200Z 01002KT 15SM FEW047 OVC072 03/01 A3019 RMK SC2AC5 SLP223
2001 02 06 13 METAR CYVR 061300Z 04002KT 15SM FEW045 BKN080 03/00 A3018 RMK SC2AC5 SLP221
2001 02 06 14 METAR CYVR 061400Z 11003KT 15SM FEW038 SCT080 BKN130 03/M01 A3018 RMK SC1AC2AC4 SLP220
2001 02 06 15 METAR CYVR 061500Z 00000KT 20SM FEW038 SCT090 02/M01 A3019 RMK SC2AC1 SLP223
2001 02 06 16 METAR CYVR 061600Z 09004KT 20SM FEW010 SCT038 BKN080 02/M01 A3021 RMK ST1SC2AC2 ST TR N SLP229
2001 02 06 17 METAR CYVR 061700Z 09003KT 20SM FEW010 SCT038 BKN080 04/M01 A3021 RMK ST1SC2AC2 TR ST SLP230
2001 02 06 18 METAR CYVR 061800Z 13004KT 15SM FEW015TCU FEW038 SCT130 05/M03 A3023 RMK TCU1SC1AC1 SLP235
2001 02 06 19 METAR CYVR 061900Z 14002KT 30SM FEW015TCU SCT130 05/M02 A3023 RMK TCU2AC1 SLP236
2001 02 06 20 METAR CYVR 062000Z 25005KT 30SM FEW020 SCT130 SCT220 04/M01 A3023 RMK CU2AC1CI1 TCU ASCTD SLP236
2001 02 06 21 METAR CYVR 062100Z 25003KT 30SM FEW020 FEW130 FEW220 06/M02 A3022 RMK CU2AC1CI1 TCU ASCTD SLP234
2001 02 06 22 METAR CYVR 062200Z 32012KT 30SM FEW020 06/M02 A3021 RMK CU2 TCU ASCTD SLP231
2001 02 06 23 METAR CYVR 062300Z 31012KT 30SM FEW025 FEW240 06/M02 A3021 RMK CU2CI1 SLP230
2001 02 07 00 METAR CYVR 070000Z 30013KT 30SM FEW030 FEW240 05/M02 A3022 RMK CU1CI1 SLP232
2001 02 07 01 METAR CYVR 070100Z 30012KT 30SM FEW030 04/M02 A3022 RMK CU1 SLP233
2001 02 07 02 METAR CYVR 070200Z 06004KT 30SM FEW035 03/M04 A3023 RMK SC1 SLP237
2001 02 07 03 METAR CYVR 070300Z 09006KT 30SM SKC 02/M07 A3024 RMK SLP241
2001 02 07 04 METAR CYVR 070400Z 03005KT 30SM SKC 01/M07 A3027 RMK SLP249
2001 02 07 05 METAR CYVR 070500Z 05003KT 30SM SKC 01/M08 A3028 RMK SLP252
2001 02 07 06 METAR CYVR 070600Z 08002KT 30SM SKC M01/M08 A3029 RMK SLP256
2001 02 07 07 METAR CYVR 070700Z 00000KT 30SM SKC 00/M07 A3030 RMK SLP259
2001 02 07 08 METAR CYVR 070800Z 08003KT 30SM SKC M01/M08 A3029 RMK SLP258
2001 02 07 09 METAR CYVR 070900Z 09002KT 30SM SKC M01/M07 A3029 RMK SLP256
2001 02 07 10 METAR CYVR 071000Z 00000KT 30SM SKC M01/M07 A3030 RMK SLP259
2001 02 07 11 METAR CYVR 071100Z 10004KT 30SM FEW200 M01/M07 A3029 RMK CI1 SLP257
2001 02 07 12 METAR CYVR 071200Z 11002KT 30SM FEW020 M03/M07 A3029 RMK SC1 TR SC SLP257
2001 02 07 13 METAR CYVR 071300Z 10004KT 30SM FEW020 M03/M08 A3029 RMK SC1 TR CLD SLP257
2001 02 07 14 METAR CYVR 071400Z 10006KT 30SM FEW030 M03/M07 A3029 RMK SC2 MIFG SLP257
2001 02 07 15 METAR CYVR 071500Z 10006KT 30SM BKN031 M03/M07 A3029 RMK SC6 SLP256
2001 02 07 16 METAR CYVR 071600Z 10006KT 30SM BKN038 M02/M07 A3029 RMK SC6 SLP258
2001 02 07 17 METAR CYVR 071700Z 10007KT 30SM BKN037 M01/M06 A3030 RMK SC6 SLP259
2001 02 07 18 METAR CYVR 071800Z 11006KT 30SM BKN037 M00/M07 A3030 RMK SC7 SLP261
2001 02 07 19 METAR CYVR 071900Z 10007KT 30SM BKN037 01/M07 A3031 RMK SC6 SLP262
2001 02 07 20 METAR CYVR 072000Z 10006KT 30SM BKN038 BKN230 02/M06 A3030 RMK SC6CI1 SLP259
2001 02 07 21 METAR CYVR 072100Z 16004KT 30SM SCT038 SCT130 BKN230 03/M07 A3028 RMK SC3AC1CI2 SLP255
2001 02 07 22 METAR CYVR 072200Z 18003KT 30SM FEW038 FEW130 OVC230 04/M06 A3026 RMK SC2AC1CI3 SLP245
2001 02 07 23 METAR CYVR 072300Z 24002KT 30SM FEW040 FEW140 OVC240 04/M05 A3025 RMK SC2AC1CI3 SLP242
2001 02 08 00 METAR CYVR 080000Z 23002KT 30SM FEW040 FEW110 SCT140 OVC230 03/M05 A3025 RMK SC1AC2AS2CS2 SLP242
2001 02 08 01 METAR CYVR 080100Z 24002KT 30SM FEW040 FEW100 SCT140 OVC220 03/M05 A3024 RMK SC1AC2AS2CS2 SLP240
2001 02 08 02 METAR CYVR 080200Z 14004KT 30SM FEW046 FEW100 SCT140 OVC220 03/M06 A3023 RMK SC1AC2AS2CS2 SLP236
2001 02 08 03 METAR CYVR 080300Z 13003KT 30SM FEW048 SCT090 OVC130 03/M05 A3022 RMK SC1AC3AS4 SLP233
2001 02 08 04 METAR CYVR 080400Z 20003KT 10SM -SHSN SCT028 OVC051 02/M05 A3022 RMK SC3SC5 SLP233
2001 02 08 05 METAR CYVR 080500Z 17003KT 8SM -SHSN SCT031 OVC056 01/M03 A3021 RMK SC3SC4 SLP229
2001 02 08 06 METAR CYVR 080600Z 10006KT 8SM -SHSN SCT026 OVC048 01/M03 A3019 RMK SC3SC4 SLP224
2001 02 08 07 METAR CYVR 080700Z 10008KT 6SM -SN BKN034 OVC050 01/M03 A3019 RMK SC5SC2 SLP222
2001 02 08 08 METAR CYVR 080800Z 09008KT 4SM -SN BKN024 BKN045 00/M03 A3018 RMK SN2SC2SC2 SLP218
2001 02 08 09 METAR CYVR 080900Z 09012KT 3SM -SN BKN019 BKN045 M00/M03 A3016 RMK SN3SC3SC1 MOON DMLY VSBL SLP212
2001 02 08 10 METAR CYVR 081000Z 08010KT 2 1/2SM -SN VV012 M00/M03 A3015 RMK SN8 MOON DMLY VSBL SLP208
2001 02 08 11 METAR CYVR 081100Z 08010KT 2SM -SN VV011 M00/M07 A3012 RMK SN8 MOON DMLY VSBL /S01/ SLP200
2001 02 08 12 METAR CYVR 081200Z 09011KT 2 1/2SM -SN VV015 M00/M02 A3010 RMK SN8 MOON DMLY VSBL SLP192
2001 02 08 13 METAR CYVR 081300Z 09011KT 3SM -SN OVC022 00/M02 A3008 RMK SN5SF3 SLP184
2001 02 08 14 METAR CYVR 081400Z 09011KT 2 1/2SM -SN VV012 00/M02 A3005 RMK SN8 /S01/ SLP177
2001 02 08 15 METAR CYVR 081500Z 09011KT 1 1/2SM -SN VV008 00/M02 A3004 RMK SN8 SLP173
2001 02 08 16 METAR CYVR 081600Z 08010KT 3/4SM -SN VV007 00/M02 A3003 RMK SN8 SLP168
2001 02 08 17 METAR CYVR 081700Z 09008KT 3/4SM -SN VV007 00/M02 A3001 RMK SN8 SLP163
2001 02 08 18 METAR CYVR 081800Z 08007KT 1SM -SN VV012 00/M02 A3000 RMK SN8 SLP159
2001 02 08 19 METAR CYVR 081900Z 07007KT 1SM -SN VV013 00/M02 A2999 RMK SN8 SLP156
2001 02 08 20 METAR CYVR 082000Z CCA 09006KT 3/4SM -SN VV008 00/M02 A2998 RMK SN8 /S04/ SLP151
2001 02 08 21 METAR CYVR 082100Z 08006KT 1SM -SN VV010 00/M02 A2996 RMK SN8 SLP145
2001 02 08 22 METAR CYVR 082200Z 08008KT 2 1/2SM -SN FEW008 BKN015 OVC025 01/M01 A2994 RMK SF2SF5SC2 SLP139
2001 02 08 23 METAR CYVR 082300Z 09006KT 5SM -RA BR FEW008 BKN015 OVC023 01/M01 A2993 RMK SF2SF5SC2 SLP136
2001 02 09 00 METAR CYVR 090000Z 09007KT 5SM -RA BR FEW008 BKN015 OVC023 01/M01 A2993 RMK SF2SF5SC2 SLP136
2001 02 09 01 METAR CYVR 090100Z 10009KT 4SM -RA BR FEW008 BKN016 OVC025 01/M01 A2992 RMK SF2SF5SC2 SLP132
2001 02 09 02 METAR CYVR 090200Z 09008KT 3SM -RA BR FEW007 BKN016 OVC026 01/M01 A2992 RMK SF2SF5SC2 SLP131
2001 02 09 03 METAR CYVR 090300Z 09006KT 3SM -RA BR FEW007 BKN016 OVC024 01/M01 A2992 RMK SF2SF5SC2 SLP130
2001 02 09 04 METAR CYVR 090400Z 12007KT 4SM -RA BR FEW007 BKN015 OVC021 02/M00 A2991 RMK SF2SF5SC1 SLP128
2001 02 09 05 METAR CYVR 090500Z 12006KT 5SM -RA BR FEW007 SCT015 OVC024 02/M01 A2992 RMK SF2SF2SC4 SLP130
2001 02 09 06 METAR CYVR 090600Z 10006KT 6SM -RA BR FEW007 SCT015 OVC025 01/01 A2992 RMK SF2SF2SC4 SLP132
2001 02 09 07 METAR CYVR 090700Z 09006KT 6SM -RA BR FEW007 SCT015 OVC026 02/M01 A2992 RMK SF1SF2SC5 SLP132
2001 02 09 08 METAR CYVR 090800Z 11005KT 8SM -RA FEW007 SCT015 OVC025 02/M01 A2993 RMK SF1SF2SC5 SLP134
2001 02 09 09 METAR CYVR 090900Z 13003KT 8SM -RASN FEW007 SCT015 OVC026 02/M00 A2992 RMK SF1SF2SC5 SLP133
2001 02 09 10 METAR CYVR 091000Z 36003KT 8SM -RASN FEW007 FEW015 SCT025 OVC046 02/M00 A2992 RMK SF1SF2SC2SC3 PRECIP VRY LGT SLP133
2001 02 09 11 METAR CYVR 091100Z 13004KT 10SM FEW015 FEW025 SCT045 OVC062 02/00 A2992 RMK SF1SF1SC2SC5 SLP132
2001 02 09 12 METAR CYVR 091200Z 00000KT 15SM FEW025 OVC051 02/M00 A2993 RMK SF2SC5 SLP134
2001 02 09 13 METAR CYVR 091300Z 00000KT 15SM FEW025 SCT050 OVC066 02/00 A2993 RMK SF2SC2AC4 SLP135
2001 02 09 14 METAR CYVR 091400Z 19002KT 15SM FEW025 SCT050 OVC066 03/00 A2993 RMK SF2SC2AC4 SLP134
2001 02 09 15 METAR CYVR 091500Z 18004KT 20SM FEW012 FEW025 BKN042 BKN065 OVC140 03/M00 A2994 RMK SF1SF2SC2SC2AC1 SLP137
2001 02 09 16 METAR CYVR 091600Z 30007KT 30SM FEW012 BKN048 BKN065 BKN140 03/M00 A2994 RMK CF1SC5SC1AC1 SLP138
2001 02 09 17 METAR CYVR 091700Z 00000KT 30SM FEW012 FEW025 BKN048 03/M00 A2994 RMK CF1CF1SC6 SLP138
2001 02 09 18 METAR CYVR 091800Z 09003KT 30SM FEW012 FEW025 BKN048 BKN070 03/00 A2994 RMK CF1CF1SC4AC1 SLP139
2001 02 09 19 METAR CYVR 091900Z 00000KT 30SM FEW012 FEW025 BKN048 BKN070 04/01 A2995 RMK CF1CF1SC4AC1 SLP140
2001 02 09 20 METAR CYVR 092000Z 29002KT 30SM FEW012 FEW025 BKN048 04/01 A2994 RMK CF1CF1SC4 SLP138
2001 02 09 21 METAR CYVR 092100Z 26006KT 30SM FEW012 FEW025 SCT048 BKN070 05/00 A2993 RMK CF1CF1SC2AC1 SLP134
2001 02 09 22 METAR CYVR 092200Z 29004KT 30SM FEW025 FEW048 SCT070 SCT230 06/02 A2992 RMK CF1SC2AC2CI1 SLP131
2001 02 09 23 METAR CYVR 092300Z 30007KT 30SM SCT015 SCT045 BKN110 BKN230 06/02 A2991 RMK SC3SC1AC2CI0 SLP127
2001 02 10 00 METAR CYVR 100000Z 28006KT 30SM FEW015 FEW045 FEW110 SCT230 06/03 A2989 RMK CU2SC1AC1CI0 SLP123
2001 02 10 01 METAR CYVR 100100Z 27004KT 30SM FEW015 FEW045 FEW110 BKN230 05/02 A2989 RMK CU2SC1AC1CI0 SLP121
2001 02 10 02 METAR CYVR 100200Z 00000KT 30SM FEW015 FEW045 BKN230 05/02 A2988 RMK CF1SC1CI0 SLP118
2001 02 10 03 METAR CYVR 100300Z 00000KT 30SM FEW015 FEW045 SCT230 04/01 A2988 RMK CF1SC1CI0 SLP118
2001 02 10 04 METAR CYVR 100400Z 10002KT 30SM FEW045 FEW230 04/01 A2987 RMK SC1CI0 SLP115
2001 02 10 05 METAR CYVR 100500Z 10005KT 30SM FEW025 SCT230 01/M01 A2987 RMK SC2CI0 SLP113
2001 02 10 06 METAR CYVR 100600Z 09005KT 30SM FEW022 SCT230 00/M02 A2985 RMK SC2CI0 SLP108
2001 02 10 07 METAR CYVR 100700Z 10006KT 30SM SCT015 BKN030 01/M01 A2984 RMK SC4SC3 SLP106
2001 02 10 08 METAR CYVR 100800Z 12007KT 20SM SCT015 BKN032 02/00 A2984 RMK SC3SC4 SLP103
2001 02 10 09 METAR CYVR 100900Z 11007KT 20SM SCT015 BKN035 02/00 A2982 RMK SC3SC4 SLP098
2001 02 10 10 METAR CYVR 101000Z 11007KT 20SM SCT015 BKN036 02/M04 A2980 RMK SC3SC4 SLP092
2001 02 10 11 METAR CYVR 101100Z 11007KT 20SM SCT015 BKN041 02/M00 A2979 RMK SC3SC4 SLP087
2001 02 10 12 METAR CYVR 101200Z 09010KT 15SM FEW020 OVC048 02/M00 A2977 RMK SC2SC6 SLP080
2001 02 10 13 METAR CYVR 101300Z 09010KT 15SM FEW020 OVC041 02/M01 A2975 RMK SC2SC6 SLP074
2001 02 10 14 METAR CYVR 101400Z 09007KT 15SM FEW020 OVC038 03/M00 A2974 RMK SC2SC6 SLP070
2001 02 10 15 METAR CYVR 101500Z 11004KT 15SM FEW025 OVC042 02/00 A2973 RMK SC2SC6 SLP066
2001 02 10 16 METAR CYVR 101600Z 11006KT 15SM FEW025 BKN053 BKN090 02/00 A2972 RMK SC2SC2AC2 VSBY/CIG LWR W-NE SLP064
2001 02 10 17 METAR CYVR 101700Z 13011KT 20SM FEW020 FEW030 BKN058 BKN090 BKN120 03/M00 A2972 RMK CU1SC2SC2AC2AC1 TR CU CIG/VSBY LWR NW-NE SLP064
2001 02 10 18 METAR CYVR 101800Z 09009KT 20SM FEW015 FEW035 SCT061 BKN090 BKN150 04/00 A2971 RMK CU1SC2SC2AC2AS2 TR CU VSBY/CIG LWR NW-NE SLP062
2001 02 10 19 METAR CYVR 101900Z 09009KT 30SM FEW015 FEW035 SCT055 BKN090 BKN150 05/M00 A2971 RMK CU1SC2SC2AC2AS2 TR CU VSBY/CIG LWR NW-NE SLP059
2001 02 10 20 METAR CYVR 102000Z 10009KT 30SM FEW025 FEW050 SCT090 BKN150 BKN210 06/M00 A2970 RMK CU1SC2AC2AS2CS2 SLP056
2001 02 10 21 METAR CYVR 102100Z 08009KT 30SM FEW025 FEW050 SCT090 BKN150 BKN240 06/00 A2969 RMK CF1SC2AC2AS2CS2 TR CF SLP052
2001 02 10 22 METAR CYVR 102200Z 09005KT 30SM FEW025 FEW050 SCT090 BKN120 BKN240 07/M01 A2967 RMK SF1SC2AC2AS2CS2 SLP048
2001 02 10 23 METAR CYVR 102300Z 12004KT 30SM FEW035 FEW090 BKN160 BKN240 07/M02 A2966 RMK SF1AC2AS4CS2 VIRGA SLP045
2001 02 11 00 METAR CYVR 110000Z 33005KT 30SM FEW035 BKN080 BKN120 BKN240 06/01 A2966 RMK SF1AC6AC1CI1 TR SF VIRGA NW SLP045
2001 02 11 01 METAR CYVR 110100Z 34003KT 30SM BKN083 BKN120 BKN240 06/00 A2967 RMK AC5AC2CI0 SLP046
2001 02 11 02 METAR CYVR 110200Z 31002KT 30SM SCT083 BKN160 04/M00 A2968 RMK AC3AC3 SLP050
2001 02 11 03 METAR CYVR 110300Z 03003KT 30SM FEW083 SCT170 04/M01 A2969 RMK AC2AC2 SLP052
2001 02 11 04 METAR CYVR 110400Z 36004KT 30SM FEW170 04/M00 A2970 RMK AC2 SLP057
2001 02 11 05 METAR CYVR 110500Z 01002KT 30SM FEW085 FEW170 03/M01 A2971 RMK AC1AC1 SLP062
2001 02 11 06 METAR CYVR 110600Z 13002KT 30SM FEW060 FEW170 03/M00 A2973 RMK SC1AC1 TR CLD SLP066
2001 02 11 07 METAR CYVR 110700Z 00000KT 30SM FEW170 01/M02 A2974 RMK AC1 TR CLD SLP072
2001 02 11 08 METAR CYVR 110800Z 09003KT 30SM FEW170 01/M01 A2975 RMK AC1 SLP074
2001 02 11 10 METAR CYVR 111000Z 07002KT 30SM FEW170 M00/M03 A2978 RMK AC1 SLP083
2001 02 11 11 METAR CYVR 111100Z 09002KT 30SM FEW160 00/M02 A2978 RMK AC1 SLP085
2001 02 11 12 METAR CYVR 111200Z 07004KT 30SM FEW160 M02/M04 A2979 RMK AC1 SLP089
2001 02 11 13 METAR CYVR 111300Z 00000KT 30SM FEW160 M01/M03 A2980 RMK AC1 SLP092
2001 02 11 14 METAR CYVR 111400Z 00000KT 30SM SKC 00/M03 A2982 RMK SLP096
2001 02 11 15 METAR CYVR 111500Z 12004KT 30SM FEW120 M00/M04 A2983 RMK AC1 ACC ASOCTD SW SLP100
2001 02 11 16 METAR CYVR 111600Z 08003KT 30SM FEW020 FEW140 FEW240 M01/M04 A2985 RMK CU1AC1CI1 CU SW TR CLD SLP109
2001 02 11 17 METAR CYVR 111700Z 11005KT 30SM FEW015 FEW140 FEW240 02/M02 A2987 RMK CU1AC1CI1 CU SW TR CLD SLP113
2001 02 11 18 METAR CYVR 111800Z 23002KT 30SM FEW020 FEW140 FEW240 06/M00 A2988 RMK CU1AC1CI1 CU SW ACC ASOCTD TR CLD SLP118
2001 02 11 19 METAR CYVR 111900Z 31005KT 30SM FEW020 FEW140 FEW240 05/01 A2989 RMK CU1AC1CI1 CU SW TR CLD SLP122
2001 02 11 20 METAR CYVR 112000Z 30012KT 30SM FEW025 FEW140 FEW240 06/01 A2989 RMK CU1AC1CI1 CU SW TR CLD SLP122
2001 02 11 21 METAR CYVR 112100Z 30014KT 30SM FEW030 FEW140 FEW240 06/03 A2989 RMK CU1AC1CI1 TR CLD SLP122
2001 02 11 22 METAR CYVR 112200Z 30015KT 30SM FEW030 FEW140 FEW240 06/03 A2989 RMK CU1AC1CI1 TR CLD SLP123
2001 02 11 23 METAR CYVR 112300Z 30017KT 30SM FEW040 06/03 A2990 RMK SC1 TR SC SLP125
2001 02 12 00 METAR CYVR 120000Z 30016KT 30SM FEW040 06/02 A2991 RMK SC1 TR SC SLP127
2001 02 12 01 METAR CYVR 120100Z 31016KT 30SM FEW040 05/02 A2992 RMK SC1 TR SC SLP130
2001 02 12 02 METAR CYVR 120200Z 31012KT 30SM SKC 05/01 A2992 RMK SLP132
2001 02 12 03 METAR CYVR 120300Z 31011KT 30SM SKC 05/01 A2994 RMK SLP138
2001 02 12 04 METAR CYVR 120400Z 32009KT 30SM SKC 04/01 A2995 RMK SLP143
2001 02 12 05 METAR CYVR 120500Z 36004KT 30SM SKC 04/M00 A2997 RMK SLP147
2001 02 12 06 METAR CYVR 120600Z 08002KT 30SM SKC 03/M02 A2998 RMK SLP153
2001 02 12 07 METAR CYVR 120700Z 34005KT 30SM SKC 04/M02 A3000 RMK SLP157
2001 02 12 08 METAR CYVR 120800Z 34002KT 30SM SKC 00/M03 A3001 RMK SLP161
2001 02 12 09 METAR CYVR 120900Z 36003KT 30SM FEW220 00/M04 A3002 RMK CI0 SLP164
2001 02 12 10 METAR CYVR 121000Z 30006KT 30SM FEW220 00/M03 A3004 RMK CI0 SLP172
2001 02 12 L METAR CYVR NIL
2001 02 12 12 METAR CYVR 121200Z 34007KT 30SM FEW220 01/M05 A3006 RMK CI0 SLP179
2001 02 12 13 METAR CYVR 121300Z 01005KT 30SM FEW220 M01/M04 A3008 RMK CI0 SLP184
2001 02 12 14 METAR CYVR 121400Z 01002KT 30SM FEW220 M01/M04 A3009 RMK CI0 SLP188
2001 02 12 16 METAR CYVR 121600Z 00000KT 30SM FEW040 FEW140 SCT220 M00/M04 A3011 RMK CU1AC1CI1 TR CU SW SLP197
2001 02 12 17 METAR CYVR 121700Z 07006KT 30SM FEW040 FEW140 SCT220 01/M03 A3014 RMK CU1AC1CI1 TR CU SW SLP205
2001 02 12 18 METAR CYVR 121800Z 34004KT 30SM FEW040 FEW140 SCT220 04/M02 A3014 RMK CU1AC1CI1 TR CU SW SLP207
2001 02 12 19 METAR CYVR 121900Z 07002KT 30SM FEW040 FEW140 SCT220 06/M02 A3015 RMK CU1AC1CI1 TR CU S SLP209
2001 02 12 20 METAR CYVR 122000Z 31006KT 30SM FEW040 FEW140 FEW240 06/M02 A3015 RMK CU1AC1CI0 TR CU S SLP209
2001 02 12 18 METAR CYVR 121800Z 34004KT 30SM FEW040 FEW140 SCT220 04/M02 A3014 RMK CU1AC1CI1 TR CU SW SLP207
2001 02 12 22 METAR CYVR 122200Z 31009KT 30SM FEW040 FEW150 SCT240 06/M00 A3015 RMK CU1AC2CI0 SLP210
2001 02 12 23 METAR CYVR 122300Z CCA 30009KT 30SM FEW040 FEW150 BKN250 06/M00 A3015 RMK CU1AC2CI0 SLP210
2001 02 13 00 METAR CYVR 130000Z 30007KT 30SM FEW040 FEW150 SCT250 05/M00 A3015 RMK CU1AC2CI0 SLP208
2001 02 13 01 METAR CYVR 130100Z 31006KT 30SM FEW140 SCT250 04/M01 A3015 RMK AC1CI0 SLP210
2001 02 13 02 METAR CYVR 130200Z 29007KT 30SM FEW160 FEW250 03/M01 A3015 RMK AC1CI0 SLP209
2001 02 13 03 METAR CYVR 130300Z 30006KT 30SM FEW220 03/M01 A3015 RMK CI0 SLP211
2001 02 13 04 METAR CYVR 130400Z 36004KT 30SM SKC 03/M02 A3017 RMK SLP215
2001 02 13 05 METAR CYVR 130500Z 00000KT 30SM FEW120 02/M02 A3017 RMK AC1 SLP215
2001 02 13 06 METAR CYVR 130600Z 09002KT 30SM SKC 02/M02 A3018 RMK SLP220
2001 02 13 07 METAR CYVR 130700Z 00000KT 30SM SKC 01/M04 A3018 RMK SLP221
2001 02 13 08 METAR CYVR 130800Z 00000KT 30SM FEW240 00/M04 A3020 RMK CI0 SLP227
2001 02 13 09 METAR CYVR 130900Z 11003KT 30SM FEW150 FEW240 00/M03 A3020 RMK AC1CI0 SLP227
2001 02 13 10 METAR CYVR 131000Z 10002KT 30SM SCT110 00/M03 A3022 RMK AC4 SLP232
2001 02 13 11 METAR CYVR 131100Z 00000KT 30SM BKN110 00/M04 A3022 RMK AC5 SLP232
2001 02 13 12 METAR CYVR 131200Z 01003KT 30SM FEW110 FEW240 M01/M04 A3022 RMK AC2CI0 SLP233
2001 02 13 13 METAR CYVR 131300Z 00000KT 30SM FEW120 M01/M05 A3023 RMK AC1 TR CLD SLP235
2001 02 13 14 METAR CYVR 131400Z 00000KT 30SM FEW120 M01/M04 A3021 RMK AC1 SLP230
2001 02 13 15 METAR CYVR 131500Z 09002KT 30SM FEW030 FEW240 M01/M04 A3021 RMK SC1CI0 TR SC OVR WTR CU ASOCTD SLP230
2001 02 13 16 METAR CYVR 131600Z 04002KT 30SM FEW030 FEW120 FEW160 SCT240 00/M04 A3022 RMK CU1AC1AC0CI0 TR SC OVR WTR CU ASOCTD SLP233
2001 02 13 17 METAR CYVR 131700Z 11005KT 30SM FEW030 FEW120 FEW160 SCT240 02/M03 A3022 RMK CU1AC1AC1CI0 TR SC OVR WTR CU ASOCTD SLP233
2001 02 13 18 METAR CYVR 131800Z 13002KT 30SM FEW030 FEW120 FEW160 SCT240 03/M02 A3023 RMK SC1AC1AC1CI0 TR SC OVR WTR HZ SLP237
2001 02 13 19 METAR CYVR 131900Z 24004KT 30SM FEW030 FEW120 FEW160 FEW240 05/M01 A3023 RMK SC1AC1AC1CI0 TR SC OVR WTR HZ SLP237
2001 02 13 20 METAR CYVR 132000Z 29010KT 30SM FEW030 FEW140 FEW180 SCT240 06/M00 A3021 RMK SC1AC1AC2CI0 TR SC OVR WTR SLP230
2001 02 13 21 METAR CYVR 132100Z 30011KT 30SM FEW030 FEW140 BKN180 BKN240 06/01 A3020 RMK SC1AC1AC4CI0 TR SC OVR WTR SLP226
2001 02 13 22 METAR CYVR 132200Z 29012KT 30SM FEW140 BKN180 BKN240 06/01 A3019 RMK AC2AC3CI0 SLP224
2001 02 13 23 METAR CYVR 132300Z 30010KT 30SM FEW090 BKN180 BKN240 06/01 A3018 RMK AC1AC5CI0 TR LWR AC HZ E SLP219
2001 02 14 00 METAR CYVR 140000Z 30012KT 30SM FEW090 FEW180 SCT240 06/01 A3017 RMK AC1AC2CI1 TR LWR AC HZ E SLP217
2001 02 14 01 METAR CYVR 140100Z 31010KT 30SM FEW180 BKN240 05/01 A3016 RMK AC2CI0 SLP214
2001 02 14 02 METAR CYVR 140200Z 29012KT 30SM FEW090 FEW190 BKN250 04/01 A3015 RMK AC1AC1CI1 TR LWR AC SLP211
2001 02 14 03 METAR CYVR 140300Z 31010KT 30SM FEW190 FEW250 04/00 A3015 RMK AC1CI1 TR CLD SLP210
2001 02 14 04 METAR CYVR 140400Z 32010KT 30SM FEW120 04/00 A3016 RMK AC1 TR CLD SLP213
2001 02 14 05 METAR CYVR 140500Z 36003KT 30SM FEW110 04/M00 A3016 RMK AC1 SLP213
2001 02 14 06 METAR CYVR 140600Z 05003KT 30SM SKC 03/M01 A3015 RMK SLP211
2001 02 14 07 METAR CYVR 140700Z 31002KT 30SM FEW110 02/M02 A3015 RMK AC1 TR CLD SLP211
2001 02 14 08 METAR CYVR 140800Z 00000KT 30SM SKC 01/M02 A3015 RMK SLP210
2001 02 14 09 METAR CYVR 140900Z 08002KT 30SM FEW240 00/M02 A3015 RMK CI1 SLP208
2001 02 14 10 METAR CYVR 141000Z 00000KT 30SM FEW120 FEW240 00/M03 A3013 RMK AC1CI1 SLP204
2001 02 14 11 METAR CYVR 141100Z 11005KT 20SM FEW120 SCT160 BKN240 M01/M03 A3012 RMK AC1AC2CI1 SLP200
2001 02 14 12 METAR CYVR 141200Z 10007KT 20SM FEW120 FEW160 SCT240 01/M02 A3011 RMK AC1AC2CI0 SLP196
2001 02 14 13 METAR CYVR 141300Z 10005KT 20SM FEW120 FEW160 SCT240 M01/M04 A3010 RMK AC1AC1CI0 SLP192
2001 02 14 14 METAR CYVR 141400Z 07003KT 20SM FEW010 BKN160 BKN240 M01/M04 A3009 RMK SF1AC5CI0 SLP189
2001 02 14 13 METAR CYVR 141300Z 10005KT 20SM FEW120 FEW160 SCT240 M01/M04 A3010 RMK AC1AC1CI0 SLP192
2001 02 14 16 METAR CYVR 141600Z 11005KT 20SM FEW010 BKN140 01/M02 A3008 RMK SC1AC6 SC W-SW H SLP184
2001 02 14 17 METAR CYVR 141700Z 11006KT 20SM BKN150 02/M02 A3007 RMK AC6 H SLP181
2001 02 14 18 METAR CYVR 141800Z CCA 11008KT 30SM FEW010 BKN150 03/M01 A3004 RMK SF1AC6 H SLP173
2001 02 14 19 METAR CYVR 141900Z 09007KT 20SM SCT012 BKN120 BKN150 04/00 A3003 RMK SC3AC2AC2 HZ SLP168
2001 02 14 20 METAR CYVR 142000Z 09009KT 20SM SCT018 BKN120 BKN150 05/01 A3000 RMK SC3AC2AC2 HZ SLP158
2001 02 14 21 METAR CYVR 142100Z 11012KT 20SM SCT014 BKN030 BKN120 06/02 A2995 RMK SF3SC2AC2 CU EMBDD HZ SLP141
2001 02 14 22 METAR CYVR 142200Z 11011KT 20SM SCT015 BKN021 OVC120 06/02 A2992 RMK SF3SC3AC1 CU EMBDD SLP131
2001 02 14 23 METAR CYVR 142300Z 11009KT 20SM FEW015 BKN021 BKN120 06/02 A2991 RMK SF2SC4AC1 CU EMBDD SLP127
2001 02 15 00 METAR CYVR 150000Z 09006KT 15SM FEW015 BKN024 BKN120 06/02 A2991 RMK SF1CU5AC1 SLP128
2001 02 15 01 METAR CYVR 150100Z 10006KT 15SM FEW024 SCT035 BKN064 BKN120 06/02 A2990 RMK CU2SC1SC2AC1 VIRGA SLP125
2001 02 15 02 METAR CYVR 150200Z 10002KT 15SM FEW020 FEW035 SCT060 SCT120 05/01 A2989 RMK CU1SC2SC1AC1 SLP121
2001 02 15 03 METAR CYVR 150300Z 00000KT 12SM FEW015 BKN027 05/02 A2988 RMK SC2SC6 SLP117
2001 02 15 04 METAR CYVR 150400Z 28004KT 12SM FEW015 BKN027 BKN077 05/02 A2987 RMK SC2SC5AC1 SLP116
2001 02 15 05 METAR CYVR 150500Z 27007KT 12SM FEW015 SCT027 BKN088 05/02 A2987 RMK SC2SC2AC3 SLP115
2001 02 15 06 METAR CYVR 150600Z 27007KT 12SM FEW009 FEW012 SCT021 OVC038 06/03 A2987 RMK CF1CF2SC2SC4 SLP115
2001 02 15 07 METAR CYVR 150700Z 30007KT 12SM FEW009 FEW013 BKN030 OVC040 05/02 A2987 RMK CF1CF2SC4SC2 SLP114
2001 02 15 08 METAR CYVR 150800Z 31013KT 12SM FEW009 BKN020 OVC045 05/02 A2987 RMK CF2SC4SC2 SLP115
2001 02 15 07 METAR CYVR 150700Z 30007KT 12SM FEW009 FEW013 BKN030 OVC040 05/02 A2987 RMK CF1CF2SC4SC2 SLP114
2001 02 15 10 METAR CYVR 151000Z 08006KT 12SM -RA FEW015 BKN022 OVC040 04/02 A2989 RMK SC2SC3SC3 CIG RGD SLP120
2001 02 15 11 METAR CYVR 151100Z 18005KT 12SM FEW040 SCT060 OVC096 04/M01 A2990 RMK SC2SC2AC4 SLP126
2001 02 15 12 METAR CYVR 151200Z 16009KT 12SM FEW030 SCT060 BKN097 04/M03 A2994 RMK SC2SC2AC2 SLP138
2001 02 15 13 METAR CYVR 151300Z 12009G15KT 12SM FEW007 SCT050 BKN094 02/M01 A2997 RMK SF1SC3AC2 SLP148
2001 02 15 14 METAR CYVR 151400Z 12009KT 15SM FEW009 BKN054 BKN090 01/M03 A2999 RMK SF1SC6AC2 SLP156
2001 02 15 15 METAR CYVR 151500Z 11008KT 15SM FEW009 BKN060 BKN090 02/M07 A3002 RMK SF1SC6AC1 SLP166
2001 02 15 16 METAR CYVR 151600Z 05009KT 30SM BKN060 BKN090 02/M10 A3005 RMK SC5AC2 ACSL ASOCTD SLP174
2001 02 15 17 METAR CYVR 151700Z 09011KT 30SM FEW060 BKN090 02/M11 A3008 RMK SC2AC5 ACSL ASOCTD SLP185
2001 02 15 18 METAR CYVR 151800Z 07011G17KT 30SM FEW060 BKN094 03/M13 A3010 RMK SC1AC6 ACSL ASOCTD SLP193
2001 02 15 19 METAR CYVR 151900Z 06012KT 30SM BKN096 03/M12 A3011 RMK AC6 SLP196
2001 02 15 20 METAR CYVR 152000Z 05009KT 30SM FEW060 BKN096 04/M12 A3011 RMK SC1AC6 SLP196
2001 02 15 21 METAR CYVR 152100Z 06006KT 30SM FEW060 BKN096 04/M13 A3010 RMK SC1AC6 SLP191
2001 02 15 17 METAR CYVR 151700Z 09011KT 30SM FEW060 BKN090 02/M11 A3008 RMK SC2AC5 ACSL ASOCTD SLP185
2001 02 15 23 METAR CYVR 152300Z 09006KT 30SM SCT097 BKN120 BKN230 04/M13 A3009 RMK AC3AC2CI0 SLP190
2001 02 16 00 METAR CYVR 160000Z 07008KT 30SM BKN093 BKN230 04/M13 A3009 RMK AC6CI0 SLP190
2001 02 16 01 METAR CYVR 160100Z 05010KT 30SM BKN093 BKN230 03/M14 A3010 RMK AC6CI0 SLP191
2001 02 16 02 METAR CYVR 160200Z 05009G16KT 30SM BKN095 BKN230 03/M14 A3008 RMK AC6CI0 SLP185
2001 02 16 03 METAR CYVR 160300Z 05008KT 30SM BKN093 02/M14 A3007 RMK AC5 SLP182
2001 02 16 04 METAR CYVR 160400Z 07006KT 30SM SCT093 BKN230 01/M14 A3007 RMK AC3CI1 SLP181
2001 02 16 02 METAR CYVR 160200Z 05009G16KT 30SM BKN095 BKN230 03/M14 A3008 RMK AC6CI0 SLP185
2001 02 16 06 METAR CYVR 160600Z 07008KT 30SM SCT095 OVC210 01/M14 A3008 RMK AC3CI3 SLP185
2001 02 16 07 METAR CYVR 160700Z 08007KT 20SM SCT090 OVC170 01/M14 A3008 RMK AC3AS5 SLP186
2001 02 16 08 METAR CYVR 160800Z 08009KT 20SM FEW064 BKN083 OVC150 01/M13 A3009 RMK SC2AC3AS3 SLP189
2001 02 16 09 METAR CYVR 160900Z 06008KT 15SM FEW030 BKN050 OVC075 02/M14 A3009 RMK SC2SC4AC2 SLP188
2001 02 16 10 METAR CYVR 161000Z 05007KT 15SM SCT034 OVC057 01/M14 A3010 RMK SC3SC5 SLP191
2001 02 16 11 METAR CYVR 161100Z 05005KT 15SM SCT035 BKN055 OVC085 01/M13 A3010 RMK SC3SC4AC1 SLP191
2001 02 16 11 METAR CYVR 161100Z 05005KT 15SM SCT035 BKN055 OVC085 01/M13 A3010 RMK SC3SC4AC1 SLP191
2001 02 16 12 METAR CYVR 161200Z 07007KT 15SM SCT035 BKN059 OVC088 01/M13 A3008 RMK SC3SC4AC1 SLP186
2001 02 16 14 METAR CYVR 161400Z 00000KT 15SM FEW035 BKN051 OVC070 01/M11 A3009 RMK SC2SC4AC2 SLP190
2001 02 16 15 METAR CYVR 161500Z 00000KT 15SM FEW035 BKN051 OVC070 01/M10 A3010 RMK SC2SC4AC2 SLP191
2001 02 16 16 METAR CYVR 161600Z 06002KT 15SM FEW025 SCT035 BKN051 OVC070 01/M10 A3011 RMK SF1SC2SC4AC1 SLP195
2001 02 16 17 METAR CYVR 161700Z 08005KT 12SM SCT025 BKN050 OVC070 02/M09 A3013 RMK SF3SC4AS1 VIRGA ALQDS SLP202
2001 02 16 18 METAR CYVR 161800Z 09003KT 6SM -SN FEW012 BKN022 OVC041 01/M07 A3015 RMK SF2SC5SC1 SLP208
2001 02 16 19 METAR CYVR 161900Z 30004KT 3SM -SN FEW005 OVC012 00/M04 A3017 RMK SF2SC6 SLP217
2001 02 16 20 METAR CYVR 162000Z 30002KT 2SM -SN FEW003 OVC012 00/M03 A3019 RMK SF2SC6 SLP222
2001 02 16 21 METAR CYVR 162100Z 30004KT 2SM -SN FEW003 OVC012 00/M03 A3021 RMK SF2SC6 VSBY VRBL 11/4-2 SLP228
2001 02 16 22 METAR CYVR 162200Z 33002KT 2SM -SN FEW006 BKN020 OVC041 01/M02 A3021 RMK SF2SC3SC3 SLP230
2001 02 16 23 METAR CYVR 162300Z 33005KT 5SM -SN FEW006 BKN016 OVC030 02/M02 A3022 RMK SF2SC3SC2 SLP234
2001 02 17 00 METAR CYVR 170000Z 12005KT 5SM -RASN FEW006 SCT016 OVC034 02/M02 A3024 RMK SF2SC2SC4 PRECIP VRY LGT SLP239
2001 02 17 01 METAR CYVR 170100Z 19003KT 5SM -SHRASN SCT006 BKN013 OVC035 02/M02 A3024 RMK SF3SC3SC2 PRECIP VRY LGT SLP239
2001 02 17 02 METAR CYVR 170200Z 21002KT 5SM BR SCT006 BKN012 OVC035 01/M02 A3024 RMK SF3SC3SC2 SLP241
2001 02 17 03 METAR CYVR 170300Z 19003KT 4SM -SHSN FEW006 SCT012 OVC031 02/M01 A3026 RMK SF2SC2SC4 PRECIP VRY LGT SLP246
2001 02 17 04 METAR CYVR 170400Z 00000KT 5SM -SHSN FEW006 SCT012 OVC030 02/M02 A3025 RMK SF2SC2SC5 PRECIP VRY LGT SLP244
2001 02 17 05 METAR CYVR 170500Z 23003KT 8SM FEW006 FEW012 OVC032 02/M01 A3027 RMK SF1SC2SC6 SLP249
2001 02 17 06 METAR CYVR 170600Z 29003KT 8SM FEW006 FEW012 OVC032 02/M01 A3027 RMK SF1SC2SC6 SLP249
2001 02 17 07 METAR CYVR 170700Z 01003KT 10SM FEW006 FEW012 OVC036 02/M01 A3026 RMK SF1SC2SC6 SLP245
2001 02 17 08 METAR CYVR 170800Z 31002KT 15SM FEW012 OVC041 02/M01 A3024 RMK SC2SC6 SLP241
2001 02 17 09 METAR CYVR 170900Z 00000KT 15SM FEW015 OVC038 03/M01 A3023 RMK SC2SC6 SLP235
2001 02 17 10 METAR CYVR 171000Z 21002KT 20SM SCT037 03/M01 A3021 RMK SC4 SLP228
2001 02 17 11 METAR CYVR 171100Z 09004KT 20SM FEW024 FEW038 01/M02 A3017 RMK SC1SC1 SLP216
2001 02 17 12 METAR CYVR 171200Z 11006KT 30SM FEW220 01/M02 A3015 RMK CI0 SLP208
2001 02 17 13 METAR CYVR 171300Z 07004KT 30SM SCT220 M01/M03 A3014 RMK CI2 SLP205
2001 02 17 14 METAR CYVR 171400Z 09005KT 30SM SCT200 M01/M03 A3013 RMK CI2 SLP201
2001 02 17 15 METAR CYVR 171500Z 09006KT 30SM FEW015 BKN170 M00/M04 A3011 RMK CF1AC6 SLP196
2001 02 17 16 METAR CYVR 171600Z 07007KT 30SM FEW025 SCT150 BKN180 00/M04 A3009 RMK CF1AC2AS3 SLP189
2001 02 17 17 METAR CYVR 171700Z 09002KT 30SM FEW025 SCT150 BKN230 02/M02 A3008 RMK CF1AC3CI2 SLP186
2001 02 17 18 METAR CYVR 171800Z 10003KT 30SM FEW120 SCT170 BKN230 03/M03 A3007 RMK AC1AC2CI2 SLP182
2001 02 17 19 METAR CYVR 171900Z 15004KT 30SM FEW090 SCT140 SCT190 OVC230 05/M01 A3006 RMK AC1AC2AC1CS3 SLP180
2001 02 17 20 METAR CYVR 172000Z 14002KT 30SM SCT140 OVC230 05/M01 A3004 RMK AC3CS4 SLP172
2001 02 17 21 METAR CYVR 172100Z 24003KT 30SM SCT140 OVC230 07/01 A3002 RMK AC3CI2 SLP164
2001 02 17 22 METAR CYVR 172200Z 26006KT 30SM FEW090 SCT120 BKN230 05/M00 A2999 RMK AC1AC2CI3 SLP156
2001 02 17 23 METAR CYVR 172300Z 26006KT 30SM FEW090 SCT120 BKN230 05/00 A2996 RMK AC2AC2CI2 SLP146
2001 02 18 00 METAR CYVR 180000Z 29007KT 30SM FEW090 SCT120 BKN220 05/01 A2994 RMK AC2AC2CI2 SLP139
2001 02 18 01 METAR CYVR 180100Z 35007KT 30SM SCT110 BKN130 BKN220 05/00 A2990 RMK AC3AC2CI2 SLP125
2001 02 18 02 METAR CYVR 180200Z 30005KT 30SM FEW110 BKN170 OVC220 03/M01 A2990 RMK AC2AS4CI2 SLP125
2001 02 18 03 METAR CYVR 180300Z 36005KT 30SM FEW100 BKN160 OVC220 04/M01 A2989 RMK AC2AS5CI2 SLP122
2001 02 18 04 METAR CYVR 180400Z 00000KT 30SM SCT110 OVC160 04/M01 A2988 RMK AC4AS4 SLP119
2001 02 18 05 METAR CYVR 180500Z 00000KT 20SM BKN096 OVC150 05/00 A2988 RMK AC6AS2 SLP119
2001 02 18 06 METAR CYVR 180600Z 13002KT 30SM BKN085 OVC120 05/M00 A2988 RMK AC6AS2 SLP119
2001 02 18 07 METAR CYVR 180700Z 00000KT 30SM BKN058 OVC088 05/00 A2988 RMK SC6AC2 SLP118
2001 02 18 08 METAR CYVR 180800Z 07002KT 15SM -SHRA BKN040 OVC060 05/01 A2987 RMK SC6SC2 SLP116
2001 02 18 09 METAR CYVR 180900Z 00000KT 8SM -SHRA BKN030 OVC040 04/01 A2987 RMK SC7SC1 SLP116
2001 02 18 10 METAR CYVR 181000Z 21002KT 6SM -SHRA BR OVC028 04/01 A2987 RMK SC8 SLP116
2001 02 18 11 METAR CYVR 181100Z 05006KT 4SM -SHRA BR BKN025 OVC045 04/01 A2987 RMK SC6SC2 SLP116
2001 02 18 12 METAR CYVR 181200Z 04007KT 10SM -SHRA BKN030 OVC045 05/02 A2987 RMK SC5SC3 SHWRS VRY LGT SLP115
2001 02 18 13 METAR CYVR 181300Z 09007KT 10SM FEW012 SCT030 OVC040 05/02 A2987 RMK SF1SC2SC5 OCNL -SHRA SLP116
2001 02 18 14 METAR CYVR 181400Z 11008KT 12SM FEW030 BKN035 OVC060 04/01 A2990 RMK SC2SC4SC2 SLP125
2001 02 18 15 METAR CYVR 181500Z 09010KT 15SM FEW008 BKN023 BKN035 OVC060 04/01 A2993 RMK SF1SC4SC2SC1 SLP135
2001 02 18 16 METAR CYVR 181600Z 10007KT 15SM SCT023 BKN051 OVC110 05/02 A2995 RMK SC3SC2AC2 SHWRS NW-N SLP141
2001 02 18 17 METAR CYVR 181700Z 09007KT 30SM FEW018 SCT024 BKN041 BKN070 05/02 A2998 RMK SF2SC2SC2AC1 SHWRS W-NE SLP151
2001 02 18 18 METAR CYVR 181800Z 10008KT 20SM FEW012 BKN021 BKN050 BKN110 06/03 A3000 RMK SF2SC2SC2AC1 CIG VSBY LWR N SLP157
2001 02 18 19 METAR CYVR 181900Z 08010KT 30SM SCT012 SCT022 BKN110 07/04 A3001 RMK SF3SC1AC0 VSBY N 10 SLP163
2001 02 18 20 METAR CYVR 182000Z 09009KT 15SM BKN012 BKN025 07/04 A3003 RMK CU6SC1 SLP169
2001 02 18 21 METAR CYVR 182100Z 10008KT 20SM FEW012 SCT022 BKN051 07/03 A3004 RMK CU2SC2SC1 SLP171
2001 02 18 22 METAR CYVR 182200Z 09009KT 30SM FEW012 FEW022 BKN071 08/04 A3003 RMK CU2SC1AC3 SLP170
2001 02 18 23 METAR CYVR 182300Z 10008KT 30SM FEW012 SCT025 BKN070 08/04 A3004 RMK CU2SC2AC2 SLP173
2001 02 19 00 METAR CYVR 190000Z 11008KT 30SM FEW015 FEW025 BKN070 08/04 A3005 RMK CU2SC1AC4 SLP176
2001 02 19 01 METAR CYVR 190100Z 10007KT 30SM FEW028 BKN075 08/03 A3005 RMK SC2AC4 SLP177
2001 02 19 02 METAR CYVR 190200Z 08004KT 30SM FEW035 BKN075 07/02 A3006 RMK SC2AC4 SLP178
2001 02 19 03 METAR CYVR 190300Z 09006KT 30SM FEW040 BKN075 07/02 A3006 RMK SC2AC3 SLP180
2001 02 19 04 METAR CYVR 190400Z 09006KT 30SM FEW040 SCT075 04/00 A3006 RMK SC1AC2 SLP180
2001 02 19 05 METAR CYVR 190500Z 10006KT 30SM FEW040 FEW075 05/01 A3006 RMK SC1AC1 SLP180
2001 02 19 06 METAR CYVR 190600Z 10006KT 30SM FEW040 FEW075 04/01 A3007 RMK SC1AC1 SLP182
2001 02 19 07 METAR CYVR 190700Z 00000KT 30SM SCT036 BKN075 03/00 A3007 RMK SC3AC2 SLP183
2001 02 19 08 METAR CYVR 190800Z 00000KT 30SM SCT038 BKN070 04/01 A3007 RMK SC4AC1 SLP182
2001 02 19 09 METAR CYVR 190900Z 00000KT 30SM BKN044 03/M00 A3007 RMK SC5 SLP183
2001 02 19 10 METAR CYVR 191000Z 00000KT 30SM BKN044 04/01 A3007 RMK SC5 SLP181
2001 02 19 11 METAR CYVR 191100Z 10002KT 30SM FEW040 03/M00 A3005 RMK SC2 SLP176
2001 02 19 12 METAR CYVR 191200Z 29003KT 30SM SKC 01/M01 A3005 RMK SLP175
2001 02 19 13 METAR CYVR 191300Z 14007KT 30SM SKC 03/00 A3004 RMK SLP171
2001 02 19 14 METAR CYVR 191400Z 34005KT 30SM FEW050 01/M02 A3003 RMK SC1 SLP169
2001 02 19 15 METAR CYVR 191500Z 01003KT 30SM FEW050 01/M02 A3003 RMK SC1 SLP168
2001 02 19 16 METAR CYVR 191600Z 12004KT 30SM FEW050 02/M01 A3003 RMK SC1 SLP168
2001 02 19 17 METAR CYVR 191700Z 36002KT 30SM FEW050 05/00 A3002 RMK SC1 SLP167
2001 02 19 18 METAR CYVR 191800Z 00000KT 30SM FEW050 07/00 A3002 RMK SC1 SLP167
2001 02 19 19 METAR CYVR 191900Z 25005KT 30SM FEW030 08/00 A3002 RMK SC1 SLP164
2001 02 19 20 METAR CYVR 192000Z 29010KT 30SM FEW030 07/02 A3000 RMK SC1 SLP160
2001 02 19 21 METAR CYVR 192100Z 30014KT 30SM FEW030 FEW250 07/04 A2999 RMK SC1CI1 SLP154
2001 02 19 22 METAR CYVR 192200Z 30014KT 30SM FEW030 FEW250 07/03 A2997 RMK SC1CI1 SLP147
2001 02 19 23 METAR CYVR 192300Z 30014KT 30SM FEW220 07/04 A2996 RMK CI1 SLP146
2001 02 20 00 METAR CYVR 200000Z 30015KT 30SM FEW030 FEW230 06/03 A2995 RMK CF1CI1 SLP143
2001 02 20 01 METAR CYVR 200100Z 32011KT 30SM FEW230 06/03 A2995 RMK CI1 SLP141
2001 02 20 02 METAR CYVR 200200Z 31010KT 30SM FEW230 06/03 A2994 RMK CI1 SLP139
2001 02 20 03 METAR CYVR 200300Z 31008KT 30SM SKC 05/02 A2995 RMK SLP141
2001 02 20 04 METAR CYVR 200400Z 31008KT 30SM SKC 05/02 A2995 RMK SLP140
2001 02 20 05 METAR CYVR 200500Z 31006KT 30SM SKC 03/01 A2996 RMK SLP145
2001 02 20 06 METAR CYVR 200600Z 34005KT 30SM SKC 03/M00 A2997 RMK SLP149
2001 02 20 07 METAR CYVR 200700Z 32003KT 30SM SKC 03/01 A2997 RMK SLP150
2001 02 20 08 METAR CYVR 200800Z 00000KT 30SM SKC 02/M00 A2998 RMK SLP152
2001 02 20 09 METAR CYVR 200900Z 00000KT 30SM SKC 01/M02 A2999 RMK SLP156
2001 02 20 10 METAR CYVR 201000Z 08003KT 30SM SKC 01/M02 A3000 RMK SLP158
2001 02 20 11 METAR CYVR 201100Z 10003KT 30SM SKC 01/M03 A3000 RMK SLP158
2001 02 20 12 METAR CYVR 201200Z 11002KT 30SM SKC M00/M03 A3000 RMK SLP160
2001 02 20 13 METAR CYVR 201300Z 34002KT 30SM SKC M01/M04 A3001 RMK SLP161
2001 02 20 14 METAR CYVR 201400Z 17002KT 30SM FEW080 M00/M04 A3001 RMK AC1 SLP162
2001 02 20 15 METAR CYVR 201500Z 00000KT 30SM FEW010 FEW080 M00/M04 A3001 RMK SF1AC2 SLP162
2001 02 20 16 METAR CYVR 201600Z 09002KT 30SM FEW080 01/M03 A3003 RMK FU1AC1 SLP168
2001 02 20 17 METAR CYVR 201700Z 29002KT 30SM FEW020 FEW080 05/M01 A3003 RMK CU1AC1 FU W-NW SLP170
2001 02 20 18 METAR CYVR 201800Z CCA 26003KT 30SM FEW020 FEW080 07/M01 A3004 RMK CU1AC1 FU LYR ALFT W-NW SLP172
2001 02 20 19 METAR CYVR 201900Z 27004KT 30SM FEW025 FEW080 06/M01 A3004 RMK CU1AC1 SLP171
2001 02 20 20 METAR CYVR 202000Z 28009KT 30SM FEW080 08/01 A3003 RMK AC2 SLP170
2001 02 20 21 METAR CYVR 202100Z 30009KT 30SM FEW080 07/02 A3003 RMK AC2 SLP168
2001 02 20 22 METAR CYVR 202200Z 30008KT 30SM SCT080 07/03 A3002 RMK AC3 SLP166
2001 02 20 23 METAR CYVR 202300Z 31007KT 30SM SCT085 SCT230 08/03 A3002 RMK AC3CI1 SLP165
2001 02 21 00 METAR CYVR 210000Z 30005KT 30SM FEW085 SCT250 08/02 A3001 RMK AC2CI1 SLP162
2001 02 21 01 METAR CYVR 210100Z 30004KT 30SM FEW090 SCT250 06/02 A3000 RMK AC1CI1 SLP160
2001 02 21 02 METAR CYVR 210200Z 29005KT 30SM FEW090 SCT250 05/02 A3001 RMK AC1CI1 SLP161
2001 02 21 03 METAR CYVR 210300Z 28005KT 30SM FEW090 05/02 A3001 RMK AC1 SLP163
2001 02 21 04 METAR CYVR 210400Z 34004KT 30SM FEW090 FEW250 03/01 A3002 RMK AC1CI0 SLP164
2001 02 21 05 METAR CYVR 210500Z 36003KT 30SM FEW090 FEW250 04/01 A3002 RMK AC1CI0 SLP166
2001 02 21 06 METAR CYVR 210600Z 00000KT 30SM FEW090 FEW250 04/00 A3002 RMK AC1CI0 SLP166
2001 02 21 07 METAR CYVR 210700Z 00000KT 30SM FEW090 FEW250 03/M01 A3003 RMK AC1CI0 SLP169
2001 02 21 08 METAR CYVR 210800Z 00000KT 30SM FEW060 FEW090 FEW250 02/M01 A3004 RMK SC1AC0CI0 TR SC N SLP171
2001 02 21 09 METAR CYVR 210900Z 01003KT 30SM FEW060 FEW090 FEW250 01/M02 A3004 RMK SC1AC0CI0 TR SC N SLP172
2001 02 21 10 METAR CYVR 211000Z 02002KT 30SM FEW060 FEW090 FEW250 01/M03 A3005 RMK SC1AC1CI0 TR SC SLP174
2001 02 21 11 METAR CYVR 211100Z 11005KT 30SM FEW078 SCT250 01/M03 A3004 RMK AC2CI1 SLP172
2001 02 21 12 METAR CYVR 211200Z 00000KT 30SM MIFG FEW082 SCT120 BKN250 01/M02 A3003 RMK AC2AC2CI1 SLP169
2001 02 21 13 METAR CYVR 211300Z 00000KT 30SM MIFG FEW081 BKN120 BKN250 02/M01 A3003 RMK AC2AC2CI2 SLP169
2001 02 21 14 METAR CYVR 211400Z 00000KT 30SM MIFG FEW092 SCT130 SCT250 01/M02 A3003 RMK AC2AC2CI0 FOG BNK NE-SE SLP168
2001 02 21 15 METAR CYVR 211500Z 12005KT 30SM FEW075 SCT130 SCT250 03/M01 A3002 RMK AC2AC1CI0 HZ E FOG BNK OVR WTR SW-W FEW ACC SLP167
2001 02 21 16 METAR CYVR 211600Z 00000KT 30SM FEW052 BKN075 BKN130 02/M02 A3003 RMK SC2AC3AC1 HZ E FOG BNK DSNT W FEW ACC SLP169
2001 02 21 17 METAR CYVR 211700Z 09002KT 30SM FEW052 BKN080 BKN130 05/01 A3003 RMK SC2AC3AC1 HZ BR NE-SE VSBY LWR FEW ACC SLP169
2001 02 21 16 METAR CYVR 211600Z 00000KT 30SM FEW052 BKN075 BKN130 02/M02 A3003 RMK SC2AC3AC1 HZ E FOG BNK DSNT W FEW ACC SLP169
2001 02 21 19 METAR CYVR 211900Z 30011KT 30SM FEW052 FEW088 FEW250 08/02 A3002 RMK SC1AC1CI1 F BNK DSNT SW SLP164
2001 02 21 20 METAR CYVR 212000Z 28012KT 30SM FEW052 FEW088 FEW250 08/03 A3001 RMK SC1AC1CI1 HZ E TR AC SLP161
2001 02 21 21 METAR CYVR 212100Z 29011KT 30SM FEW052 FEW088 SCT250 07/03 A2999 RMK SC1AC2CI1 HZ E SLP156
2001 02 21 22 METAR CYVR 212200Z 30011KT 30SM FEW052 SCT088 SCT110 BKN250 08/03 A2998 RMK SC1AC2AC1CI2 HZ E SLP151
2001 02 21 23 METAR CYVR 212300Z 31011KT 30SM FEW050 SCT090 BKN110 08/03 A2996 RMK SC1AC2AC3 HZ E SLP146
2001 02 22 00 METAR CYVR 220000Z 31008KT 30SM SCT085 BKN110 BKN180 07/04 A2996 RMK AC3AC2AC2 SLP144
2001 02 22 01 METAR CYVR 220100Z 30007KT 30SM SCT085 BKN110 07/04 A2996 RMK AC3AC3 SLP144
2001 02 22 02 METAR CYVR 220200Z 31005KT 30SM FEW085 BKN110 07/03 A2996 RMK AC2AC5
2001 02 22 03 METAR CYVR 220300Z 00000KT 30SM FEW085 BKN110 BKN150 07/03 A2997 RMK AC2AC3AC2 SLP148
2001 02 22 04 METAR CYVR 220400Z 05002KT 30SM SCT065 OVC110 07/03 A2998 RMK SC3AC5 SLP153
2001 02 22 05 METAR CYVR 220500Z 17004KT 25SM SCT065 BKN100 OVC140 07/03 A3000 RMK SC3AC3AC2 SLP159
2001 02 22 06 METAR CYVR 220600Z 09003KT 25SM SCT055 BKN090 OVC140 06/02 A3000 RMK SC3AC3AC2 SLP160
2001 02 22 07 METAR CYVR 220700Z 10005KT 25SM FEW042 BKN065 OVC090 07/03 A3001 RMK SC2SC4AC2 SLP163
2001 02 22 08 METAR CYVR 220800Z 10004KT 8SM -SHRA FEW024 SCT044 BKN061 OVC120 06/04 A3002 RMK SF2SC2SC2AC2 CIG+VSBY LWR N-NE FOG BNK S SLP164
2001 02 22 09 METAR CYVR 220900Z 00000KT 6SM -SHRA BR SCT020 BKN041 OVC061 06/03 A3002 RMK SF3SC2SC2 FOG BNK S SLP167
2001 02 22 10 METAR CYVR 221000Z 15002KT 7SM -SHRA FEW010 BKN016 BKN039 OVC060 06/03 A3003 RMK SF2ST3SC2SC2 BR PTCHS ALQDS SLP169
2001 02 22 11 METAR CYVR 221100Z 12002KT 6SM -SHRA BR FEW007 BKN016 OVC037 06/04 A3002 RMK SF2ST3SC2 SLP167
2001 02 22 12 METAR CYVR 221200Z 08003KT 5SM -SHRADZ BR FEW005 SCT009 BKN015 OVC037 06/04 A3002 RMK SF2SF2SC2SC2 SHRA VRY LGT SLP166
2001 02 22 13 METAR CYVR 221300Z 18002KT 8SM -DZ SCT008 BKN012 OVC016 06/04 A3002 RMK SF4ST2SC2 DZ VRY LGT BR PTCHS ALQDS SLP166
2001 02 22 14 METAR CYVR 221400Z CCA 09002KT 3SM -DZ BR OVC005 06/04 A3001 RMK SF8 CIG RGD DZ VRY LGT SLP163
2001 02 22 15 METAR CYVR 221500Z 00000KT 1 1/2SM -DZ BR OVC004 06/04 A3001 RMK SF8 CIG RGD DZ VRY LGT SLP162
2001 02 22 16 METAR CYVR 221600Z 09005KT 1 1/2SM -DZ BR OVC004 06/04 A3000 RMK SF8 DZ VERY LGT CIG RGD SLP160
2001 02 22 17 METAR CYVR 221700Z 09003KT 3SM BR BKN005 BKN012 OVC018 07/04 A3000 RMK SF6SF2SC1 CIG RGD SLP160
2001 02 22 18 METAR CYVR 221800Z 14003KT 4SM BR SCT005 BKN012 BKN018 BKN026 07/04 A2999 RMK SF4SF2SC1SC1 SLP155
2001 02 22 19 METAR CYVR 221900Z 18004KT 6SM BR FEW005 SCT012 BKN028 BKN080 08/06 A2999 RMK SF2SF2SC2AC1 SLP155
2001 02 22 20 METAR CYVR 222000Z 27006KT 3SM BR SCT008 OVC029 07/06 A2999 RMK SF4CU3 CIG RGD SLP154
2001 02 22 21 METAR CYVR 222100Z 31007KT 6SM BR SCT008 SCT029 BKN046 08/05 A2997 RMK SF3SC1SC3 VSBY HIER SW-NW SLP148
2001 02 22 22 METAR CYVR 222200Z 31007KT 15SM FEW008 FEW029 SCT046 BKN250 08/05 A2995 RMK CF1SC1SC2CI2 VSBY LWR N-SE FEW CU SLP142
2001 02 22 23 METAR CYVR 222300Z 30007KT 15SM FEW030 FEW045 08/05 A2994 RMK SC1SC2 SLP137
2001 02 23 00 METAR CYVR 230000Z 27004KT 20SM FEW020 FEW030 FEW045 08/06 A2992 RMK CF1SC1SC1 SLP132
2001 02 23 01 METAR CYVR 230100Z 25004KT 20SM FEW020 FEW030 FEW045 07/06 A2991 RMK CF1SC1SC1 SLP129
2001 02 23 02 METAR CYVR 230200Z 23002KT 15SM FEW020 FEW030 06/05 A2990 RMK SF1SC1 TR SF HZ SLP126
2001 02 23 03 METAR CYVR 230300Z 00000KT 15SM MIFG FEW030 FEW050 06/05 A2990 RMK SC1SC1 TR CLD SLP125
2001 02 23 04 METAR CYVR 230400Z 20002KT 15SM FEW030 06/05 A2990 RMK SC1 TR SC SLP125
2001 02 23 05 METAR CYVR 230500Z 00000KT 15SM FEW030 04/03 A2990 RMK SC1 SLP125
2001 02 23 06 METAR CYVR 230600Z 00000KT 10SM MIFG SCT016 BKN030 04/04 A2990 RMK SF3SC2 SLP126
2001 02 23 07 METAR CYVR 230700Z 00000KT 10SM SCT018 SCT030 04/04 A2990 RMK SF3SC1 SLP124
2001 02 23 08 METAR CYVR 230800Z 08002KT 10SM MIFG SCT017 03/03 A2990 RMK SC4 SLP124
2001 02 23 09 METAR CYVR 230900Z 18002KT 10SM MIFG SCT016 BKN035 03/03 A2990 RMK SF4SC1 SLP125
2001 02 23 10 METAR CYVR 231000Z 09002KT 10SM MIFG FEW015 BKN035 03/03 A2990 RMK SF2SC2 SLP126
2001 02 23 11 METAR CYVR 231100Z 11004KT 10SM MIFG SCT012 BKN035 BKN060 03/03 A2989 RMK SF3SC2SC1 SLP121
2001 02 23 12 METAR CYVR 231200Z 10002KT 6SM BR BKN015 BKN060 04/03 A2988 RMK SF5SC2 SLP118
2001 02 23 13 METAR CYVR 231300Z 10003KT 4SM BR BKN010 04/04 A2988 RMK SF7 SLP117
2001 02 23 14 METAR CYVR 231400Z 09003KT 3SM BR SCT008 OVC011 05/04 A2987 RMK SF4SF4 SLP113
2001 02 23 15 METAR CYVR 231500Z 11004KT 3SM BR SCT005 OVC008 05/04 A2986 RMK SF4SF4 SLP112
2001 02 23 16 METAR CYVR 231600Z 10003KT 2SM BR SCT003 OVC007 06/05 A2987 RMK SF4SF4 SLP113
2001 02 23 17 METAR CYVR 231700Z 18002KT 2 1/2SM BR SCT003 OVC005 06/05 A2986 RMK SF4SF4 SLP111
2001 02 23 14 METAR CYVR 231400Z 09003KT 3SM BR SCT008 OVC011 05/04 A2987 RMK SF4SF4 SLP113
2001 02 23 19 METAR CYVR 231900Z 00000KT 1 1/2SM BR SCT005 BKN008 OVC015 06/05 A2985 RMK SF3SF3SC2 CIG/VIS HIER S-SW SLP109
2001 02 23 20 METAR CYVR 232000Z 23004KT 3SM BR FEW008 BKN012 OVC017 07/06 A2984 RMK SF2SF3SC2 CIG/VIS HIER S-SW SLP106
2001 02 23 21 METAR CYVR 232100Z 22005KT 6SM BR FEW008 SCT012 BKN017 BKN030 07/06 A2982 RMK SF2SF2SC2CU2 SLP099
2001 02 23 22 METAR CYVR 232200Z 23006KT 8SM FEW008 SCT017 BKN030 OVC090 07/05 A2981 RMK CF2CU2SC3AC2 SLP095
2001 02 23 23 METAR CYVR 232300Z 21003KT 12SM FEW012 SCT030 BKN055 OVC090 07/05 A2979 RMK CF2CU2SC2AC2 CIG LWR NE SLP088
2001 02 24 00 METAR CYVR 240000Z 25003KT 12SM FEW012 SCT025 BKN060 BKN090 08/05 A2978 RMK CF2CU2SC2AC2 SHWRS SW SLP084
2001 02 24 01 METAR CYVR 240100Z 23002KT 15SM FEW012 SCT028 BKN038 BKN100 07/05 A2977 RMK CF2SC2SC2AC1 SLP080
2001 02 24 02 METAR CYVR 240200Z 24003KT 12SM -SHRA FEW010 SCT020 BKN028 BKN060 06/05 A2976 RMK CF1SC2SC2SC2 SLP079
2001 02 24 03 METAR CYVR 240300Z 00000KT 10SM -SHRA FEW010 SCT022 BKN030 BKN050 06/05 A2976 RMK CF1SC2SC3SC1 RW- OCNL SLP077
2001 02 24 04 METAR CYVR 240400Z 13002KT 8SM -SHRA FEW010 SCT020 BKN035 BKN050 07/05 A2975 RMK SF1SC2SC2SC2 SHWRS VRY LGT SLP074
2001 02 24 05 METAR CYVR 240500Z 00000KT 8SM -SHRA FEW012 SCT025 BKN045 BKN090 07/05 A2974 RMK SF1SC2SC2AC1 SHWRS VRY LGT SLP072
2001 02 24 06 METAR CYVR 240600Z 34002KT 10SM FEW013 BKN020 BKN050 BKN090 06/05 A2974 RMK SF2SC3SC2AC1 SLP072
2001 02 24 07 METAR CYVR 240700Z 31004KT 10SM FEW010 SCT025 BKN055 06/05 A2975 RMK SF1SC2SC3 SLP073
2001 02 24 08 METAR CYVR 240800Z 32003KT 10SM FEW020 BKN050 BKN080 06/05 A2974 RMK SF2SC4AC2 SLP071
2001 02 24 09 METAR CYVR 240900Z 00000KT 15SM FEW018 BKN050 BKN080 06/05 A2974 RMK SF1SC4AC2 SLP071
2001 02 24 10 METAR CYVR 241000Z 00000KT 15SM FEW018 BKN040 BKN080 06/05 A2974 RMK SF1SC4AC2 SLP072
2001 02 24 11 METAR CYVR 241100Z 27006KT 15SM SCT010 BKN045 06/05 A2974 RMK SF3SC3 SLP071
2001 02 24 12 METAR CYVR 241200Z CCA 26008KT 15SM BKN008 BKN040 06/05 A2974 RMK SF5SC2 SLP071
2001 02 24 13 METAR CYVR 241300Z 27007KT 15SM BKN010 BKN040 06/04 A2974 RMK SF5SC2 SLP072
2001 02 24 14 METAR CYVR 241400Z 27009KT 15SM BKN010 BKN045 06/04 A2974 RMK SF5SC2 SLP071
2001 02 24 15 METAR CYVR 241500Z 29012KT 15SM BKN012 BKN050 05/03 A2975 RMK SF5SC2 SLP073
2001 02 24 16 METAR CYVR 241600Z 28009KT 30SM FEW012 BKN050 06/03 A2976 RMK SF2SC6 SLP078
2001 02 24 17 METAR CYVR 241700Z 29014KT 30SM FEW012 BKN044 06/03 A2977 RMK SF2SC5 TCU TPS W SLP080
2001 02 24 18 METAR CYVR 241800Z 29013KT 30SM FEW012 BKN034 BKN080 06/03 A2977 RMK SF2SC4AC1 TCU TPS W AND N SLP082
2001 02 24 19 METAR CYVR 241900Z 27011KT 30SM FEW012 BKN065 BKN080 07/03 A2979 RMK CU2SC3AC1 TCU ASOCTD SLP088
2001 02 24 20 METAR CYVR 242000Z 28011KT 30SM FEW020 SCT070 BKN210 07/03 A2979 RMK CU2AC2CI0 TCU ASOCTD ALQDS SLP089
2001 02 24 21 METAR CYVR 242100Z 29012KT 30SM FEW020TCU FEW080 07/03 A2979 RMK TCU2AC1 SLP087
2001 02 24 22 METAR CYVR 242200Z 30012KT 30SM FEW025TCU FEW060 07/03 A2978 RMK TCU2SC1 SLP084
2001 02 24 23 METAR CYVR 242300Z 29011KT 30SM FEW030 FEW060 07/03 A2979 RMK SC1SC1 TCU ASOCTD SLP087
2001 02 25 00 METAR CYVR 250000Z 28010KT 30SM FEW030 FEW060 07/03 A2979 RMK SC1SC2 TCU ASOCTD SLP087
2001 02 25 01 METAR CYVR 250100Z 29013KT 30SM FEW030 FEW060 FEW220 07/01 A2979 RMK SC1SC1CI0 SLP087
2001 02 25 02 METAR CYVR 250200Z 29010KT 30SM FEW030 FEW060 FEW220 05/01 A2980 RMK SC1SC1CI0 SLP091
2001 02 25 03 METAR CYVR 250300Z 27011KT 30SM FEW030 FEW060 FEW220 05/01 A2982 RMK SC1SC1CI0 SLP096
2001 02 25 04 METAR CYVR 250400Z 27010G15KT 30SM FEW030 FEW060 05/01 A2982 RMK SC1SC1 SLP099
2001 02 25 05 METAR CYVR 250500Z 28010KT 30SM FEW060 04/00 A2984 RMK SC1 SLP104
2001 02 25 06 METAR CYVR 250600Z 27009KT 30SM FEW060 FEW220 05/01 A2986 RMK SC1CI0 SLP110
2001 02 25 07 METAR CYVR 250700Z 29011KT 30SM FEW010 FEW060 FEW220 03/01 A2988 RMK SF1SC2CI0 TR SF SLP117
2001 02 25 08 METAR CYVR 250800Z 00000KT 30SM FEW010 FEW220 02/00 A2989 RMK SF1CI0 TR SF SLP121
2001 02 25 09 METAR CYVR 250900Z 08005KT 30SM SKC M00/M02 A2991 RMK SLP127
2001 02 25 10 METAR CYVR 251000Z 03003KT 30SM SKC 02/01 A2994 RMK SLP139
2001 02 25 11 METAR CYVR 251100Z 07002KT 30SM FEW080 01/00 A2996 RMK AC2 SLP144
2001 02 25 12 METAR CYVR 251200Z 00000KT 30SM MIFG FEW080 FEW220 M01/M02 A2998 RMK AC2CI0 SLP151
2001 02 25 13 METAR CYVR 251300Z 00000KT 30SM MIFG FEW080 FEW220 M00/M01 A3000 RMK AC2CI0 FROIN SLP160
2001 02 25 14 METAR CYVR 251400Z 10002KT 30SM FEW012 FEW080 FEW220 M01/M02 A3003 RMK SF1AC2CI0 FROIN SLP168
2001 02 25 15 METAR CYVR 251500Z 03002KT 15SM MIFG FEW012 SCT040 M01/M02 A3006 RMK SF1SC2 SLP178
2001 02 25 16 METAR CYVR 251600Z 00000KT 20SM MIFG FEW012 01/00 A3009 RMK SC1 SLP189
2001 02 25 17 METAR CYVR 251700Z 00000KT 30SM FEW012 04/01 A3012 RMK SC1 SLP198
2001 02 25 18 METAR CYVR 251800Z 23004KT 30SM FEW012 06/01 A3014 RMK CU1 SLP206
2001 02 25 19 METAR CYVR 251900Z 26002KT 30SM FEW012 06/M00 A3017 RMK SC2 CU ASOCTD N SLP215
2001 02 25 20 METAR CYVR 252000Z 27005KT 30SM FEW012 06/M00 A3019 RMK CU2 SLP224
2001 02 25 21 METAR CYVR 252100Z 25005KT 30SM FEW012 07/01 A3020 RMK CU2 SLP227
2001 02 25 22 METAR CYVR 252200Z 29004KT 30SM FEW030 FEW210 07/00 A3021 RMK CU2CI0 SLP229
2001 02 25 23 METAR CYVR 252300Z 30005KT 30SM FEW035 FEW210 07/00 A3021 RMK CU1CI0 SLP231
2001 02 26 00 METAR CYVR 260000Z 28005KT 30SM FEW035 FEW210 07/01 A3023 RMK CU1CI0 SLP237
2001 02 26 01 METAR CYVR 260100Z 27003KT 30SM FEW035 FEW210 07/00 A3024 RMK CU1CI0 SLP240
2001 02 26 02 METAR CYVR 260200Z 28003KT 30SM FEW035 FEW210 05/01 A3026 RMK CU1CI0 SLP245
2001 02 26 03 METAR CYVR 260300Z 27003KT 30SM FEW210 05/01 A3028 RMK CI1 SLP252
2001 02 26 04 METAR CYVR 260400Z 35002KT 30SM SKC 04/00 A3029 RMK SLP258
2001 02 26 05 METAR CYVR 260500Z 00000KT 30SM SKC 03/M00 A3031 RMK SLP262
2001 02 26 06 METAR CYVR 260600Z 00000KT 30SM SKC 02/00 A3033 RMK SLP269
2001 02 26 07 METAR CYVR 260700Z 04002KT 30SM SKC 02/00 A3034 RMK SLP272
2001 02 26 08 METAR CYVR 260800Z 08004KT 30SM FEW200 03/M01 A3035 RMK CI1 SLP278
2001 02 26 09 METAR CYVR 260900Z 07003KT 30SM BKN220 02/M01 A3038 RMK CI2 SLP287
2001 02 26 10 METAR CYVR 261000Z 09003KT 30SM SCT220 01/M01 A3040 RMK CI2 SLP293
2001 02 26 11 METAR CYVR 261100Z 04003KT 30SM FEW220 M00/M02 A3039 RMK CI1 SLP290
2001 02 26 12 METAR CYVR 261200Z 01002KT 30SM FEW220 01/M01 A3040 RMK CI1 SLP293
2001 02 26 13 METAR CYVR 261300Z 02002KT 30SM FEW220 M02/M03 A3042 RMK CI1 SLP300
2001 02 26 14 METAR CYVR 261400Z 14002KT 30SM SKC M00/M01 A3042 RMK FROIN SLP301
2001 02 26 15 METAR CYVR 261500Z 13002KT 30SM FEW220 00/M01 A3041 RMK CI1 FROIN SLP299
2001 02 26 16 METAR CYVR 261600Z 09002KT 30SM FEW060 FEW220 01/M01 A3043 RMK CU1CI1 SLP305
2001 02 26 17 METAR CYVR 261700Z 30003KT 30SM FEW050 FEW220 04/01 A3044 RMK SC1CI1 SLP306
2001 02 26 18 METAR CYVR 261800Z 30012KT 30SM FEW050 FEW220 06/01 A3044 RMK SC1CI1 SLP307
2001 02 26 19 METAR CYVR 261900Z 30010KT 30SM FEW050 FEW220 07/M02 A3045 RMK CF1CI0 SLP310
2001 02 26 20 METAR CYVR 262000Z 30011KT 30SM FEW050 FEW230 07/02 A3044 RMK CF1CI0 SLP307
2001 02 26 21 METAR CYVR 262100Z 29010KT 30SM FEW050 FEW230 07/02 A3042 RMK CF1CI0 SLP301
2001 02 26 22 METAR CYVR 262200Z 31006KT 30SM FEW050 FEW230 08/02 A3040 RMK CF1CI0 SLP295
2001 02 26 23 METAR CYVR 262300Z 29009KT 30SM FEW050 SCT230 08/03 A3040 RMK CF1CI0 SLP294
2001 02 27 00 METAR CYVR 270000Z 31009KT 30SM FEW190 BKN250 07/03 A3039 RMK CI2CI0 SLP290
2001 02 27 01 METAR CYVR 270100Z 31011KT 30SM FEW200 BKN250 06/02 A3037 RMK CI1CI0 SLP285
2001 02 27 02 METAR CYVR 270200Z 31011KT 30SM BKN250 06/02 A3037 RMK CI1 SLP283
2001 02 27 03 METAR CYVR 270300Z 31008KT 30SM FEW250 05/03 A3037 RMK CI2 SLP284
2001 02 27 04 METAR CYVR 270400Z 31010KT 30SM SCT250 05/03 A3038 RMK CI4 SLP288
2001 02 27 05 METAR CYVR 270500Z 31007KT 30SM FEW200 05/02 A3039 RMK CI2 SLP289
2001 02 27 06 METAR CYVR 270600Z 34004KT 30SM FEW220 05/01 A3039 RMK CI2 SLP289
2001 02 27 07 METAR CYVR 270700Z 04005KT 30SM SKC 03/M01 A3039 RMK SLP289
2001 02 27 08 METAR CYVR 270800Z 08004KT 30SM SKC 03/M01 A3039 RMK SLP291
2001 02 27 09 METAR CYVR 270900Z 01002KT 30SM FEW240 02/M01 A3040 RMK CI1 SLP295
2001 02 27 10 METAR CYVR 271000Z 30003KT 30SM BKN240 02/M01 A3041 RMK CI3 SLP297
2001 02 27 11 METAR CYVR 271100Z 25003KT 30SM FEW240 02/M01 A3040 RMK CI1 SLP294
2001 02 27 12 METAR CYVR 271200Z 12002KT 30SM FEW240 00/M02 A3040 RMK CI1 SLP293
2001 02 27 13 METAR CYVR 271300Z 10005KT 30SM FEW240 00/M02 A3040 RMK CI1 SLP293
2001 02 27 14 METAR CYVR 271400Z 06003KT 30SM FEW240 00/M02 A3040 RMK CI1 SLP295
2001 02 27 15 METAR CYVR 271500Z 09004KT 30SM FEW240 00/M02 A3040 RMK CI1 SLP295
2001 02 27 16 METAR CYVR 271600Z 09003KT 30SM FEW040 FEW240 01/M01 A3040 RMK CF1CI1 SLP295
2001 02 27 17 METAR CYVR 271700Z 11003KT 30SM FEW040 SCT240 04/00 A3040 RMK CF1CI1 SLP295
2001 02 27 18 METAR CYVR 271800Z 14002KT 30SM FEW040 FEW240 07/01 A3040 RMK CF1CI0 SLP293
2001 02 27 19 METAR CYVR 271900Z 24005KT 30SM FEW240 08/01 A3037 RMK CI0 SLP284
2001 02 27 20 METAR CYVR 272000Z 25006KT 30SM BKN240 07/02 A3036 RMK CI1 SLP279
2001 02 27 21 METAR CYVR 272100Z 27005KT 30SM BKN240 07/02 A3033 RMK CI1 SLP271
2001 02 27 22 METAR CYVR 272200Z 23005KT 30SM BKN240 08/M00 A3031 RMK CI1 SLP262
2001 02 27 23 METAR CYVR 272300Z 26002KT 30SM BKN240 09/M00 A3028 RMK CI2 HZ SLP254
2001 02 28 00 METAR CYVR 280000Z 26004KT 30SM BKN240 09/M00 A3026 RMK CI2 HZ SLP248
2001 02 28 01 METAR CYVR 280100Z 00000KT 30SM BKN240 08/M01 A3024 RMK CI2 HZ SLP240
2001 02 28 02 METAR CYVR 280200Z 00000KT 30SM BKN240 06/M01 A3021 RMK CI2 HZ SLP230
2001 02 28 03 METAR CYVR 280300Z 36002KT 30SM BKN240 05/M02 A3020 RMK CI2 HZ SLP226
2001 02 28 04 METAR CYVR 280400Z 36002KT 30SM BKN240 05/M02 A3018 RMK CI2 SLP220
2001 02 28 05 METAR CYVR 280500Z 03002KT 30SM SCT240 04/M01 A3017 RMK CI2 SLP217
2001 02 28 06 METAR CYVR 280600Z 00000KT 30SM SCT240 03/M01 A3017 RMK CI2 SLP215
2001 02 28 07 METAR CYVR 280700Z 10006KT 30SM SCT240 03/M01 A3015 RMK CI2 SLP208
2001 02 28 08 METAR CYVR 280800Z 11005KT 30SM FEW240 02/M01 A3013 RMK CI1 SLP201
2001 02 28 09 METAR CYVR 280900Z 09004KT 30SM FEW240 02/M01 A3010 RMK CI1 SLP194
2001 02 28 10 METAR CYVR 281000Z 10007KT 30SM SKC 01/M02 A3008 RMK SLP184
2001 02 28 11 METAR CYVR 281100Z 10006KT 30SM SKC 01/M02 A3006 RMK SLP180
2001 02 28 12 METAR CYVR 281200Z 10008KT 30SM SKC M00/M03 A3005 RMK SLP175
2001 02 28 13 METAR CYVR 281300Z 09006KT 30SM SKC 00/M02 A3004 RMK SLP172
2001 02 28 14 METAR CYVR 281400Z 11008KT 30SM SCT250 M00/M03 A3003 RMK CI0 SLP168
2001 02 28 15 METAR CYVR 281500Z 11010KT 30SM BKN130 BKN250 02/M01 A3002 RMK ACC6CI1 SLP164
2001 02 28 16 METAR CYVR 281600Z 11012KT 30SM BKN085 BKN130 03/M01 A3001 RMK ACC6AC1 VIRGA MAMMATA SLP162
2001 02 28 17 METAR CYVR 281700Z 10009KT 30SM FEW015 BKN085 OVC200 04/M00 A3002 RMK CF1AC6CI1 ACC ASOCTD ALQDS VIRGA NE-E SLP167
2001 02 28 18 METAR CYVR 281800Z 10007KT 30SM BKN055 OVC200 05/M00 A3002 RMK SC6CS2 SLP167
2001 02 28 19 METAR CYVR 281900Z 11009KT 30SM BKN080 BKN200 06/M00 A3001 RMK AC5CI1 SLP162
2001 02 28 20 METAR CYVR 282000Z 11006KT 30SM FEW025 BKN065 BKN200 08/01 A3003 RMK CU1SC5CI0 SLP168
2001 02 28 21 METAR CYVR 282100Z 16004KT 30SM FEW025 FEW070 SCT200 09/02 A3002 RMK CU1AC1CI1 TR CU SLP166
2001 02 28 22 METAR CYVR 282200Z CCA 00000KT 30SM FEW025 FEW070 FEW250 11/03 A3000 RMK CU1AC1CI0 SLP159
2001 02 28 23 METAR CYVR 282300Z 18002KT 30SM FEW045 FEW110 SCT220 11/04 A3000 RMK CU1AC1CI0 SLP158
2001 03 01 00 METAR CYVR 010000Z 18005KT 30SM FEW045 FEW110 FEW220 10/04 A2999 RMK CU1AC1CI1 TR CU+AC SLP155
2001 03 01 01 METAR CYVR 010100Z 18003KT 30SM FEW045 FEW110 FEW220 10/04 A3000 RMK CU1AC1CI1 TR CU+AC SLP157
2001 03 01 02 METAR CYVR 010200Z 18005KT 30SM FEW045 FEW110 FEW220 09/03 A2999 RMK CU1AC1CI1 ACC ASOCTD SLP155
2001 03 01 03 METAR CYVR 010300Z 21005KT 30SM FEW050 FEW220 08/04 A3001 RMK SC1CI1 SLP162
2001 03 01 04 METAR CYVR 010400Z 02005KT 30SM FEW050 SCT250 06/03 A3000 RMK CF1CI2 TR CF SLP159
2001 03 01 05 METAR CYVR 010500Z 09003KT 20SM FEW050 SCT240 05/03 A3001 RMK CF1CI2 TR CF N SLP161
2001 03 01 06 METAR CYVR 010600Z 07004KT 20SM FEW050 SCT220 BKN300 03/01 A3001 RMK SC1CI2CS1 TR SC LYR THIN NO CIG SLP161
2001 03 01 07 METAR CYVR 010700Z 09006KT 20SM SCT220 BKN300 03/01 A3000 RMK CI2CS1 FOG BNK DSTNT E SLP157
2001 03 01 08 METAR CYVR 010800Z 09004KT 20SM BKN220 04/02 A2997 RMK CI7 SLP148
2001 03 01 09 METAR CYVR 010900Z 09004KT 20SM SCT150 OVC220 04/02 A2996 RMK AC3CI5 SLP144
2001 03 01 10 METAR CYVR 011000Z 08005KT 20SM BKN140 OVC220 04/02 A2994 RMK AC6CI2 SLP139
2001 03 01 11 METAR CYVR 011100Z 06004KT 15SM BKN120 OVC140 04/02 A2991 RMK AC5AC3 SLP129
2001 03 01 12 METAR CYVR 011200Z 08006KT 15SM BKN090 OVC120 04/02 A2987 RMK AC5AC3 SLP116
2001 03 01 13 METAR CYVR 011300Z 09005KT 15SM BKN070 OVC090 04/02 A2983 RMK AC6AC2 SLP102
2001 03 01 14 METAR CYVR 011400Z 18006KT 15SM OVC075 05/01 A2981 RMK AS8 SLP094
2001 03 01 15 METAR CYVR 011500Z 07002KT 30SM SCT070 OVC090 04/02 A2978 RMK AC3AS5 VIRGA W-E SLP084
2001 03 01 16 METAR CYVR 011600Z 19005KT 30SM FEW064 BKN110 OVC140 05/01 A2975 RMK SC2AC4AS2 VIRGA OVHD-W SLP074
2001 03 01 17 METAR CYVR 011700Z 11007KT 30SM FEW070 BKN100 OVC140 05/01 A2970 RMK AC2AC5AS2 VIRGA SLP056
2001 03 01 18 METAR CYVR 011800Z 15004KT 20SM SCT046 BKN055 OVC070 06/02 A2969 RMK SC3SC3AC2 VSBY LWR S-SW VIRGA ALQDS SHWRS MTNS N SLP053
2001 03 01 18 METAR CYVR 011800Z 15004KT 20SM SCT046 BKN055 OVC070 06/02 A2969 RMK SC3SC3AC2
2001 03 01 20 METAR CYVR 012000Z 09012KT 6SM -RA BR FEW023 BKN028 OVC035 06/04 A2966 RMK SF2SC4SC2 SLP044
2001 03 01 21 METAR CYVR 012100Z 09015G21KT 6SM -RA BR FEW023 OVC030 06/04 A2963 RMK SF2SC6 SLP032
2001 03 01 22 METAR CYVR 012200Z 09014G19KT 6SM -RA BR FEW015 BKN020 OVC030 06/04 A2958 RMK SF2SC6SC1 SLP017
2001 03 01 23 METAR CYVR 012300Z 11014G19KT 3SM RA BR SCT010 BKN014 OVC025 06/05 A2955 RMK SF3SF3SC2 SLP007
2001 03 02 00 METAR CYVR 020000Z 12017G22KT 4SM RA BR FEW009 BKN013 OVC020 06/05 A2953 RMK SF2SF4SC2 SLP999
2001 03 02 01 METAR CYVR 020100Z 09014G19KT 3SM RA BR SCT009 BKN012 OVC018 04/04 A2952 RMK SF3SF4SC1 SLP997
2001 03 02 02 METAR CYVR 020200Z 12011G16KT 6SM -RA BR FEW009 BKN014 OVC020 06/05 A2953 RMK SF2SF5SC2 VSBY SW-W 15 PCPN VRY LGT SLP999
2001 03 02 03 METAR CYVR 020300Z 21019KT 10SM FEW012 FEW022 SCT040 SCT120 BKN240 07/02 A2956 RMK CF1SC1SC2AC1CI2 VSBY HIR SW-W SLP009
2001 03 02 04 METAR CYVR 020400Z 21014KT 12SM FEW010 FEW020 SCT040 BKN220 06/01 A2961 RMK SF1SC1SC2CI1 SLP028
2001 03 02 05 METAR CYVR 020500Z 19010KT 20SM FEW010 FEW020 FEW040 06/01 A2964 RMK SF1SC1SC1 TR SF SLP038
2001 03 02 06 METAR CYVR 020600Z 20011KT 20SM FEW010 FEW020 SCT150 BKN220 06/01 A2967 RMK SF1SC1AC2CI1 TR SF SLP047
2001 03 02 07 METAR CYVR 020700Z 21013KT 20SM FEW020 SCT160 06/01 A2969 RMK SC2AC2 SLP054
2001 03 02 08 METAR CYVR 020800Z 18011KT 20SM FEW020 BKN150 05/01 A2970 RMK SC1AC5 SLP058
2001 03 02 09 METAR CYVR 020900Z 18009KT 20SM FEW020 BKN070 BKN150 05/02 A2972 RMK SC2AC3AC2 SLP064
2001 03 02 10 METAR CYVR 021000Z 19014KT 20SM FEW020 SCT060 BKN110 BKN150 05/02 A2974 RMK SC1SC2AC2AC2 SLP069
2001 03 02 11 METAR CYVR 021100Z 18011G16KT 20SM FEW020 FEW042 BKN062 OVC150 05/02 A2974 RMK SC1SC2SC3AC2 SLP071
2001 03 02 12 METAR CYVR 021200Z 18011KT 20SM FEW010 FEW020 FEW040 SCT060 BKN100 OVC150 05/02 A2975 RMK SF1SC1SC1SC2AC2AC2 TR SF SLP075
2001 03 02 13 METAR CYVR 021300Z 18010G15KT 20SM FEW015 FEW060 SCT100 BKN150 05/02 A2976 RMK SF1SC2AC2AC2 SLP078
2001 03 02 14 METAR CYVR 021400Z 18012KT 20SM -SHRA FEW015 FEW025 BKN066 OVC110 05/02 A2978 RMK SF1SF2AC3AC2 SLP085
2001 03 02 15 METAR CYVR 021500Z 16007KT 15SM -SHRA FEW015 SCT025 BKN066 OVC110 05/02 A2980 RMK SF2SC2AC3AC1 SLP090
2001 03 02 16 METAR CYVR 021600Z 15007KT 20SM FEW015 SCT025 BKN066 BKN110 05/02 A2982 RMK SF2SC2AC2AC2 VIRGA OVHD-SW SLP096
2001 03 02 17 METAR CYVR 021700Z 15009KT 20SM FEW015 SCT045 BKN066 BKN110 05/03 A2984 RMK SF2SC2AC2AC2 SLP103
2001 03 02 18 METAR CYVR 021800Z 18010G15KT 20SM FEW015 SCT054 BKN062 BKN190 07/03 A2986 RMK CF2SC2SC2CI2 CU ASOCTD SLP110
2001 03 02 19 METAR CYVR 021900Z 18015KT 20SM FEW015 SCT040 BKN050 OVC190 07/02 A2987 RMK CF2SC2CU2CI1 TCU ASOCTD SLP114
2001 03 02 20 METAR CYVR 022000Z CCA 19015KT 20SM FEW017 SCT042 SCT060 BKN110 07/02 A2989 RMK CF2CU2SC1AC2 TCU ASOCTD SLP123
2001 03 02 21 METAR CYVR 022100Z 17013KT 20SM FEW017 SCT085 SCT110 BKN190 08/02 A2989 RMK CU2AC1AC1CI1 TCU ASOCTD SLP122
2001 03 02 22 METAR CYVR 022200Z 18011KT 20SM FEW023TCU FEW078 FEW190 08/02 A2990 RMK TCU2AC1CI1 SLP125
2001 03 02 20 METAR CYVR 022000Z CCA 19015KT 20SM FEW017 SCT042 SCT060 BKN110 07/02 A2989 RMK CF2CU2SC1AC2 TCU ASOCTD SLP123
2001 03 03 00 METAR CYVR 030000Z CCA 19009KT 20SM FEW025 SCT200 08/00 A2991 RMK CU2CI0 TCU ASOCTD SLP128
2001 03 03 01 METAR CYVR 030100Z 21005KT 20SM FEW030 FEW080 SCT200 07/02 A2992 RMK SC2AC1CI0 TCU ASOCTD SLP131
2001 03 03 02 METAR CYVR 030200Z 16004KT 20SM FEW025 FEW070 FEW200 06/01 A2993 RMK SC2AC1CI0 TCU ASOCTD CB NE SLP135
2001 03 03 03 METAR CYVR 030300Z 12006KT 20SM FEW070 FEW250 05/02 A2994 RMK AC2CI1 SLP139
2001 03 03 04 METAR CYVR 030400Z 12004KT 20SM FEW070 05/01 A2995 RMK AC2 SLP142
2001 03 03 05 METAR CYVR 030500Z 12006KT 20SM FEW070 03/00 A2997 RMK AC2 SLP147
2001 03 03 06 METAR CYVR 030600Z 09006KT 20SM FEW070 03/00 A2998 RMK AC2 SLP152
2001 03 03 07 METAR CYVR 030700Z 10008KT 20SM FEW080 02/01 A2999 RMK AC2 SLP156
2001 03 03 08 METAR CYVR 030800Z 09008KT 20SM FEW020 02/00 A3001 RMK SC2 SLP161
2001 03 03 09 METAR CYVR 030900Z 10007KT 30SM FEW020 FEW080 02/00 A3002 RMK SC1AC2 SLP165
2001 03 03 10 METAR CYVR 031000Z 11009KT 30SM FEW020 FEW050 FEW080 03/01 A3003 RMK SC1SC1AC2 SLP169
2001 03 03 11 METAR CYVR 031100Z 10006KT 30SM FEW022 FEW050 SCT080 03/01 A3004 RMK SC2SC1AC2 SLP171
2001 03 03 12 METAR CYVR 031200Z 09005KT 30SM FEW020 SCT050 BKN070 02/01 A3004 RMK SC2SC1AC3 SLP173
2001 03 03 13 METAR CYVR 031300Z 09009KT 20SM FEW018 SCT042 BKN069 03/01 A3005 RMK SC2SC2AC2 SLP174
2001 03 03 14 METAR CYVR 031400Z 09007KT 20SM FEW018 BKN043 BKN070 03/01 A3004 RMK SC2SC2AC2 SLP173
2001 03 03 15 METAR CYVR 031500Z 09008KT 20SM FEW015 SCT045 BKN070 BKN250 02/00 A3003 RMK SF2SC2AC1CI0 VSBY LWR NW-NE SLP170
2001 03 03 16 METAR CYVR 031600Z 09008KT 20SM FEW012 SCT020 BKN069 BKN250 04/01 A3004 RMK SF2SC2AC2CI0 SLP171
2001 03 03 17 METAR CYVR 031700Z 11008KT 20SM FEW023 BKN042 05/02 A3004 RMK SC2SC2 SLP173
2001 03 03 18 METAR CYVR 031800Z 08010KT 20SM FEW025 BKN037 06/01 A3004 RMK CU2SC2 SLP173
2001 03 03 19 METAR CYVR 031900Z 10005KT 30SM SCT022 BKN033 06/M00 A3004 RMK CU3SC3 TCU ASOCTD SLP171
2001 03 03 20 METAR CYVR 032000Z 09004KT 30SM SCT022 BKN034 08/M00 A3002 RMK CU3SC2 TCU ASOCTD SLP166
2001 03 03 21 METAR CYVR 032100Z 29002KT 30SM FEW025 BKN035 07/M01 A3000 RMK CF2CU5 TCU ASOCTD SLP160
2001 03 03 22 METAR CYVR 032200Z 25005KT 30SM FEW023 BKN035 07/01 A2999 RMK CF2CU4 TCU ASOCTD SLP155
2001 03 03 23 METAR CYVR 032300Z 30005KT 30SM FEW037 SCT052 BKN074 OVC200 07/01 A2998 RMK CU2SC2AC2CI1 TCU ASOCTD SLP152
2001 03 04 00 METAR CYVR 040000Z 29005KT 30SM FEW037 SCT060 BKN075 BKN200 07/01 A2997 RMK CU2SC2AC2CI1 TCU ASOCTD SLP150
2001 03 04 01 METAR CYVR 040100Z 30006KT 30SM FEW038 FEW065 BKN190 OVC280 06/01 A2997 RMK CU1SC2CI3CI2 TCU ASOCTD SLP147
2001 03 04 02 METAR CYVR 040200Z 27004KT 30SM FEW035 FEW065 SCT190 BKN280 04/01 A2996 RMK CF1SC1CI2CI1 TR CF LYR THIN NO CIG SLP144
2001 03 04 03 METAR CYVR 040300Z 33004KT 25SM FEW035 FEW065 SCT190 BKN280 03/M04 A2996 RMK CF1SC1CI2CS1 TR CF LYR THIN NO CIG SLP145
2001 03 04 04 METAR CYVR 040400Z 00000KT 25SM FEW032 FEW062 SCT100 BKN190 04/00 A2996 RMK CF1SC1AC2CI2 TR CF OVR MNTNS SLP144
2001 03 04 05 METAR CYVR 040500Z 05004KT 20SM FEW033 FEW060 SCT100 BKN190 04/00 A2996 RMK CU1SC1AC2CI1 TCU CELL + VIRGA N-NE SLP144
2001 03 04 06 METAR CYVR 040600Z 05005KT 20SM FEW060 FEW100 SCT190 04/M00 A2996 RMK SC1AC1CI1 TR SC SLP145
2001 03 04 07 METAR CYVR 040700Z 05003KT 20SM FEW060 FEW100 FEW190 03/M00 A2997 RMK SC1AC1CI0 TR SC+AC SLP147
2001 03 04 08 METAR CYVR 040800Z 09003KT 20SM FEW030 SCT095 02/M02 A2997 RMK SC1AC3 SLP149
2001 03 04 09 METAR CYVR 040900Z 03003KT 20SM BKN090 02/M01 A2998 RMK AC6 SLP153
2001 03 04 10 METAR CYVR 041000Z 02003KT 20SM FEW095 SCT250 01/M02 A2998 RMK AC2CI0 SLP152
2001 03 04 11 METAR CYVR 041100Z 09003KT 20SM FEW250 01/M02 A2999 RMK CI0 SLP155
2001 03 04 12 METAR CYVR 041200Z 00000KT 30SM SCT250 01/M02 A2998 RMK CI0 SLP153
2001 03 04 13 METAR CYVR 041300Z 04002KT 30SM SCT250 01/M02 A2998 RMK CI0 SLP152
2001 03 04 14 METAR CYVR 041400Z 36002KT 30SM SCT250 M00/M03 A2997 RMK CI0 SLP148
2001 03 04 15 METAR CYVR 041500Z 14002KT 30SM FEW120 SCT250 M01/M03 A2997 RMK AC1CI0 SLP148
2001 03 04 16 METAR CYVR 041600Z 13002KT 30SM FEW020 FEW120 SCT250 02/M01 A2996 RMK CU1AC1CI0 TR CU/AC CU OVR WTR SW SLP145
2001 03 04 17 METAR CYVR 041700Z 00000KT 30SM FEW020 FEW120 SCT250 05/M01 A2996 RMK CU1AC1CI1 TR CU/AC CU OVR WTR SW SLP144
2001 03 04 18 METAR CYVR 041800Z 24004KT 30SM FEW020 FEW120 SCT250 06/00 A2995 RMK CU1AC1CI1 TR CU/AC CU OVR WTR SW SLP143
2001 03 04 18 METAR CYVR 041800Z 24004KT 30SM FEW020 FEW120 SCT250 06/00 A2995 RMK CU1AC1CI1 TR
2001 03 04 20 METAR CYVR 042000Z 29012KT 30SM FEW120 BKN250 07/01 A2992 RMK AC1CI1 TR AC 250 LYR THN SLP133
2001 03 04 21 METAR CYVR 042100Z 29016KT 30SM FEW120 BKN250 08/03 A2990 RMK AC1CS1 SLP124
2001 03 04 22 METAR CYVR 042200Z 31015KT 30SM FEW120 OVC250 08/03 A2987 RMK AC1CS1 SLP115
2001 03 04 23 METAR CYVR 042300Z 30017KT 30SM FEW120 BKN250 07/03 A2985 RMK AC2CS0 SLP108
2001 03 05 00 METAR CYVR 050000Z 30019KT 30SM FEW120 BKN240 07/03 A2984 RMK AC2CI3 SLP104
2001 03 05 01 METAR CYVR 050100Z 30016KT 30SM BKN100 OVC240 07/03 A2983 RMK AC5CI2 SLP101
2001 03 05 02 METAR CYVR 050200Z 30016KT 30SM BKN095 OVC240 07/03 A2982 RMK AC6CI1 SLP099
2001 03 05 03 METAR CYVR 050300Z 30011G18KT 30SM BKN090 OVC240 07/03 A2982 RMK AC6CI1 SLP098
2001 03 05 04 METAR CYVR 050400Z 30014KT 30SM OVC088 07/03 A2982 RMK AC8 SLP098
2001 03 05 05 METAR CYVR 050500Z 29012KT 30SM OVC088 07/03 A2985 RMK AC8 SLP108
2001 03 05 06 METAR CYVR 050600Z 30012KT 30SM SCT050 BKN080 OVC240 07/03 A2987 RMK SC3AC3CI1 VIRGA OVRHD MOON DMLY VSBL SLP116
2001 03 05 07 METAR CYVR 050700Z 32008KT 20SM -SHRA SCT050 OVC080 07/04 A2988 RMK SC4AC4 SLP119
2001 03 05 08 METAR CYVR 050800Z 32008KT 20SM -SHRA FEW048 BKN067 OVC080 07/04 A2990 RMK SC2AC3AC2 SLP124
2001 03 05 09 METAR CYVR 050900Z 31007KT 20SM -SHRA FEW048 BKN064 OVC110 07/04 A2991 RMK SC1SC6AC2 SLP129
2001 03 05 10 METAR CYVR 051000Z 32010KT 20SM FEW050 OVC062 07/04 A2993 RMK SC2SC6 SLP134
2001 03 05 11 METAR CYVR 051100Z 33010KT 20SM BKN062 OVC090 07/04 A2994 RMK SC6AC2 SLP139
2001 03 05 12 METAR CYVR 051200Z 31006KT 20SM SCT070 BKN100 OVC120 07/03 A2996 RMK AC3AC3AC2 SLP146
2001 03 05 13 METAR CYVR 051300Z 30005KT 20SM FEW060 OVC110 06/04 A2998 RMK SC2AC6 SLP151
2001 03 05 14 METAR CYVR 051400Z 29008KT 20SM FEW057 BKN110 06/03 A3000 RMK SC2AC5 SLP157
2001 03 05 15 METAR CYVR 051500Z 34004KT 20SM BKN070 BKN110 06/04 A3001 RMK AC5AC2 SLP163
2001 03 05 16 METAR CYVR 051600Z 30009KT 20SM FEW057 BKN070 OVC110 07/04 A3005 RMK SC2AC3AC2 SLP175
2001 03 05 17 METAR CYVR 051700Z 30011KT 20SM BKN056 OVC110 07/05 A3008 RMK SC5AC2 SLP185
2001 03 05 18 METAR CYVR 051800Z 30012KT 20SM BKN065 OVC110 08/04 A3009 RMK SC5AC2 SLP190
2001 03 05 19 METAR CYVR 051900Z 31009KT 20SM -SHRA BKN062 BKN110 08/05 A3011 RMK SC5AC2 SLP197
2001 03 05 20 METAR CYVR 052000Z 29011KT 20SM BKN060 OVC110 09/05 A3013 RMK SC5AC2 SLP203
2001 03 05 21 METAR CYVR 052100Z 31009KT 20SM BKN060 BKN250 09/04 A3013 RMK SC5CI1 SLP201
2001 03 05 22 METAR CYVR 052200Z 28008KT 20SM BKN072 BKN250 09/05 A3014 RMK AC5CI1 SLP205
2001 03 05 23 METAR CYVR 052300Z 30007KT 30SM BKN071 BKN250 09/06 A3016 RMK AC6CI0 SLP212
2001 03 06 00 METAR CYVR 060000Z 31009KT 30SM BKN072 BKN250 08/05 A3016 RMK AC6CI0 SLP213
2001 03 06 01 METAR CYVR 060100Z 31005KT 30SM BKN072 BKN250 08/04 A3017 RMK AC6CI1 SLP216
2001 03 06 02 METAR CYVR 060200Z 31004KT 30SM BKN073 BKN250 08/04 A3017 RMK AC6CI0 SLP217
2001 03 06 03 METAR CYVR 060300Z 33006KT 30SM BKN070 BKN250 07/02 A3018 RMK AC6CI0 SLP220
2001 03 06 04 METAR CYVR 060400Z 27004KT 30SM FEW070 07/04 A3019 RMK AC2 SLP222
2001 03 06 05 METAR CYVR 060500Z 29006KT 30SM FEW075 06/04 A3021 RMK AC2 SLP228
2001 03 06 03 METAR CYVR 060300Z 33006KT 30SM BKN070 BKN250 07/02 A3018 RMK AC6CI0 SLP220
2001 03 06 07 METAR CYVR 060700Z 32006KT 30SM FEW090 06/04 A3023 RMK AC1 SLP236
2001 03 06 08 METAR CYVR 060800Z 32005KT 30SM FEW060 05/03 A3024 RMK SC1 TR CLD SLP239
2001 03 06 09 METAR CYVR 060900Z 00000KT 30SM FEW060 06/04 A3025 RMK SC1 SLP242
2001 03 06 10 METAR CYVR 061000Z 06003KT 30SM SKC 03/02 A3025 RMK SLP242
2001 03 06 11 METAR CYVR 061100Z 00000KT 30SM SKC 04/03 A3024 RMK SLP240
2001 03 06 12 METAR CYVR 061200Z 34002KT 30SM MIFG SKC 03/02 A3025 RMK SLP242
2001 03 06 13 METAR CYVR 061300Z 35002KT 30SM MIFG SKC 02/01 A3025 RMK SLP244
2001 03 06 14 METAR CYVR 061400Z 33006KT 30SM MIFG FEW200 03/02 A3025 RMK CI1 SLP243
2001 03 06 15 METAR CYVR 061500Z 31008KT 30SM FEW200 04/03 A3025 RMK CI1 SLP244
2001 03 06 16 METAR CYVR 061600Z 30009KT 30SM FEW200 07/06 A3026 RMK CI1 SLP245
2001 03 06 17 METAR CYVR 061700Z 31009KT 30SM FEW200 08/06 A3026 RMK CI1 VSBY ENE 8 HZ SLP246
2001 03 06 18 METAR CYVR 061800Z 30011KT 30SM FEW200 09/06 A3026 RMK CI1 VSBY ENE 10 HZ SLP247
2001 03 06 19 METAR CYVR 061900Z 30011KT 30SM SCT200 09/06 A3026 RMK CI1 SLP245
2001 03 06 20 METAR CYVR 062000Z 29010KT 30SM FEW200 10/06 A3025 RMK CI1 SLP243
2001 03 06 21 METAR CYVR 062100Z 30011KT 30SM BKN200 10/07 A3023 RMK CI2 SLP236
2001 03 06 22 METAR CYVR 062200Z 31008KT 30SM SCT200 10/06 A3022 RMK CI1 SLP232
2001 03 06 23 METAR CYVR 062300Z 30009KT 30SM SCT200 10/06 A3020 RMK CI1 SLP227
2001 03 07 00 METAR CYVR 070000Z 30007KT 30SM BKN200 10/06 A3018 RMK CI1 SLP221
2001 03 07 01 METAR CYVR 070100Z 31007KT 30SM BKN250 10/06 A3017 RMK CI1 SLP215
2001 03 07 02 METAR CYVR 070200Z 31006KT 30SM BKN250 08/05 A3016 RMK CI1 SLP213
2001 03 07 03 METAR CYVR 070300Z 29008KT 30SM SCT250 07/05 A3016 RMK CI1 SLP213
2001 03 07 04 METAR CYVR 070400Z 32003KT 30SM FEW250 07/04 A3015 RMK CI0 SLP210
2001 03 07 05 METAR CYVR 070500Z 30005KT 30SM SKC 07/05 A3015 RMK SLP211
2001 03 07 06 METAR CYVR 070600Z 34006KT 30SM SKC 06/04 A3016 RMK SLP214
2001 03 07 07 METAR CYVR 070700Z 31007KT 30SM SKC 05/04 A3016 RMK SLP214
2001 03 07 08 METAR CYVR 070800Z 00000KT 30SM SKC 07/05 A3016 RMK SLP214
2001 03 07 09 METAR CYVR 070900Z 06002KT 30SM SKC 04/03 A3017 RMK SLP217
2001 03 07 10 METAR CYVR 071000Z 11006KT 30SM SKC 05/04 A3017 RMK SLP217
2001 03 07 11 METAR CYVR 071100Z 10004KT 30SM SKC 03/02 A3016 RMK SLP213
2001 03 07 12 METAR CYVR 071200Z 00000KT 30SM SKC 03/03 A3016 RMK SLP212
2001 03 07 13 METAR CYVR 071300Z 09002KT 30SM SKC 03/03 A3015 RMK SLP210
2001 03 07 14 METAR CYVR 071400Z 00000KT 30SM MIFG SKC 03/02 A3015 RMK SLP210
2001 03 07 15 METAR CYVR 071500Z 20002KT 30SM MIFG FEW120 03/02 A3015 RMK AC0 SLP210
2001 03 07 17 METAR CYVR 071700Z 27003KT 30SM SKC 09/04 A3014 RMK SLP206
2001 03 07 18 METAR CYVR 071800Z 32007KT 30SM SKC 09/05 A3014 RMK SLP207
2001 03 07 19 METAR CYVR 071900Z 29008KT 30SM FEW230 10/06 A3013 RMK CI1 SLP203
2001 03 07 20 METAR CYVR 072000Z 29007KT 30SM FEW230 11/07 A3013 RMK CI1 SLP201
2001 03 07 21 METAR CYVR 072100Z 29006KT 30SM FEW230 11/06 A3010 RMK CI1 SLP192
2001 03 07 22 METAR CYVR 072200Z 27005KT 30SM FEW230 12/05 A3008 RMK CI0 SLP185
2001 03 07 23 METAR CYVR 072300Z 27005KT 30SM FEW120 FEW230 11/06 A3006 RMK AC1CI1 TR AC DSTNT S ACC EMBDD HZ SLP179
2001 03 08 00 METAR CYVR 080000Z 28004KT 30SM FEW062 FEW120 FEW230 11/04 A3005 RMK SC1ACC1CI1 HZ LYR E BR OVR STRAIT TR SC SLP175
2001 03 08 01 METAR CYVR 080100Z 31005KT 30SM FEW062 BKN130 BKN230 10/06 A3004 RMK SC2AC4CI2 ACC EMBDD HZ+BR OVR STRAIT SLP171
2001 03 08 02 METAR CYVR 080200Z 30006KT 25SM FEW060 BKN110 OVC230 10/05 A3002 RMK SC2AC5CI2 ACC EMBDD VIRGA ALQDS SLP167
2001 03 08 03 METAR CYVR 080300Z 31005KT 25SM FEW060 BKN110 OVC230 10/05 A3003 RMK SC2AC4CI2 ACC EMBDD VIRGA SLP168
2001 03 08 04 METAR CYVR 080400Z 20002KT 20SM FEW045 FEW060 BKN089 OVC230 11/04 A3002 RMK SF1SC2AC4CI2 ACC EMBDD XTNSV VIRGA SLP166
2001 03 08 05 METAR CYVR 080500Z 00000KT 15SM -SHRA FEW044 SCT060 OVC096 10/06 A3003 RMK SF2SC2AC4 ACC ASOCTD SLP168
2001 03 08 06 METAR CYVR 080600Z 29004KT 15SM -SHRA FEW045 SCT060 BKN100 OVC150 09/07 A3004 RMK SF2SC2AC3AC2 CIG RGD SLP172
2001 03 08 07 METAR CYVR 080700Z 32006KT 15SM -SHRA FEW045 BKN081 OVC100 09/06 A3004 RMK SC2AC3AC2 SHRA VRY LGT SLP171
2001 03 08 08 METAR CYVR 080800Z 31006KT 20SM BKN071 OVC100 08/07 A3005 RMK AC6AC2 SHRA VRY LGT SLP177
2001 03 08 09 METAR CYVR 080900Z 31009KT 12SM -SHRA SCT045 OVC071 09/07 A3005 RMK SC3AC5 SLP175
2001 03 08 10 METAR CYVR 081000Z 29010KT 8SM -SHRA BKN035 OVC070 08/07 A3006 RMK SC5AC3 SLP179
2001 03 08 11 METAR CYVR 081100Z 30010KT 15SM -SHRA FEW012 BKN038 OVC066 08/07 A3007 RMK SF2SC3AC3 SLP183
2001 03 08 12 METAR CYVR 081200Z 31007KT 8SM -SHRA FEW012 BKN025 OVC040 08/07 A3009 RMK SF2SC3SC2 SLP188
2001 03 08 13 METAR CYVR 081300Z 27010KT 8SM -SHRA FEW007 SCT012 OVC025 08/07 A3011 RMK SF2SF2SC4 SLP195
2001 03 08 14 METAR CYVR 081400Z 32010KT 8SM -SHRA SCT007 BKN011 OVC025 08/07 A3010 RMK SF4SF2SC2 SLP194
2001 03 08 15 METAR CYVR 081500Z 30009KT 6SM -SHRA BR SCT006 OVC010 08/07 A3012 RMK SF4SF4 SLP198
2001 03 08 16 METAR CYVR 081600Z 30013KT 6SM -SHRA BR SCT005 OVC009 08/07 A3013 RMK SF4SF4 SLP201
2001 03 08 17 METAR CYVR 081700Z 30011KT 6SM -SHRA BR FEW003 SCT006 OVC012 07/07 A3014 RMK SF2SF2SF4 SLP207
2001 03 08 18 METAR CYVR 081800Z 30011KT 6SM -SHRA BR FEW004 SCT007 OVC014 08/07 A3014 RMK SF2SF2SC4 VIS HIER W PRECIP VRY LGT SLP206
2001 03 08 19 METAR CYVR 081900Z 29010KT 6SM BR FEW004 BKN009 BKN015 OVC040 08/07 A3015 RMK SF2SF2SC2SC1 VIS HIER W SLP208
2001 03 08 20 METAR CYVR 082000Z 30010KT 8SM FEW005 BKN013 BKN025 OVC040 08/07 A3015 RMK SF2ST2SC2SC1 SLP208
2001 03 08 21 METAR CYVR 082100Z 29013KT 10SM FEW005 SCT014 BKN027 OVC045 08/06 A3015 RMK SF2SF2SC3SC2 SLP209
2001 03 08 22 METAR CYVR 082200Z 29011KT 10SM FEW005 FEW015 SCT030 OVC053 08/07 A3013 RMK SF1SF2SC2SC4 SLP203
2001 03 08 23 METAR CYVR 082300Z 29013KT 15SM -SHRA FEW005 FEW015 BKN048 OVC060 08/06 A3013 RMK SF1SF2SC4SC2 VSBY LWR E SHRA VERY LGT SLP201
2001 03 09 00 METAR CYVR 090000Z 28012KT 15SM FEW005 FEW015 BKN040 OVC064 08/06 A3012 RMK SF1SF2SC4SC2 VSBY LWR E SLP198
2001 03 09 01 METAR CYVR 090100Z 28011G16KT 10SM -SHRA FEW005 FEW015 BKN046 BKN060 OVC100 08/06 A3012 RMK SF1SF1SC4SC2AC1 SLP199
2001 03 09 02 METAR CYVR 090200Z 28008KT 15SM -SHRA FEW005 FEW015 BKN033 BKN060 07/06 A3012 RMK SF1SF1SC4SC2 VSBY E 4 SLP199
2001 03 09 03 METAR CYVR 090300Z 27016KT 20SM FEW005 FEW015 SCT030 BKN060 BKN130 07/05 A3012 RMK SF1SF1SC2SC2AC2 VSBY LWR E SLP198
2001 03 09 04 METAR CYVR 090400Z 28014KT 20SM FEW005 FEW015 FEW030 SCT060 BKN080 08/05 A3012 RMK SF1SF1SC1SC2AC2 SLP199
2001 03 09 05 METAR CYVR 090500Z 29014KT 20SM FEW005 FEW015 FEW030 BKN050 BKN080 08/05 A3013 RMK SF1SF1SC1SC3AC2 SLP202
2001 03 09 06 METAR CYVR 090600Z 32010KT 20SM FEW005 FEW015 FEW030 BKN049 BKN080 07/06 A3013 RMK SF1SF1SC1SC3AC1 SLP203
2001 03 09 07 METAR CYVR 090700Z 01006KT 20SM FEW015 FEW050 06/05 A3014 RMK SF1SC1 SLP207
2001 03 09 08 METAR CYVR 090800Z 00000KT 20SM FEW015 SCT050 06/05 A3016 RMK SF1SC2 SLP212
2001 03 09 09 METAR CYVR 090900Z 34005KT 20SM FEW022 FEW050 05/04 A3018 RMK SF1SC1 SLP218
2001 03 09 10 METAR CYVR 091000Z 31006KT 20SM BKN015 05/04 A3018 RMK SC6 SLP220
2001 03 09 11 METAR CYVR 091100Z 31010KT 15SM OVC020 07/05 A3019 RMK SC7 SLP222
2001 03 09 12 METAR CYVR 091200Z 31009KT 20SM FEW015 FEW022 05/04 A3019 RMK SF1SC1 SLP224
2001 03 09 13 METAR CYVR 091300Z 32005KT 20SM FEW012 FEW022 05/04 A3021 RMK SF1SC1 BCFG SLP228
2001 03 09 14 METAR CYVR 091400Z 33006KT 25SM FEW007 FEW020 03/02 A3021 RMK SF1SC1 SLP230
2001 03 09 15 METAR CYVR 091500Z 36002KT 25SM FEW007 FEW022 FEW210 04/03 A3022 RMK SF1SC1CI0 SLP233
2001 03 09 16 METAR CYVR 091600Z 31007KT 25SM FEW007 FEW210 05/04 A3023 RMK SF1CI0 SLP236
2001 03 09 17 METAR CYVR 091700Z 32011KT 25SM FEW007 FEW210 07/05 A3024 RMK SF1CI0 SLP240
2001 03 09 18 METAR CYVR 091800Z 30015KT 25SM FEW210 08/05 A3024 RMK CI1 FG FNK WEST TOPS 700 FT SLP241
2001 03 09 19 METAR CYVR 091900Z 31012KT 25SM FEW210 09/05 A3023 RMK CI1 SLP238
2001 03 09 20 METAR CYVR 092000Z 30015KT 25SM FEW035 FEW220 09/05 A3023 RMK SC1CI0 TR SC SLP235
2001 03 09 21 METAR CYVR 092100Z 30012KT 25SM FEW035 FEW220 10/04 A3020 RMK SC1CI0 SLP227
2001 03 09 22 METAR CYVR 092200Z 29012KT 25SM FEW035 SCT220 10/06 A3019 RMK SC1CI0 SLP222
2001 03 09 23 METAR CYVR 092300Z 29011KT 30SM FEW040 BKN220 10/05 A3017 RMK CF1CI1 TR CF SLP216
2001 03 10 00 METAR CYVR 100000Z 30011KT 30SM FEW040 SCT230 08/05 A3016 RMK SC1CI1 TR SC SLP213
2001 03 10 01 METAR CYVR 100100Z 28007KT 30SM FEW040 BKN230 08/04 A3015 RMK SC1CI2 TR SC SLP210
2001 03 10 02 METAR CYVR 100200Z 29007KT 30SM FEW040 BKN230 07/04 A3014 RMK SC1CI2 SLP207
2001 03 10 03 METAR CYVR 100300Z 26007KT 30SM FEW040 BKN230 07/05 A3016 RMK SC1CI2 SLP212
2001 03 10 04 METAR CYVR 100400Z 26003KT 30SM FEW040 BKN230 06/04 A3016 RMK SC1CI2 SLP213
2001 03 10 05 METAR CYVR 100500Z 08006KT 30SM FEW040 BKN230 05/04 A3016 RMK SC1CI1 SLP214
2001 03 10 06 METAR CYVR 100600Z 10003KT 30SM FEW060 SCT230 05/03 A3016 RMK SC1CI1 SLP214
2001 03 10 07 METAR CYVR 100700Z 11009KT 30SM FEW070 BKN220 04/03 A3016 RMK AC1CI1 SLP213
2001 03 10 08 METAR CYVR 100800Z 08007KT 30SM FEW070 BKN220 05/03 A3017 RMK AC1CI1 SLP215
2001 03 10 09 METAR CYVR 100900Z 09006KT 30SM FEW050 BKN070 06/03 A3015 RMK SC2AC4 SLP211
2001 03 10 10 METAR CYVR 101000Z 09005KT 30SM FEW050 BKN070 BKN140 05/02 A3016 RMK SC2AC3AC2 SLP212
2001 03 10 11 METAR CYVR 101100Z 06003KT 30SM FEW040 BKN055 BKN140 05/02 A3015 RMK SC2SC3AC2 SLP211
2001 03 10 12 METAR CYVR 101200Z 34003KT 30SM FEW045 SCT070 BKN140 05/01 A3016 RMK SC2AC2AC1 SLP212
2001 03 10 13 METAR CYVR 101300Z 04002KT 30SM FEW060 SCT140 04/01 A3016 RMK SC2AC1 SLP212
2001 03 10 14 METAR CYVR 101400Z 00000KT 30SM FEW045 SCT065 BKN110 03/01 A3016 RMK SC2SC2AC2 SLP212
2001 03 10 15 METAR CYVR 101500Z 01002KT 30SM SCT020 SCT060 BKN090 04/01 A3017 RMK SC3SC1AC1 SLP216
2001 03 10 16 METAR CYVR 101600Z 09002KT 30SM FEW020 FEW060 05/03 A3017 RMK SC1SC1 SLP217
2001 03 10 17 METAR CYVR 101700Z 29008KT 30SM SCT020 BKN060 08/05 A3017 RMK SC4SC1 SLP217
2001 03 10 18 METAR CYVR 101800Z 29012KT 30SM FEW020 FEW060 08/03 A3017 RMK SC2SC1 SLP215
2001 03 10 19 METAR CYVR 101900Z 29013KT 30SM FEW020 FEW060 08/04 A3015 RMK SC2SC1 TR HIR SC. SLP210
2001 03 10 20 METAR CYVR 102000Z 29014KT 30SM FEW020 FEW070 SCT120 09/04 A3016 RMK SC2AC1AC1 SLP213
2001 03 10 21 METAR CYVR 102100Z 27017KT 30SM SCT030 BKN070 BKN130 09/05 A3013 RMK SC3AC2AC2 SLP204
2001 03 10 22 METAR CYVR 102200Z 25015KT 30SM SCT035 BKN075 BKN130 09/05 A3012 RMK SC4AC2AC1 CU EMBDD SLP200
2001 03 10 23 METAR CYVR 102300Z 27018KT 30SM FEW040 FEW080 FEW130 SCT240 10/05 A3011 RMK SC2AC1AC1CI0 CU EMBDD SLP195
2001 03 11 00 METAR CYVR 110000Z 27017KT 30SM FEW042 FEW080 FEW130 FEW240 09/05 A3012 RMK SC1AC1AC1CI0 SLP198
2001 03 11 01 METAR CYVR 110100Z 28019KT 30SM FEW045 FEW080 BKN240 09/04 A3012 RMK SC1AC1CI0 SLP198
2001 03 11 02 METAR CYVR 110200Z 28016G21KT 30SM FEW045 FEW080 BKN240 08/04 A3012 RMK SC1AC1CI2 SLP200
2001 03 11 03 METAR CYVR 110300Z 27015KT 30SM FEW045 BKN240 08/04 A3013 RMK SC1CI2 WND ESTIMATED SLP204
2001 03 11 04 METAR CYVR 110400Z 27012KT 30SM FEW045 BKN240 07/04 A3014 RMK SC1CI1 WND ESTIMATED SLP205
2001 03 11 05 METAR CYVR 110500Z 32014KT 30SM BKN240 08/04 A3014 RMK CI1 SLP207
2001 03 11 06 METAR CYVR 110600Z 34005KT 30SM BKN240 06/03 A3016 RMK CI0 SLP212
2001 03 11 07 METAR CYVR 110700Z 09004KT 30SM FEW030 FEW130 BKN240 06/02 A3017 RMK CF1AC2CI1 SLP215
2001 03 11 08 METAR CYVR 110800Z 09006KT 30SM FEW030 FEW130 BKN240 04/01 A3016 RMK CF1AC2CI1 SLP214
2001 03 11 09 METAR CYVR 110900Z 07003KT 30SM FEW030 SCT120 BKN240 04/02 A3017 RMK CF1AC2CI1 SLP216
2001 03 11 10 METAR CYVR 111000Z CCA 34003KT 30SM BKN030 BKN120 04/02 A3017 RMK SC5AC1 SLP216
2001 03 11 11 METAR CYVR 111100Z CCA 36004KT 30SM BKN030 BKN120 05/03 A3017 RMK SC5AC1 SLP217
2001 03 11 12 METAR CYVR 111200Z 36002KT 30SM BKN025 OVC120 05/03 A3018 RMK SC6AC2 SLP218
2001 03 11 13 METAR CYVR 111300Z 00000KT 30SM SCT025 BKN045 BKN120 06/03 A3020 RMK SC3SC2AC1 SLP225
2001 03 11 14 METAR CYVR 111400Z 00000KT 20SM SCT020 SCT045 BKN120 BKN250 05/03 A3020 RMK SC3SC1AC1CI0 CIG LWR N-E SLP225
2001 03 11 15 METAR CYVR 111500Z 01002KT 20SM BKN020 BKN050 OVC250 06/04 A3020 RMK SC5SC1CI2 CIG HIER S-W SLP227
2001 03 11 16 METAR CYVR 111600Z 00000KT 20SM BKN023 BKN050 BKN150 OVC250 06/04 A3021 RMK SC6SC1AC1CI1 SLP229
2001 03 11 17 METAR CYVR 111700Z 30006KT 20SM BKN022 BKN050 OVC250 08/04 A3022 RMK SC6SC1CI1 CIG HIER S-W SLP233
2001 03 11 18 METAR CYVR 111800Z 27007KT 20SM SCT022 BKN045 BKN120 OVC250 08/05 A3024 RMK SC4SC1AC1CI2 CIG LWR N-SE SLP239
2001 03 11 19 METAR CYVR 111900Z 26006KT 20SM FEW022 SCT045 BKN120 OVC250 08/04 A3025 RMK CU2SC1AS2CI2 CIG LWR N-E SLP242
2001 03 11 20 METAR CYVR 112000Z 24004KT 20SM FEW025 FEW045 BKN080 OVC140 09/04 A3026 RMK CU2SC1AC3AS2 SLP246
2001 03 11 21 METAR CYVR 112100Z 29002KT 20SM FEW020 FEW040 SCT080 OVC140 08/04 A3025 RMK CF2SC1AC2AS4 SLP244
2001 03 11 22 METAR CYVR 112200Z 26002KT 20SM FEW020 FEW040 SCT070 BKN110 OVC220 08/04 A3025 RMK CF2SC1AC1AC3CS2 SLP244
2001 03 11 23 METAR CYVR 112300Z 23004KT 20SM FEW030 SCT060 OVC110 08/04 A3025 RMK SF1SC2AC5 SLP244
2001 03 12 00 METAR CYVR 120000Z 25003KT 20SM FEW030 BKN060 OVC110 09/04 A3025 RMK SF1SC4AC3 SLP244
2001 03 12 01 METAR CYVR 120100Z 22004KT 20SM FEW030 BKN061 OVC220 08/04 A3024 RMK SF1SC6CI2 SLP239
2001 03 12 02 METAR CYVR 120200Z 00000KT 20SM FEW025 FEW052 BKN063 08/04 A3023 RMK SF1SC2SC4 SLP237
2001 03 12 03 METAR CYVR 120300Z 00000KT 20SM FEW025 FEW050 BKN058 09/03 A3024 RMK SF1SC2SC4 SLP239
2001 03 12 04 METAR CYVR 120400Z 35003KT 20SM FEW025 BKN056 BKN080 08/05 A3025 RMK SF1SC5AC1 SLP243
2001 03 12 05 METAR CYVR 120500Z 32002KT 20SM FEW025 BKN054 BKN080 08/04 A3026 RMK SF1SC5AC1 SLP245
2001 03 12 06 METAR CYVR 120600Z 29002KT 20SM FEW025 SCT045 BKN052 OVC080 08/04 A3026 RMK SF1SC2SC4AC1 SLP246
2001 03 12 07 METAR CYVR 120700Z 15002KT 15SM FEW025 BKN041 OVC060 08/05 A3026 RMK SF1SC6SC1 SLP245
2001 03 12 08 METAR CYVR 120800Z 32002KT 15SM FEW025 BKN041 OVC060 08/05 A3026 RMK SC1SC6SC1 SLP246
2001 03 12 09 METAR CYVR 120900Z 00000KT 15SM FEW025 BKN048 BKN058 07/05 A3026 RMK SC1SC5SC2 SLP246
2001 03 12 10 METAR CYVR 121000Z 00000KT 15SM FEW030 BKN050 BKN062 07/05 A3026 RMK SC1SC5SC2 SLP245
2001 03 12 11 METAR CYVR 121100Z 00000KT 15SM SCT034 OVC045 07/05 A3024 RMK SC3SC5 SLP241
2001 03 12 12 METAR CYVR 121200Z 00000KT 15SM BKN036 OVC047 07/05 A3025 RMK SC6SC2 SLP242
2001 03 12 13 METAR CYVR 121300Z 27003KT 15SM FEW012 SCT033 OVC041 07/05 A3025 RMK SF1SC2SC5 SLP244
2001 03 12 14 METAR CYVR 121400Z 00000KT 15SM FEW010 FEW030 OVC038 07/05 A3025 RMK SF1SC2SC6 SLP244
2001 03 12 15 METAR CYVR 121500Z 00000KT 20SM FEW010 FEW030 BKN038 BKN090 07/05 A3026 RMK SF1SC1SC5AC1 VSBY N-E 10 SLP245
2001 03 12 16 METAR CYVR 121600Z 15003KT 20SM FEW012 FEW025 BKN038 BKN090 08/05 A3026 RMK SF1SC1SC4AC2 SLP246
2001 03 12 17 METAR CYVR 121700Z 14005KT 20SM FEW014 SCT040 BKN090 BKN250 08/05 A3026 RMK CF2SC2AC2CI1 VSBY NE-E 8 SLP248
2001 03 12 18 METAR CYVR 121800Z 16004KT 20SM FEW015 FEW030 BKN090 BKN250 09/04 A3027 RMK CF2SC1AC4CI1 SLP250
2001 03 12 19 METAR CYVR 121900Z 14007KT 15SM FEW012 BKN022 BKN035 OVC090 10/05 A3026 RMK CF1CU4SC1AC2 VSBY SW 30 SLP245
2001 03 12 20 METAR CYVR 122000Z 12011KT 15SM FEW014 SCT020 BKN035 OVC090 09/06 A3025 RMK CF2CU2SC3AC2 VSBY SW 30 SLP242
2001 03 12 21 METAR CYVR 122100Z 13009KT 15SM FEW014 SCT022 BKN034 OVC080 10/06 A3023 RMK CF2CU2SC2AC2 CIG LWR N-E SLP237
2001 03 12 22 METAR CYVR 122200Z 13011KT 12SM -SHRA FEW015 SCT025 BKN038 OVC070 09/07 A3021 RMK CF2SC2SC2AC2 SLP231
2001 03 12 23 METAR CYVR 122300Z 12010KT 30SM FEW015 SCT032 BKN052 OVC220 09/07 A3020 RMK CF1SC3SC3CI1 VSBY N-E 10 SLP227
2001 03 13 00 METAR CYVR 130000Z 11008KT 30SM FEW013 BKN030 BKN052 OVC220 09/07 A3019 RMK CF2SC4SC2CI1 VSBY N-E 10 SLP222
2001 03 13 01 METAR CYVR 130100Z 10009KT 30SM FEW017 SCT032 BKN060 OVC220 09/07 A3017 RMK SF1SC2SC4CI1 VSBY N-E 10 SLP215
2001 03 13 02 METAR CYVR 130200Z 12008KT 30SM FEW017 BKN036 BKN140 BKN220 09/07 A3015 RMK SF2SC3AC2CI1 VSBY N-E 10 SLP211
2001 03 13 03 METAR CYVR 130300Z 17008KT 30SM FEW017 SCT035 BKN060 BKN150 09/06 A3015 RMK SF1SC3SC2AC1 VSBY N-E 10 SLP210
2001 03 13 04 METAR CYVR 130400Z 13007KT 30SM FEW017 BKN037 BKN060 OVC150 09/06 A3014 RMK SC2SC3SC2AC2 VSBY N-E 10 SLP206
2001 03 13 05 METAR CYVR 130500Z 12007KT 15SM FEW017 BKN040 BKN060 OVC220 09/06 A3013 RMK SF1SC5SC2CI1 VSBY LWR N-E SLP202
2001 03 13 06 METAR CYVR 130600Z 14007KT 15SM FEW015 SCT043 BKN130 OVC220 09/06 A3012 RMK SF2SC2AC2CI2 VSBY LWR N-E SLP198
2001 03 13 07 METAR CYVR 130700Z 13007KT 15SM FEW015 SCT045 BKN130 OVC220 09/06 A3010 RMK SF1SC3AC3CI2 SLP192
2001 03 13 08 METAR CYVR 130800Z 14006KT 20SM FEW015 BKN040 OVC140 08/06 A3008 RMK SF1SC4AC3 SLP186
2001 03 13 09 METAR CYVR 130900Z 15010KT 20SM FEW015 SCT050 OVC130 09/06 A3007 RMK SF1SC2AC5 SLP183
2001 03 13 10 METAR CYVR 131000Z 13009KT 20SM FEW015 SCT050 OVC110 09/06 A3004 RMK SF2SC2AC4 SLP173
2001 03 13 11 METAR CYVR 131100Z 15011KT 15SM FEW015 SCT045 BKN065 OVC110 09/06 A3003 RMK SF1SC2SC2AC2 SLP169
2001 03 13 12 METAR CYVR 131200Z 13009KT 15SM FEW015 SCT045 BKN070 OVC110 09/05 A3000 RMK SF1SC2AC3AC2 SLP158
2001 03 13 13 METAR CYVR 131300Z 15009KT 15SM FEW015 BKN047 OVC075 09/05 A2998 RMK SF1SC5AC2 SLP151
2001 03 13 14 METAR CYVR 131400Z 18016G25KT 15SM OVC045 09/04 A2995 RMK SC8 SLP141
2001 03 13 15 METAR CYVR 131500Z 17022G28KT 20SM FEW023 BKN047 BKN220 09/05 A2992 RMK SF1SC6CI0 SHWRS DSTN ALQDS SLP131
2001 03 13 16 METAR CYVR 131600Z 15015G24KT 20SM -SHRA FEW022 BKN044 OVC220 08/06 A2990 RMK SF2SC6CI0 SLP124
2001 03 13 17 METAR CYVR 131700Z 18010G18KT 20SM FEW021 BKN045 BKN052TCU 10/06 A2989 RMK SF1SC4TCU2 DSTN SHWRS NW-NE SLP121
2001 03 13 18 METAR CYVR 131800Z 22012KT 20SM FEW019 FEW040 SCT052TCU SCT120 BKN220 10/05 A2988 RMK SF1SC2TCU1AC1CI0 CB DSTN SW SLP117
2001 03 13 19 METAR CYVR 131900Z 23022G30KT 20SM FEW020 FEW045TCU SCT120 11/02 A2988 RMK SF1TCU2AC1 CB DSTN SW SLP118
2001 03 13 20 METAR CYVR 132000Z 28013KT 20SM FEW045TCU BKN120 BKN220 11/03 A2991 RMK TCU2AC2CI1 CB WEST SHWRS W SLP127
2001 03 13 21 METAR CYVR 132100Z 28012KT 20SM BKN052TCU BKN120 BKN220 10/02 A2993 RMK TCU5AC2CI0 SLP134
2001 03 13 22 METAR CYVR 132200Z 26010KT 20SM SCT052 BKN120 BKN220 09/02 A2993 RMK CU4AC2CI0 CB ALQDS SLP134
2001 03 13 23 METAR CYVR 132300Z 22008G17KT 30SM FEW050 FEW070 SCT120 BKN220 10/02 A2993 RMK CU2AC1AC1CI2 CB TOPS DSNT W-SE SLP135
2001 03 14 00 METAR CYVR 140000Z 23009KT 30SM FEW050 FEW062 BKN220 10/02 A2994 RMK CU2SC1CI2 CB TOPS DSNT SW-SE AND NW SLP139
2001 03 14 01 METAR CYVR 140100Z 29006KT 30SM FEW055 FEW070 FEW220 09/01 A2997 RMK CU1AC1CI0 CB TOPS DSNT S + NW SHWR NW TR AC SLP148
2001 03 14 02 METAR CYVR 140200Z 25005KT 30SM FEW055 FEW070 FEW220 08/02 A2999 RMK SC1AC1CI1 SHWR MTNS DSNT N SLP156
2001 03 14 03 METAR CYVR 140300Z 30008KT 30SM FEW055 FEW070 07/03 A3000 RMK SC1AC1 SLP160
2001 03 14 02 METAR CYVR 140200Z 25005KT 30SM FEW055 FEW070 FEW220 08/02 A2999 RMK SC1AC1CI1 SHWR MTNS DSNT N SLP156
2001 03 14 05 METAR CYVR 140500Z 28014G19KT 30SM FEW030 08/04 A3008 RMK SC1 SLP184
2001 03 14 06 METAR CYVR 140600Z 29011KT 30SM FEW030 FEW100 06/04 A3012 RMK SC1AC1 SLP199
2001 03 14 07 METAR CYVR 140700Z 00000KT 30SM FEW020 06/03 A3016 RMK SC2 SLP212
2001 03 14 08 METAR CYVR 140800Z 09007KT 30SM FEW020 03/01 A3018 RMK SC2 SLP218
2001 03 14 09 METAR CYVR 140900Z 09005KT 30SM FEW020 04/02 A3021 RMK SC2 SLP228
2001 03 14 10 METAR CYVR 141000Z 02002KT 30SM FEW030 03/01 A3023 RMK SC1 SLP235
2001 03 14 11 METAR CYVR 141100Z 00000KT 30SM FEW030 03/01 A3024 RMK SC1 SLP241
2001 03 14 12 METAR CYVR 141200Z 04003KT 30SM FEW030 FEW055 03/01 A3026 RMK SC1SC2 SLP246
2001 03 14 13 METAR CYVR 141300Z 05002KT 30SM FEW030 FEW055 02/01 A3028 RMK SC1SC2 SLP253
2001 03 14 14 METAR CYVR 141400Z 13003KT 30SM FEW052 SCT073 03/01 A3030 RMK SC2AC2 SLP260
2001 03 14 15 METAR CYVR 141500Z 09004KT 30SM FEW023 BKN058 03/01 A3032 RMK SC1SC6 SLP267
2001 03 14 16 METAR CYVR 141600Z 10004KT 30SM FEW024 BKN056 04/03 A3032 RMK SC1SC4 SLP267
2001 03 14 17 METAR CYVR 141700Z 17003KT 30SM FEW023 FEW047 SCT056 SCT077 BKN230 08/04 A3034 RMK CF1CU1SC2AC1CI0 SLP272
2001 03 14 18 METAR CYVR 141800Z 24007KT 30SM FEW047TCU BKN085 OVC230 08/03 A3035 RMK TCU2AC3CI0 SLP277
2001 03 14 19 METAR CYVR 141900Z 25005KT 30SM SCT035 BKN056 BKN230 08/04 A3036 RMK CU3SC2CI0 TCU ASCTD SHWRS NE SLP279
2001 03 14 20 METAR CYVR 142000Z 27006KT 30SM FEW043TCU SCT085 SCT230 09/04 A3036 RMK TCU2AC1CI0 SLP279
2001 03 14 21 METAR CYVR 142100Z 26005KT 30SM FEW044TCU SCT230 10/03 A3035 RMK TCU2CI0 SLP276
2001 03 14 22 METAR CYVR 142200Z 25005KT 30SM FEW045 FEW080 BKN230 09/02 A3033 RMK CU2AC1CI1 SLP271
2001 03 14 23 METAR CYVR 142300Z 24003KT 30SM FEW045 SCT080 BKN230 10/01 A3032 RMK CU2AC1CI2 SLP266
2001 03 15 00 METAR CYVR 150000Z CCA 21005KT 30SM FEW045 SCT080 BKN230 10/02 A3031 RMK CU2AC1CS3 SLP265
2001 03 15 01 METAR CYVR 150100Z 20005KT 30SM FEW045 BKN230 09/01 A3030 RMK SC2CS5 SLP261
2001 03 15 02 METAR CYVR 150200Z 14004KT 30SM FEW045 BKN200 09/02 A3029 RMK SC2CS4 SLP257
2001 03 15 03 METAR CYVR 150300Z 18004KT 30SM FEW045 BKN180 OVC230 08/03 A3029 RMK SC2AC3CS2 SLP256
2001 03 15 04 METAR CYVR 150400Z 10006KT 30SM FEW045 SCT170 OVC200 07/03 A3028 RMK SC1AC2CS3 SLP254
2001 03 15 05 METAR CYVR 150500Z 09008KT 30SM BKN160 BKN210 06/03 A3025 RMK AC5CI2 SLP244
2001 03 15 06 METAR CYVR 150600Z 09005KT 30SM BKN041 BKN160 07/03 A3024 RMK SC6AC1 SLP241
2001 03 15 07 METAR CYVR 150700Z 07006KT 30SM BKN048 07/03 A3022 RMK SC7 SLP234
2001 03 15 08 METAR CYVR 150800Z 09006KT 30SM BKN060 OVC120 07/03 A3019 RMK SC6AC2 SLP223
2001 03 15 09 METAR CYVR 150900Z 10006KT 30SM FEW030 BKN058 OVC120 06/02 A3016 RMK SC1SC6AC2 SLP213
2001 03 15 10 METAR CYVR 151000Z 10007KT 20SM -RA FEW028 BKN045 OVC070 06/03 A3014 RMK SC2SC4AC2 SLP207
2001 03 15 11 METAR CYVR 151100Z 09006KT 15SM -RA FEW020 SCT032 OVC055 06/03 A3012 RMK SC2SC2SC4 SLP199
2001 03 15 12 METAR CYVR 151200Z 09010KT 12SM -RA FEW020 BKN030 OVC055 05/04 A3010 RMK SC2SC4SC2 SLP191
2001 03 15 13 METAR CYVR 151300Z 09010KT 10SM -RA FEW018 BKN030 OVC055 05/04 A3008 RMK SC2SC4SC2 SLP186
2001 03 15 14 METAR CYVR 151400Z 08012KT 8SM -RA FEW015 OVC033 05/04 A3005 RMK SC2SC6 VRY LGT R SLP177
2001 03 15 15 METAR CYVR 151500Z 09011KT 8SM -RA FEW015 OVC028 05/04 A3003 RMK SC2SC6 SLP170
2001 03 15 16 METAR CYVR 151600Z 08014KT 6SM -RA BR FEW008 BKN020 OVC035 05/03 A3002 RMK SF1SC6SC2 TR SF SLP165
2001 03 15 17 METAR CYVR 151700Z 09014KT 6SM -RA BR FEW008 BKN018 OVC030 05/03 A3001 RMK SF1SC6SC2 SLP163
2001 03 15 18 METAR CYVR 151800Z 10015KT 6SM -RA BR FEW008 BKN018 OVC030 05/04 A3000 RMK SF1SC6SC2 SLP158
2001 03 15 19 METAR CYVR 151900Z 10011KT 6SM -RA BR FEW008 BKN015 OVC030 05/04 A2999 RMK SF2SC6SC1 SLP155
2001 03 15 20 METAR CYVR 152000Z 10012KT 5SM -RA BR FEW008 BKN015 OVC030 05/03 A2997 RMK SF2SC6SC1 SLP150
2001 03 15 21 METAR CYVR 152100Z 11011KT 5SM -RA BR FEW008 BKN020 OVC030 05/03 A2997 RMK SF2SC6SC1 SLP147
2001 03 15 22 METAR CYVR 152200Z 09013KT 6SM -RA BR FEW008 BKN020 OVC030 05/03 A2995 RMK SF2SC6SC1 SLP140
2001 03 15 23 METAR CYVR 152300Z 08011KT 6SM -RA BR FEW007 SCT012 OVC016 05/03 A2994 RMK SF2SF2SC5 SLP138
2001 03 16 00 METAR CYVR 160000Z 06008KT 20SM FEW007 BKN012 BKN025 05/04 A2995 RMK SF2SF3SC2 VSBY LWR N-E CU ASOCTD SLP140
2001 03 16 01 METAR CYVR 160100Z 06011KT 20SM FEW007 FEW015 SCT050 BKN064 06/04 A2995 RMK SF1SF1SC2SC4 MDT CU E-SE SLP142
2001 03 16 02 METAR CYVR 160200Z 07008KT 20SM FEW007 FEW018 BKN036 OVC075 06/03 A2996 RMK SF1SF2SC5AC1 SLP144
2001 03 16 03 METAR CYVR 160300Z 07008KT 20SM FEW007 FEW018 SCT025 BKN040 OVC075 05/03 A2997 RMK SF1SC2SC2SC2AC2 SLP149
2001 03 16 04 METAR CYVR 160400Z 31004KT 10SM -SHRA FEW007 BKN018 OVC040 06/03 A3000 RMK SF1SC6SC1 SLP159
2001 03 16 05 METAR CYVR 160500Z 30003KT 10SM -SHRA FEW007 FEW015 SCT025 BKN040 OVC075 05/04 A3001 RMK SF1SC2SC2SC3AC1 SLP163
2001 03 16 06 METAR CYVR 160600Z 25004KT 12SM FEW007 SCT011 BKN035 06/04 A3002 RMK SF1SC2SC4 SLP167
2001 03 16 07 METAR CYVR 160700Z 21003KT 12SM FEW008 SCT013 OVC025 06/04 A3004 RMK SF2SC2SC4 SLP172
2001 03 16 05 METAR CYVR 160500Z 30003KT 10SM -SHRA FEW007 FEW015 SCT025 BKN040 OVC075 05/04 A3001 RMK SF1SC2SC2SC3AC1 SLP163
2001 03 16 09 METAR CYVR 160900Z 30006KT 15SM FEW007 SCT011 BKN018 BKN030 05/04 A3008 RMK SF1SF2SC2SC2 SLP185
2001 03 16 10 METAR CYVR 161000Z 29005KT 15SM FEW009 SCT017 BKN030 06/04 A3010 RMK SF2SC2SC4 SLP191
2001 03 16 11 METAR CYVR 161100Z 25002KT 15SM FEW009 BKN032 05/03 A3009 RMK SF2SC4 SLP190
2001 03 16 12 METAR CYVR 161200Z 00000KT 15SM FEW010 FEW040 FEW090 BKN230 05/03 A3010 RMK SF1SC2AC1CI1 SLP192
2001 03 16 13 METAR CYVR 161300Z 11003KT 15SM FEW010 FEW040 BKN070 04/03 A3012 RMK SF1SC2AC3 SLP198
2001 03 16 14 METAR CYVR 161400Z 09006KT 15SM FEW010 BKN050 BKN080 04/03 A3011 RMK SF1SC6AC1 SLP197
2001 03 16 15 METAR CYVR 161500Z 10006KT 12SM FEW010 FEW025 BKN038 BKN060 05/04 A3012 RMK SF1SC2SC4SC1 SLP199
2001 03 16 16 METAR CYVR 161600Z 08009KT 10SM FEW010 SCT025 BKN045 BKN060 06/05 A3011 RMK CF1SC2SC3SC1 SLP197
2001 03 16 17 METAR CYVR 161700Z 10008KT 10SM FEW010 FEW020 BKN045 BKN080 OVC170 06/04 A3010 RMK SF1SC2SC4AC1AC1 SLP194
2001 03 16 18 METAR CYVR 161800Z 16009KT 10SM FEW010 FEW015 BKN050 OVC080 07/04 A3010 RMK SF1CU2SC5AC1 SLP194
2001 03 16 19 METAR CYVR 161900Z 18012KT 12SM FEW012 SCT030 BKN050 OVC080 07/03 A3010 RMK CU2SC2SC2AC2 SLP192
2001 03 16 20 METAR CYVR 162000Z 15015G20KT 12SM FEW015 SCT030 BKN050 BKN120 08/04 A3010 RMK CU2SC2SC2AC1 SLP191
2001 03 16 21 METAR CYVR 162100Z 17013KT 12SM -SHRA FEW010 BKN025 OVC080 07/04 A3009 RMK CF2CU2AS2 SLP190
2001 03 16 22 METAR CYVR 162200Z 16010KT 12SM FEW010 SCT020 BKN045 OVC080 08/04 A3006 RMK CF1CU2SC3AC1 OCNL RW- SHWRS SE-W SLP180
2001 03 16 23 METAR CYVR 162300Z 15009KT 15SM FEW020 BKN050 OVC090 08/03 A3006 RMK CU2SC3AS2 SLP179
2001 03 17 00 METAR CYVR 170000Z 13009KT 10SM -RA FEW020 BKN046 OVC090 07/03 A3006 RMK CU2SC5AS2 SLP178
2001 03 17 01 METAR CYVR 170100Z 17007KT 10SM -RA FEW020 BKN035 OVC070 07/03 A3005 RMK CU1SC6AS2 SLP174
2001 03 17 02 METAR CYVR 170200Z 13006KT 10SM -RA FEW020 BKN042 OVC070 07/03 A3003 RMK SF2SC4AS2 SLP170
2001 03 17 03 METAR CYVR 170300Z 08006KT 10SM -RA FEW023 BKN039 OVC070 06/04 A3003 RMK SF2SC4AS2 SLP170
2001 03 17 04 METAR CYVR 170400Z 07007KT 10SM -RA SCT022 OVC039 06/03 A3004 RMK SF3SC5 SLP171
2001 03 17 05 METAR CYVR 170500Z 07008KT 10SM -RA SCT022 BKN040 OVC070 06/04 A3003 RMK SF4SC2AS2 SLP168
2001 03 17 06 METAR CYVR 170600Z 09008KT 6SM -RA BR BKN023 OVC040 06/04 A3003 RMK SF5SC3 SLP170
2001 03 17 07 METAR CYVR 170700Z 09008KT 6SM -RA BR BKN021 OVC040 06/04 A3003 RMK SF6SC2 SLP169
2001 03 17 08 METAR CYVR 170800Z 09006KT 10SM -RA BKN026 OVC043 06/04 A3003 RMK SC5SC3 PCPN VRY LGT SLP170
2001 03 17 09 METAR CYVR 170900Z 08008KT 10SM -RA OVC022 06/04 A3004 RMK SC8 SLP172
2001 03 17 10 METAR CYVR 171000Z 08008KT 12SM OVC023 06/03 A3004 RMK SC8 SLP173
2001 03 17 11 METAR CYVR 171100Z 07008KT 12SM OVC023 06/03 A3004 RMK SC8 SLP171
2001 03 17 12 METAR CYVR 171200Z 06007KT 12SM -RA OVC026 05/03 A3003 RMK SC8 SLP170
2001 03 17 13 METAR CYVR 171300Z 07008KT 12SM -RA OVC027 05/03 A3004 RMK SC8 SLP171
2001 03 17 14 METAR CYVR 171400Z 06006KT 10SM OVC026 05/03 A3004 RMK SC8 SLP171
2001 03 17 15 METAR CYVR 171500Z 08009KT 12SM OVC025 05/03 A3004 RMK SC8 CIG RGD SLP173
2001 03 17 16 METAR CYVR 171600Z 08006KT 12SM SCT024 BKN030 OVC070 06/03 A3004 RMK SF3SC3AC2 SLP171
2001 03 17 17 METAR CYVR 171700Z 09008KT 15SM SCT030 BKN035 OVC070 07/04 A3004 RMK SF3SC2AC2 SLP173
2001 03 17 18 METAR CYVR 171800Z 08008KT 15SM FEW030 SCT045 BKN056 OVC070 07/03 A3005 RMK SF2SF2SC3AC2 SHWRS N SLP175
2001 03 17 19 METAR CYVR 171900Z 08007KT 15SM FEW030 SCT050 BKN075 OVC091 08/03 A3006 RMK SF2SC2AC2AC2 SLP178
2001 03 17 20 METAR CYVR 172000Z 10009KT 15SM SCT030 BKN058 BKN075 OVC090 09/03 A3005 RMK SC4SC2AC2AC1 SLP177
2001 03 17 21 METAR CYVR 172100Z 12009KT 15SM BKN028 BKN055 OVC090 09/03 A3005 RMK SC5SC2AC1 SHWRS N SLP177
2001 03 17 22 METAR CYVR 172200Z CCA 09007KT 12SM -SHRA BKN028 OVC055 09/04 A3005 RMK SC6SC2 SLP175
2001 03 17 23 METAR CYVR 172300Z 09007KT 15SM -SHRA BKN028 OVC050 09/04 A3004 RMK SC7SC1 SHWRS VRY LGT SLP173
2001 03 18 00 METAR CYVR 180000Z 09007KT 15SM -SHRA BKN026 OVC050 09/05 A3004 RMK SC7SC1 SHWRS VRY LGT SLP171
2001 03 18 01 METAR CYVR 180100Z 09006KT 15SM OVC028 09/04 A3003 RMK SC8 SLP170
2001 03 18 02 METAR CYVR 180200Z 09007KT 15SM OVC027 08/05 A3002 RMK SC8 SLP167
2001 03 18 03 METAR CYVR 180300Z 09006KT 12SM -SHRA OVC028 08/05 A3004 RMK SC8 SLP171
2001 03 18 04 METAR CYVR 180400Z 10009KT 10SM -SHRA OVC025 07/05 A3004 RMK SC8 SLP173
2001 03 18 05 METAR CYVR 180500Z 10007KT 12SM -SHRA BKN025 OVC040 07/05 A3005 RMK SC6SC2 SLP174
2001 03 18 06 METAR CYVR 180600Z 09007KT 15SM -SHRA SCT025 OVC039 07/06 A3005 RMK SC3SC5 SHWRS VRY LGT SLP175
2001 03 18 07 METAR CYVR 180700Z 09007KT 15SM -SHRA BKN019 OVC035 07/06 A3005 RMK SF5SC3 SLP177
2001 03 18 08 METAR CYVR 180800Z 09008KT 15SM -SHRA SCT018 OVC044 07/06 A3004 RMK SC3SC5 OCNL -SHRA SLP173
2001 03 18 09 METAR CYVR 180900Z 08006KT 8SM -SHRA BKN016 OVC044 08/06 A3003 RMK SC6SC2 SLP168
2001 03 18 10 METAR CYVR 181000Z 07007KT 8SM -SHRA BKN018 OVC045 08/06 A3000 RMK SC5SC3 SLP159
2001 03 18 11 METAR CYVR 181100Z 08008KT 10SM -RA BKN019 OVC035 08/07 A2997 RMK SC6SC2 SLP149
2001 03 18 12 METAR CYVR 181200Z 09008KT 6SM -RA BR OVC018 07/07 A2995 RMK NS8 SLP141
2001 03 18 13 METAR CYVR 181300Z 10010KT 4SM -RA BR FEW007 OVC018 07/06 A2993 RMK SF2NS6 SLP134
2001 03 18 14 METAR CYVR 181400Z 10011KT 5SM -RA BR FEW007 OVC018 07/06 A2993 RMK SF2NS6 SLP135
2001 03 18 15 METAR CYVR 181500Z 10012KT 6SM -SHRA BR FEW010 OVC016 07/06 A2991 RMK SF2SC6 SLP129
2001 03 18 16 METAR CYVR 181600Z 10012G17KT 2SM -SHRA BR FEW009 OVC014 07/07 A2991 RMK SF2SC6 SLP128
2001 03 18 17 METAR CYVR 181700Z 10013KT 3SM -SHRA BR FEW006 OVC010 08/07 A2991 RMK SF2SC6 SLP127
2001 03 18 18 METAR CYVR 181800Z 10014KT 8SM SCT005 OVC009 08/08 A2989 RMK SF3SC5 SLP123
2001 03 18 19 METAR CYVR 181900Z 12016G22KT 8SM BKN009 BKN015 OVC030 09/08 A2988 RMK SF5SF2SC2 CIG RGD SLP117
2001 03 18 20 METAR CYVR 182000Z 11015G21KT 6SM -SHRA FEW006 BKN010 OVC017 09/08 A2987 RMK SF2SF3SC2 SLP113
2001 03 18 21 METAR CYVR 182100Z 11016KT 10SM FEW011 BKN017 OVC036 09/08 A2984 RMK SF2SF3SC2 SLP106
2001 03 18 22 METAR CYVR 182200Z 12015G20KT 8SM -SHRA SCT011 BKN018 OVC036 10/08 A2982 RMK SF3SF3SC2 SLP097
2001 03 18 23 METAR CYVR 182300Z 14014KT 8SM -SHRA FEW011 SCT020 BKN044 OVC075 11/09 A2980 RMK SF2SF2SC4AC1 SLP092
2001 03 19 00 METAR CYVR 190000Z 14011KT 8SM -SHRA FEW011 SCT025 OVC048 11/09 A2981 RMK SF2SF2SC5 SLP094
2001 03 19 01 METAR CYVR 190100Z 14012KT 8SM -SHRA FEW011 SCT025 BKN050 OVC090 11/09 A2978 RMK SF2SF2SC3AC2 SLP083
2001 03 19 02 METAR CYVR 190200Z 16014KT 12SM FEW011 FEW025 SCT050 BKN075 OVC120 11/08 A2976 RMK SF1SF2SC2AC2AC1 SLP077
2001 03 19 03 METAR CYVR 190300Z 16017KT 12SM FEW011 FEW025 SCT050 BKN075 OVC120 11/08 A2977 RMK SF1SF2SC2AC2AC1 SLP082
2001 03 19 04 METAR CYVR 190400Z 23020KT 12SM FEW015 FEW040 OVC085 10/05 A2980 RMK SF1SC2AC6 SLP092
2001 03 19 05 METAR CYVR 190500Z 27020G25KT 15SM FEW015 SCT045 OVC087 09/04 A2985 RMK SF1SC2AC5 SLP107
2001 03 19 06 METAR CYVR 190600Z 27018G28KT 15SM FEW015 SCT040 BKN090 07/01 A2989 RMK SF1SC2AC2 SLP120
2001 03 19 07 METAR CYVR 190700Z 26016G21KT 15SM FEW015 FEW040 SCT090 07/M01 A2993 RMK SF1SC1AC2 SLP134
2001 03 19 08 METAR CYVR 190800Z 27007KT 20SM FEW015 FEW060 SCT200 06/M01 A2997 RMK SF1SC2CI0 SLP147
2001 03 19 09 METAR CYVR 190900Z 22012KT 20SM FEW030 FEW060 BKN120 06/M00 A2999 RMK SC1SC1AC2 SLP155
2001 03 19 10 METAR CYVR 191000Z 19010G15KT 20SM FEW060 BKN120 06/M00 A3001 RMK SC2AC2 SLP162
2001 03 19 11 METAR CYVR 191100Z 20012KT 20SM FEW057 BKN120 05/M00 A3003 RMK SC2AC2 SLP168
2001 03 19 12 METAR CYVR 191200Z 20014KT 15SM FEW030 BKN065 BKN120 06/M00 A3005 RMK SC2SC4AC1 SLP176
2001 03 19 13 METAR CYVR 191300Z 15006KT 15SM FEW040 BKN075 BKN160 05/00 A3006 RMK SC2AC3AC2 SLP179
2001 03 19 14 METAR CYVR 191400Z 08009KT 15SM FEW035 BKN070 BKN160 04/00 A3008 RMK SC2AC4AC1 SLP186
2001 03 19 15 METAR CYVR 191500Z 17009KT 20SM FEW020 FEW035TCU BKN047 BKN070 06/01 A3010 RMK CF1TCU2SC3AC2 SHWRS N. SLP192
2001 03 19 16 METAR CYVR 191600Z 16006KT 20SM FEW022 FEW035 BKN045TCU BKN070 06/01 A3012 RMK CF1CF2TCU4AC1 SHWRS ALQDS. SLP200
2001 03 19 17 METAR CYVR 191700Z 16012G21KT 20SM FEW022 SCT045TCU BKN065 BKN220 07/03 A3014 RMK CF2TCU2SC2CI1 SHWRS ALQDS. VSBY LWR E. SLP205
2001 03 19 18 METAR CYVR 191800Z 14016KT 15SM FEW015 SCT022CB BKN034TCU BKN065 06/03 A3015 RMK CF2CB2TCU2SC1 SHWRS ALQDS. VSBY LWR W CB. SLP209
2001 03 19 19 METAR CYVR 191900Z 14012G20KT 15SM FEW015 BKN025CB BKN035 BKN065 OVC220 07/03 A3017 RMK CF2CB3SC1SC1CI1 OCNL -SHRA. SLP216
2001 03 19 20 METAR CYVR 192000Z 17012G17KT 10SM -SHRA FEW015 BKN031CB BKN045 OVC060 08/02 A3018 RMK CF2CB2SC2SC2 SLP221
2001 03 19 21 METAR CYVR 192100Z 18014KT 10SM -SHRA FEW015 BKN026TCU BKN045 OVC065 08/03 A3019 RMK CF2TCU2SC2SC2 SLP222
2001 03 19 22 METAR CYVR 192200Z 17014G19KT 10SM -SHRA FEW020 BKN030TCU BKN065 BKN083 07/03 A3018 RMK CU2TCU2SC2AC1 VIS/CIG LWR N-SE SLP221
2001 03 19 23 METAR CYVR 192300Z 17013KT 15SM FEW020 SCT035TCU BKN068 08/03 A3018 RMK CU2TCU2AC3 VIRGA/SHWRS ALQDS SLP220
2001 03 20 19 METAR CYVR 191900Z 14012G20KT 15SM FEW015 BKN025CB BKN035 BKN065 OVC220 07/03 A3017 RMK CF2CB3SC1SC1CI1 OCNL -SHRA. SLP216
2001 03 20 01 METAR CYVR 200100Z 14010KT 15SM FEW020 SCT035 BKN060 08/03 A3019 RMK CU2CU2SC4 SHWRS ALQDS SLP223
2001 03 20 02 METAR CYVR 200200Z 13010KT 12SM -SHRA FEW020 SCT035 BKN062 08/04 A3018 RMK SC2CU2SC4 SLP221
2001 03 20 03 METAR CYVR 200300Z 11007KT 12SM FEW020 SCT035 BKN058 07/05 A3020 RMK SC2SC2SC4 INTMT -SHRA SLP226
2001 03 20 04 METAR CYVR 200400Z 13009KT 12SM FEW018 SCT035 OVC057 08/04 A3021 RMK SC2SC2SC5 SLP231
2001 03 20 05 METAR CYVR 200500Z 08006KT 12SM -SHRA FEW018 SCT030 OVC050 06/05 A3022 RMK SF2SC2SC5 PCPN VRY LGT SLP233
2001 03 20 06 METAR CYVR 200600Z 11005KT 12SM FEW018 SCT030 BKN055 OVC100 07/04 A3023 RMK SF2SC2SC3AC2 SLP235
2001 03 20 07 METAR CYVR 200700Z 06009KT 12SM FEW018 FEW030 BKN055 OVC090 06/04 A3023 RMK SF1SC2SC2AC3 SLP237
2001 03 20 08 METAR CYVR 200800Z 16006KT 12SM FEW020 SCT050 OVC080 06/04 A3024 RMK SC1SC2AC5 SLP239
2001 03 20 09 METAR CYVR 200900Z 09004KT 15SM FEW020 SCT060 OVC100 06/04 A3024 RMK SC1SC3AC4 SLP240
2001 03 20 10 METAR CYVR 201000Z 07004KT 15SM FEW020 BKN054 OVC100 06/04 A3024 RMK SC1SC4AC3 SLP240
2001 03 20 11 METAR CYVR 201100Z 09003KT 12SM -SHRA FEW020 BKN060 OVC092 06/05 A3023 RMK SC1SC5AC2 SLP238
2001 03 20 12 METAR CYVR 201200Z 13004KT 12SM FEW020 BKN055 OVC095 07/04 A3022 RMK SC1SC4AC3 SLP234
2001 03 20 13 METAR CYVR 201300Z 10005KT 12SM FEW020 BKN065 BKN090 07/05 A3022 RMK SC1SC5AC2 SLP234
2001 03 20 14 METAR CYVR 201400Z 15011KT 12SM FEW015 BKN060 BKN140 07/04 A3023 RMK SC1SC4AC1 SLP236
2001 03 20 15 METAR CYVR 201500Z 15013KT 15SM FEW015 BKN060 BKN081 07/04 A3023 RMK SF1SC5AC1 TR SF SLP236
2001 03 20 16 METAR CYVR 201600Z 15012G17KT 20SM FEW015 FEW030 SCT060 SCT075 07/04 A3022 RMK SF1SC2SC1AC1 TR SF SHWRS DSTNT NE SLP234
2001 03 20 17 METAR CYVR 201700Z 16014G19KT 20SM FEW015 FEW030 FEW050 SCT075 08/05 A3023 RMK SF1SC2SC1AC1 TR SF SHWRS DSTNT NE SLP236
2001 03 20 18 METAR CYVR 201800Z 16013KT 20SM FEW015 FEW030 BKN050 BKN075 09/04 A3023 RMK CF1CU2SC2AC1 50 LYR THN SLP238
2001 03 20 19 METAR CYVR 201900Z 17014KT 20SM FEW015 FEW030 FEW050 SCT075 SCT250 10/04 A3023 RMK CF1CU2SC1AC1CI0 SHWRS DSTNT N-NE SLP237
2001 03 20 20 METAR CYVR 202000Z 16012KT 20SM FEW020 FEW040 FEW075 11/05 A3022 RMK CU2SC1AC1 SLP234
2001 03 20 21 METAR CYVR 202100Z 18010KT 20SM FEW020 FEW030TCU 11/05 A3021 RMK CF1TCU2 SLP231
2001 03 20 22 METAR CYVR 202200Z 19014KT 20SM FEW020 FEW030TCU 11/04 A3020 RMK CF1TCU2 SLP226
2001 03 20 23 METAR CYVR 202300Z 20014KT 20SM FEW022 FEW030 12/04 A3019 RMK CU1CU2 TCU ASOCTD SLP222
2001 03 21 00 METAR CYVR 210000Z 20008KT 30SM FEW030 FEW050 11/03 A3019 RMK CU2SC1 TCU ASOCTD SLP222
2001 03 21 01 METAR CYVR 210100Z 31009KT 30SM FEW035 FEW055 10/03 A3018 RMK CU2SC1 TCU ASOCTD N-E SLP221
2001 03 21 02 METAR CYVR 210200Z 31011KT 30SM FEW045 FEW080 08/02 A3018 RMK SC2AC1 TCU DSNT E SLP221
2001 03 21 03 METAR CYVR 210300Z 32006KT 30SM SCT055 08/03 A3020 RMK SC3 SLP227
2001 03 21 04 METAR CYVR 210400Z 29007KT 30SM SCT055 08/03 A3021 RMK SC3 SLP228
2001 03 21 05 METAR CYVR 210500Z 27008KT 30SM SCT060 06/02 A3022 RMK SC2 SLP233
2001 03 21 06 METAR CYVR 210600Z 26010KT 30SM FEW055 06/02 A3023 RMK SC2 SLP236
2001 03 21 07 METAR CYVR 210700Z 29014KT 30SM FEW050 06/04 A3023 RMK SC1 SLP235
2001 03 21 08 METAR CYVR 210800Z 30019KT 30SM FEW040 06/03 A3023 RMK SC1 SLP235
2001 03 21 09 METAR CYVR 210900Z 31015KT 30SM BKN040 05/02 A3024 RMK SC6 SLP240
2001 03 21 10 METAR CYVR 211000Z 32010KT 30SM FEW040 05/01 A3024 RMK SC1 SLP241
2001 03 21 11 METAR CYVR 211100Z 34003KT 30SM FEW040 04/01 A3025 RMK SC1 SLP242
2001 03 21 12 METAR CYVR 211200Z 00000KT 30SM FEW040 03/01 A3025 RMK SC1 SLP243
2001 03 21 13 METAR CYVR 211300Z 30008KT 30SM FEW040 03/00 A3026 RMK SC1 SLP245
2001 03 21 14 METAR CYVR 211400Z 05003KT 30SM FEW020 FEW040 02/M00 A3027 RMK SC1SC1 SLP249
2001 03 21 15 METAR CYVR 211500Z 02004KT 30SM FEW030 02/M00 A3027 RMK SC1 SLP250
2001 03 21 16 METAR CYVR 211600Z 11003KT 30SM FEW030 04/01 A3027 RMK SC2 SLP251
2001 03 21 17 METAR CYVR 211700Z 30006KT 30SM FEW020 FEW030 FEW070 06/02 A3028 RMK CU1SC1AC1 SLP255
2001 03 21 18 METAR CYVR 211800Z 30009KT 30SM FEW020 SCT030 SCT070 06/03 A3030 RMK CU2SC2AC1 SLP260
2001 03 21 19 METAR CYVR 211900Z 30008KT 30SM FEW020 FEW030 FEW250 07/03 A3031 RMK CU1SC1CI0 SLP262
2001 03 21 20 METAR CYVR 212000Z 30011KT 30SM FEW030 FEW250 08/01 A3030 RMK CU1CI0 SLP261
2001 03 21 21 METAR CYVR 212100Z 30012KT 30SM FEW030 FEW250 08/02 A3030 RMK CU1CI0 SLP261
2001 03 21 22 METAR CYVR 212200Z 30012KT 30SM FEW040 FEW250 08/01 A3028 RMK CU1CI0 SLP252
2001 03 21 23 METAR CYVR 212300Z 31011KT 30SM FEW040 FEW250 08/M00 A3026 RMK SC1CI1 TR CLDS SLP248
2001 03 22 00 METAR CYVR 220000Z 29008KT 30SM FEW040 FEW250 09/M01 A3026 RMK SC1CI1 TR CLDS SLP245
2001 03 22 01 METAR CYVR 220100Z 28008KT 30SM FEW040 FEW250 08/01 A3024 RMK SC1CI1 TR CLDS SLP240
2001 03 22 02 METAR CYVR 220200Z 29009KT 30SM FEW040 06/01 A3023 RMK SC1 TR CLD SLP237
2001 03 22 03 METAR CYVR 220300Z 30009KT 30SM FEW080 FEW210 05/00 A3023 RMK AC1CI0 SLP236
2001 03 22 04 METAR CYVR 220400Z 30011KT 30SM SCT180 06/M06 A3022 RMK AC3 SLP234
2001 03 22 05 METAR CYVR 220500Z 31008KT 30SM FEW180 06/02 A3021 RMK AC2 SLP231
2001 03 22 06 METAR CYVR 220600Z 35005KT 30SM FEW180 04/01 A3021 RMK AC2 SLP230
2001 03 22 07 METAR CYVR 220700Z 05002KT 30SM FEW150 SCT180 05/01 A3020 RMK AC2AC2 SLP226
2001 03 22 08 METAR CYVR 220800Z 11004KT 30SM FEW170 BKN210 05/01 A3018 RMK AC2CI4 SLP221
2001 03 22 09 METAR CYVR 220900Z 01002KT 30SM FEW160 BKN210 04/01 A3018 RMK AC2CI3 SLP219
2001 03 22 10 METAR CYVR 221000Z 00000KT 30SM SCT160 BKN210 03/01 A3018 RMK AC3CI3 SLP218
2001 03 22 11 METAR CYVR 221100Z 10002KT 30SM FEW160 BKN210 04/01 A3017 RMK AC2CI2 SLP215
2001 03 22 12 METAR CYVR 221200Z 00000KT 30SM FEW200 03/01 A3016 RMK CI1 SLP213
2001 03 22 13 METAR CYVR 221300Z 16003KT 30SM FEW200 03/01 A3016 RMK CI1 SLP213
2001 03 22 14 METAR CYVR 221400Z 03004KT 30SM FEW030 FEW200 02/00 A3016 RMK SC1CI1 SLP214
2001 03 22 15 METAR CYVR 221500Z 04002KT 30SM FEW030 FEW230 03/01 A3016 RMK CU1CI1 HZ SLP214
2001 03 22 16 METAR CYVR 221600Z 10002KT 20SM FEW030 FEW230 05/02 A3017 RMK CU1CI1 HZ SLP216
2001 03 22 17 METAR CYVR 221700Z 32007KT 20SM FEW030 FEW230 06/02 A3017 RMK CU1CI1 HZ SLP216
2001 03 22 18 METAR CYVR 221800Z 31009KT 20SM FEW015 FEW030 FEW230 07/04 A3018 RMK CF1CU1CI1 HZ SLP218
2001 03 22 19 METAR CYVR 221900Z 31013KT 20SM FEW015 FEW030 08/04 A3018 RMK CF1CU1 HZ SLP218
2001 03 22 20 METAR CYVR 222000Z 30013KT 20SM FEW030 FEW230 08/04 A3017 RMK CU1CI1 HZ SLP217
2001 03 22 21 METAR CYVR 222100Z 30013KT 20SM FEW040 08/04 A3016 RMK CU1 HZ SLP214
2001 03 22 22 METAR CYVR 222200Z 29010KT 30SM FEW040 FEW230 09/03 A3015 RMK CF1CI1 TR CLD SLP210
2001 03 22 23 METAR CYVR 222300Z 28010KT 30SM FEW040 FEW230 09/04 A3014 RMK CF1CI0 TR CF. SLP207
2001 03 23 00 METAR CYVR 230000Z 30012KT 30SM FEW040 FEW230 09/04 A3013 RMK CF1CI0 SLP204
2001 03 23 01 METAR CYVR 230100Z 29009KT 30SM FEW040 FEW230 08/03 A3013 RMK CF1CI1 TR CLD SLP201
2001 03 23 02 METAR CYVR 230200Z 30010KT 30SM FEW230 07/02 A3012 RMK CI1 TR CLD SLP199
2001 03 23 03 METAR CYVR 230300Z 31010KT 30SM FEW250 06/02 A3012 RMK CI0 SLP198
2001 03 23 02 METAR CYVR 230200Z 30010KT 30SM FEW230 07/02 A3012 RMK CI1 TR CLD SLP199
2001 03 23 05 METAR CYVR 230500Z 32009KT 30SM SKC 07/04 A3013 RMK SLP201
2001 03 23 06 METAR CYVR 230600Z 01004KT 30SM SKC 06/02 A3012 RMK SLP200
2001 03 23 07 METAR CYVR 230700Z 00000KT 30SM FEW250 06/03 A3013 RMK CI0 SLP204
2001 03 23 08 METAR CYVR 230800Z 31002KT 20SM FEW250 05/03 A3013 RMK CI0 SLP203
2001 03 23 09 METAR CYVR 230900Z 07002KT 20SM FEW250 03/01 A3014 RMK CI0 FOG BNK DSTNT E SLP205
2001 03 23 10 METAR CYVR 231000Z 00000KT 20SM FEW004 FEW250 04/01 A3014 RMK ST1CI0 TR ST DSTNT S SLP205
2001 03 23 11 METAR CYVR 231100Z 35004KT 20SM FEW250 02/00 A3013 RMK CI0 SLP201
2001 03 23 12 METAR CYVR 231200Z 33003KT 20SM SKC 04/02 A3012 RMK SLP200
2001 03 23 13 METAR CYVR 231300Z 08002KT 20SM SKC 02/00 A3012 RMK SLP200
2001 03 23 14 METAR CYVR 231400Z 01005KT 20SM FEW240 03/01 A3013 RMK CI0 SLP201
2001 03 23 15 METAR CYVR 231500Z 00000KT 20SM BKN240 02/01 A3012 RMK CI1 HZ SLP199
2001 03 23 16 METAR CYVR 231600Z 10002KT 20SM OVC240 06/03 A3013 RMK CI2 HZ SLP202
2001 03 23 17 METAR CYVR 231700Z 08003KT 20SM BKN240 08/03 A3013 RMK CS2 HZ HALO SLP201
2001 03 23 18 METAR CYVR 231800Z 29006KT 20SM BKN210 OVC240 09/02 A3012 RMK CI1CS2 HALO SLP198
2001 03 23 19 METAR CYVR 231900Z 29009KT 20SM SCT210 BKN240 09/04 A3011 RMK CI1CS2 HALO SLP196
2001 03 23 20 METAR CYVR 232000Z 29011KT 30SM SCT210 BKN240 09/04 A3009 RMK CI1CS1 SLP190
2001 03 23 21 METAR CYVR 232100Z 31011KT 30SM FEW210 BKN250 10/04 A3007 RMK CI1CI2 SLP183
2001 03 23 22 METAR CYVR 232200Z 30007KT 30SM FEW210 BKN250 10/04 A3005 RMK CI1CI2 SLP176
2001 03 23 23 METAR CYVR 232300Z 30008KT 30SM SCT210 OVC250 10/04 A3002 RMK CI2CI2 SLP167
2001 03 24 00 METAR CYVR 240000Z 30009KT 30SM SCT210 OVC250 10/05 A3001 RMK CI2CI2 SLP162
2001 03 24 01 METAR CYVR 240100Z 30009KT 30SM FEW210 BKN250 10/04 A3000 RMK CI1CI2 SLP157
2001 03 24 02 METAR CYVR 240200Z 32007KT 30SM FEW210 BKN250 09/04 A2998 RMK CI1CI2 SLP153
2001 03 24 03 METAR CYVR 240300Z 31006KT 30SM FEW210 BKN250 07/04 A2997 RMK CI1CI1 SLP150
2001 03 24 04 METAR CYVR 240400Z 31005KT 30SM FEW160 BKN220 07/04 A2997 RMK AC1CI2 SLP148
2001 03 24 05 METAR CYVR 240500Z 29004KT 30SM FEW160 BKN220 08/05 A2997 RMK AC1CI2 SLP149
2001 03 24 06 METAR CYVR 240600Z 32003KT 30SM BKN220 07/04 A2997 RMK CI3 SLP147
2001 03 24 07 METAR CYVR 240700Z 32002KT 30SM FEW250 07/05 A2996 RMK CI1 SLP146
2001 03 24 08 METAR CYVR 240800Z 36003KT 30SM FEW250 06/04 A2996 RMK CI1 SLP146
2001 03 24 09 METAR CYVR 240900Z 02002KT 30SM FEW250 06/03 A2996 RMK CI1 SLP145
2001 03 24 10 METAR CYVR 241000Z 09005KT 30SM FEW140 FEW250 04/02 A2994 RMK AC1CI0 SLP138
2001 03 24 11 METAR CYVR 241100Z 36004KT 30SM FEW140 SCT250 06/02 A2992 RMK AC2CI0 SLP133
2001 03 24 12 METAR CYVR 241200Z 19002KT 30SM FEW140 FEW250 06/03 A2991 RMK AC1CI0 SLP127
2001 03 24 13 METAR CYVR 241300Z 02004KT 30SM FEW140 FEW250 04/02 A2989 RMK AC1CI1 SLP120
2001 03 24 14 METAR CYVR 241400Z 00000KT 30SM FEW140 BKN250 04/02 A2987 RMK AC1CI2 SLP115
2001 03 24 15 METAR CYVR 241500Z 00000KT 30SM FEW140 OVC210 06/04 A2985 RMK AC2CI3 SLP109
2001 03 24 16 METAR CYVR 241600Z 11002KT 30SM SCT140 BKN210 07/05 A2985 RMK AC4CI2 ACC ASOCTD SLP107
2001 03 24 17 METAR CYVR 241700Z 34003KT 30SM BKN110 OVC210 10/05 A2982 RMK AC5CI2 ACC ASOCTD VIRGA SLP099
2001 03 24 18 METAR CYVR 241800Z 33004KT 20SM BKN120 OVC210 11/06 A2982 RMK AC6CI2 ACC ASOCTD VIRGA N SLP098
2001 03 24 19 METAR CYVR 241900Z 28009KT 20SM BKN110 OVC210 12/05 A2981 RMK AC5CI2 ACC ASOCTD VIRGA N+S SLP095
2001 03 24 20 METAR CYVR 242000Z 31008KT 30SM BKN110 BKN140 OVC210 10/06 A2979 RMK AC5AC2CI2 ACC ASOCTD. VIRGA NE. SLP088
2001 03 24 21 METAR CYVR 242100Z 30010KT 30SM BKN110 BKN150 OVC210 10/07 A2980 RMK AC5AC2CI2 ACC ASOCTD. SLP091
2001 03 24 22 METAR CYVR 242200Z 29007KT 30SM SCT110 BKN160 BKN210 10/07 A2979 RMK AC3AC2CI2 ACC ASOCTD. VIRGA NE-E. SLP086
2001 03 24 23 METAR CYVR 242300Z 32003KT 30SM BKN110 BKN160 OVC210 12/06 A2977 RMK AC5AC2CI1 ACC ASOCTD. VIRGA N-E. SLP081
2001 03 25 00 METAR CYVR 250000Z 27006KT 30SM BKN100 OVC140 13/05 A2974 RMK AC6AC2 VIRGA ALQDS SLP071
2001 03 25 01 METAR CYVR 250100Z 29006KT 30SM BKN095 OVC140 09/07 A2974 RMK AC6AC2 VIRGA S-W-NE SLP069
2001 03 25 02 METAR CYVR 250200Z 31009KT 30SM BKN098 OVC130 09/07 A2973 RMK AC6AC2 SLP068
2001 03 25 03 METAR CYVR 250300Z 30006KT 20SM -RA BKN085 OVC120 09/06 A2976 RMK AC6AC2 SLP077
2001 03 25 04 METAR CYVR 250400Z 03007G17KT 20SM -RA OVC055 10/05 A2976 RMK SC8 SLP079
2001 03 25 05 METAR CYVR 250500Z 08016KT 15SM -RA OVC056 09/07 A2976 RMK SC8 SLP077
2001 03 25 06 METAR CYVR 250600Z 10016KT 20SM FEW055 BKN082 BKN230 11/07 A2977 RMK SC2AC4CI0 SLP082
2001 03 25 07 METAR CYVR 250700Z 11008KT 20SM SCT044 BKN085 BKN230 10/07 A2976 RMK SC3AC2CI1 SLP077
2001 03 25 08 METAR CYVR 250800Z 11006KT 20SM SCT044 BKN085 BKN170 10/07 A2974 RMK SC4AC2AC1 SLP070
2001 03 25 09 METAR CYVR 250900Z 11004KT 20SM -SHRA OVC041 10/08 A2974 RMK SC8 SLP072
2001 03 25 10 METAR CYVR 251000Z 00000KT 20SM -SHRA BKN041 BKN076 OVC140 10/08 A2975 RMK SC5AC2AC2 -SHRA VRY LGT SLP074
2001 03 25 11 METAR CYVR 251100Z 08007KT 20SM SCT041 BKN076 BKN100 10/08 A2974 RMK SC3AC3AC1 -SHRA VRY LGT SLP069
2001 03 25 12 METAR CYVR 251200Z 10006KT 20SM FEW031 BKN041 BKN076 OVC100 10/08 A2975 RMK SC2SC2AC2AC2 SLP074
2001 03 25 13 METAR CYVR 251300Z 13006KT 20SM BKN030 BKN040 OVC075 11/08 A2977 RMK SC5SC2AC1 CIG RGD SLP080
2001 03 25 14 METAR CYVR 251400Z 13004KT 8SM -SHRA FEW015 BKN021 OVC036 10/09 A2979 RMK CF2SC3SC2 RERA SLP088
2001 03 25 15 METAR CYVR 251500Z 11008KT 15SM FEW015 BKN022 BKN057 OVC090 10/09 A2982 RMK CF2SC3SC2AC1 VSBY LWR N SLP099
2001 03 25 16 METAR CYVR 251600Z 14011KT 15SM FEW015 BKN022 BKN047 OVC090 10/08 A2986 RMK CF2SC3SC2AC2 SLP110
2001 03 25 17 METAR CYVR 251700Z 13010KT 15SM FEW015 SCT022 BKN052 BKN090 BKN140 10/08 A2987 RMK CF1SC2SC2AC1AC1 SLP115
2001 03 25 18 METAR CYVR 251800Z 14011G16KT 15SM -SHRA FEW015 FEW030 BKN090 OVC120 11/08 A2989 RMK CF1CU2AC4AC2 CIG VSBY LWR N SLP123
2001 03 25 19 METAR CYVR 251900Z 14012KT 15SM FEW015 SCT035 BKN080 BKN140 11/08 A2991 RMK CF1SC2AC2AC1 SHWRS NW-N SLP127
2001 03 25 20 METAR CYVR 252000Z 14015G20KT 15SM FEW015 SCT028 BKN080 OVC150 12/08 A2992 RMK CF1CU2AC3AC2 SHWRS NE SLP130
2001 03 25 21 METAR CYVR 252100Z 15012G17KT 12SM -SHRA FEW019 BKN028TCU BKN080 11/09 A2994 RMK CF2TCU3AC2 VSBY N 4 SLP137
2001 03 25 22 METAR CYVR 252200Z 13011G17KT 15SM FEW019 BKN028TCU BKN080 BKN230 11/08 A2994 RMK CF2TCU3AC2CI0 SHWRS NE SLP137
2001 03 25 23 METAR CYVR 252300Z 17011KT 30SM FEW019 SCT028TCU BKN080 BKN210 13/07 A2995 RMK CF2TCU2AC2CI0 SLP140
2001 03 26 00 METAR CYVR 260000Z 16006KT 20SM FEW019 SCT028TCU BKN080 OVC230 13/06 A2996 RMK CF2TCU2AC2CI0 SHWRS ALQDS ACC ASOCTD SLP144
2001 03 26 01 METAR CYVR 260100Z 15007KT 20SM FEW020 OVC070 13/05 A2997 RMK CF2AC6 VIRGA ALQDS SLP148
2001 03 26 02 METAR CYVR 260200Z 18014KT 15SM -SHRA FEW020 SCT042TCU OVC054 11/05 A2998 RMK CF2TCU2SC3 SLP153
2001 03 26 03 METAR CYVR 260300Z 19013KT 20SM FEW020 BKN080 OVC240 10/05 A3000 RMK CF2AC6CI1 SHWRS ALQDS SLP160
2001 03 26 04 METAR CYVR 260400Z 21015KT 20SM VCSH FEW020 OVC086 09/04 A3002 RMK CF2AC6 SLP167
2001 03 26 05 METAR CYVR 260500Z 23015KT 20SM FEW020 OVC085 09/03 A3006 RMK CF2AC6 SLP178
2001 03 26 06 METAR CYVR 260600Z 22014KT 20SM FEW020 OVC085 08/03 A3007 RMK CF2AC6 VIRGA SLP183
2001 03 26 07 METAR CYVR 260700Z 23018KT 20SM FEW020 OVC084 08/03 A3008 RMK CF2AC6 SLP186
2001 03 26 08 METAR CYVR 260800Z 23013G19KT 20SM SCT025 OVC087 08/03 A3010 RMK SC3AC5 SLP191
2001 03 26 09 METAR CYVR 260900Z 23010G15KT 20SM FEW025 BKN092 OVC220 07/02 A3010 RMK SC2AC4CI2 SLP194
2001 03 26 10 METAR CYVR 261000Z 11004KT 20SM FEW025 BKN077 BKN140 06/01 A3012 RMK SC2AC3AC1 SLP199
2001 03 26 11 METAR CYVR 261100Z CCA 11004KT 20SM FEW025 BKN077 BKN140 06/02 A3013 RMK SC2AC4AC2 VIRGA OVRHD SLP203
2001 03 26 12 METAR CYVR 261200Z 10005KT 8SM -SHRA SCT023 BKN034 OVC050 06/02 A3014 RMK SC3SC3SC2 SLP205
2001 03 26 13 METAR CYVR 261300Z 10002KT 6SM -SHRA BR SCT016 OVC023 06/02 A3015 RMK SF3SC5 SLP210
2001 03 26 14 METAR CYVR 261400Z 08007KT 10SM -SHRA FEW016 BKN023 BKN050 05/03 A3016 RMK SF2SC3SC2 CLRNG/TCU SW VSBY HIER SW SLP213
2001 03 26 15 METAR CYVR 261500Z 07008KT 15SM FEW009 SCT013 BKN022 BKN090 05/03 A3016 RMK CF1CU3SC2AC1 SHWRS E SLP214
2001 03 26 16 METAR CYVR 261600Z 07007KT 20SM FEW013 FEW022 SCT090 06/04 A3018 RMK CF1CU2AC1 SHWRS N-NE SLP219
2001 03 26 17 METAR CYVR 261700Z 08007KT 20SM SCT011 SCT022 SCT090 06/04 A3020 RMK CF3CU1AC1 SLP227
2001 03 26 18 METAR CYVR 261800Z 00000KT 20SM FEW011 SCT025 SCT090 08/04 A3023 RMK CF2CU1AC1 SLP236
2001 03 26 19 METAR CYVR 261900Z 21004KT 30SM FEW011 FEW025 FEW090 09/02 A3025 RMK CF1CU2AC1 SLP243
2001 03 26 20 METAR CYVR 262000Z 25005KT 30SM FEW011 FEW025 FEW140 09/02 A3026 RMK CF1CU2AC1 SLP248
2001 03 26 21 METAR CYVR 262100Z 22006KT 30SM FEW025 BKN240 10/03 A3027 RMK CU2CI0 VIA YXXFSS SLP249
2001 03 26 22 METAR CYVR 262200Z 25005KT 30SM FEW025 BKN240 11/01 A3027 RMK CU2CI0 SLP249
2001 03 26 23 METAR CYVR 262300Z 26003KT 30SM FEW030 FEW090 BKN220 11/01 A3027 RMK CU2AC1CI1 TR AC VIA YXXFSS SLP251
2001 03 27 00 METAR CYVR 270000Z 30005KT 30SM FEW030 FEW090 BKN220 10/01 A3028 RMK CU2AC1CI1 TCU ASOCTD TR AC SLP252
2001 03 27 01 METAR CYVR 270100Z 28006KT 30SM FEW030 FEW090 BKN220 09/00 A3028 RMK CU1AC1CI1 TCU ASOCTD TR AC SLP252
2001 03 27 02 METAR CYVR 270200Z 27002KT 30SM FEW030TCU FEW120 BKN220 09/00 A3027 RMK TCU1AC1CS2 SLP249
2001 03 27 03 METAR CYVR 270300Z 22004KT 30SM FEW030 BKN220 08/00 A3027 RMK SC2CS1 SLP251
2001 03 27 04 METAR CYVR 270400Z 25011KT 30SM FEW030 BKN220 08/01 A3029 RMK SC1CS2 SLP257
2001 03 27 05 METAR CYVR 270500Z 24009KT 30SM FEW040 BKN220 08/00 A3029 RMK SC1CS3 TR SC SLP258
2001 03 27 06 METAR CYVR 270600Z 25007KT 30SM FEW040 BKN220 07/01 A3031 RMK SC1CS2 SLP263
2001 03 27 04 METAR CYVR 270400Z 25011KT 30SM FEW030 BKN220 08/01 A3029 RMK SC1CS2 SLP257
2001 03 27 08 METAR CYVR 270800Z 04005KT 30SM FEW050 05/01 A3031 RMK SC1 TR CLD SLP263
2001 03 27 09 METAR CYVR 270900Z 09005KT 30SM FEW050 FEW120 03/01 A3030 RMK SC1AC1 TR CLD SLP261
2001 03 27 10 METAR CYVR 271000Z 10008KT 30SM BKN150 03/02 A3029 RMK AC7 SLP257
2001 03 27 11 METAR CYVR 271100Z 09008KT 30SM FEW040 BKN140 04/02 A3028 RMK SC1AC6 TR SC SLP253
2001 03 27 12 METAR CYVR 271200Z 08011KT 30SM FEW040 BKN140 04/01 A3027 RMK SC1AC6 TR SC SLP249
2001 03 27 13 METAR CYVR 271300Z 09010KT 30SM FEW040 FEW060 SCT093 OVC140 04/02 A3025 RMK SC1SC2AC2AC4 TR SC SLP242
2001 03 27 14 METAR CYVR 271400Z 09011KT 20SM BKN040 BKN090 OVC140 05/02 A3022 RMK SC5AC1AC2 VIRGA NE SLP234
2001 03 27 15 METAR CYVR 271500Z 10010KT 20SM SCT038 BKN085 OVC130 05/02 A3020 RMK SC3AC2AC2 SLP225
2001 03 27 16 METAR CYVR 271600Z 10009KT 20SM FEW039 SCT085 OVC130 06/02 A3017 RMK SC2AC1AS5 SLP215
2001 03 27 17 METAR CYVR 271700Z 11014KT 20SM FEW042 BKN080 OVC130 06/02 A3013 RMK SC2AC4AS2 PRESFR SLP202
2001 03 27 18 METAR CYVR 271800Z 11011KT 20SM FEW042 BKN050 OVC080 06/02 A3012 RMK SC2SC5AC2 VIRGA N SLP198
2001 03 27 19 METAR CYVR 271900Z 14016KT 8SM -RA BKN024 OVC050 06/02 A3008 RMK SC6SC2 SLP185
2001 03 27 20 METAR CYVR 272000Z 10015G21KT 4SM -RA BR FEW014 BKN020 OVC030 04/03 A3006 RMK SF2SC4SC2 SLP180
2001 03 27 21 METAR CYVR 272100Z CCA 10021G27KT 3SM -RA BR FEW005 BKN009 OVC020 03/02 A2997 RMK SF1SF5SC2 PRESFR SLP149
2001 03 27 22 METAR CYVR 272200Z 08014G20KT 4SM -RA BR FEW005 BKN009 OVC020 03/02 A2992 RMK SF2SF5SC2 SLP133
2001 03 27 23 METAR CYVR 272300Z 09012G18KT 5SM -RA BR FEW005 BKN011 OVC020 03/01 A2989 RMK SF2SC5SC2 CB ASOCTD SLP121
2001 03 28 00 METAR CYVR 280000Z 08011KT 5SM -RA BR FEW005 BKN018 OVC030 03/02 A2986 RMK SF2SC5SC2 SLP110
2001 03 28 01 METAR CYVR 280100Z 07009KT 8SM -RA FEW008 BKN028 OVC040 04/03 A2984 RMK SF2SC5SC2 SLP105
2001 03 28 02 METAR CYVR 280200Z 08008KT 8SM -RA FEW008 BKN019 BKN035 OVC040 05/03 A2983 RMK SF2SC3SC2SC2 SLP102
2001 03 28 03 METAR CYVR 280300Z 07007KT 6SM -RA BR FEW008 BKN020 OVC030 05/03 A2985 RMK SF2SC6SC1 SLP108
2001 03 28 04 METAR CYVR 280400Z 07007KT 4SM -RA BR FEW006 BKN015 OVC030 05/04 A2987 RMK SF1SC6SC1 VRY LGT R SLP114
2001 03 28 05 METAR CYVR 280500Z 05006KT 5SM -RA BR FEW005 BKN015 OVC025 05/04 A2990 RMK SF1SC6SC1 VRY LGT R SLP125
2001 03 28 06 METAR CYVR 280600Z 05005KT 5SM -DZ BR FEW005 OVC016 05/04 A2992 RMK SF2SC6 SLP131
2001 03 28 07 METAR CYVR 280700Z 00000KT 4SM -DZ BR FEW005 BKN015 OVC020 05/04 A2995 RMK SF2SC4SC2 SLP141
2001 03 28 08 METAR CYVR 280800Z 12003KT 4SM -DZ BR SCT005 BKN010 OVC015 05/04 A2997 RMK SF3SF3SF2 SLP150
2001 03 28 09 METAR CYVR 280900Z 11003KT 4SM -DZ BR SCT004 BKN010 OVC015 05/04 A2999 RMK SF3SF3SF2 VSBY LWR N SLP154
2001 03 28 10 METAR CYVR 281000Z 11003KT 5SM -DZ BR SCT005 BKN011 OVC020 05/04 A3001 RMK SF3SF3SF2 SLP162
2001 03 28 11 METAR CYVR 281100Z 11004KT 5SM -DZ BR SCT005 OVC010 05/04 A3001 RMK SF3SF5 VSBY LWR N SLP162
2001 03 28 12 METAR CYVR 281200Z 00000KT 6SM BR SCT005 OVC015 05/04 A3004 RMK SF3SF5 VSBY LWR N SLP173
2001 03 28 13 METAR CYVR 281300Z 00000KT 6SM -DZ BR SCT005 OVC012 05/05 A3006 RMK SF3SF5 VSBY LWR N SLP180
2001 03 28 14 METAR CYVR 281400Z 00000KT 4SM -DZ BR SCT005 OVC011 05/05 A3007 RMK SF3SF5 VSBY LWR N SLP182
2001 03 28 15 METAR CYVR 281500Z 00000KT 4SM BR FEW005 BKN009 OVC014 06/05 A3009 RMK SF2SF2SC3 SLP189
2001 03 28 16 METAR CYVR 281600Z 00000KT 6SM BR FEW006 BKN010 OVC021 07/05 A3010 RMK SF2SF2SC3 SLP192
2001 03 28 17 METAR CYVR 281700Z 20003KT 8SM FEW006 BKN010 OVC015 07/05 A3011 RMK SF1SF4SC3 CIG + VSBY HIER W SLP196
2001 03 28 18 METAR CYVR 281800Z 24004KT 10SM FEW008 BKN015 OVC020 07/05 A3010 RMK SF2SC4SC2 CIG RGD SLP193
2001 03 28 19 METAR CYVR 281900Z 27004KT 12SM FEW009 BKN016 OVC022 07/05 A3011 RMK SF1SC4SC3 SLP195
2001 03 28 20 METAR CYVR 282000Z 29007KT 15SM BKN023 OVC032 08/05 A3011 RMK CF5CU3 SLP196
2001 03 28 21 METAR CYVR 282100Z 29009KT 15SM FEW008 BKN016 OVC026 08/05 A3012 RMK CF2CF4CU2 SLP198
2001 03 28 22 METAR CYVR 282200Z 28012KT 15SM FEW009 BKN020 OVC030 07/05 A3013 RMK CF2CU4CU2 SLP201
2001 03 28 23 METAR CYVR 282300Z 29015KT 15SM FEW009 SCT022 OVC030 08/05 A3012 RMK CF2SC2SC2 CU ASOCTD SLP200
2001 03 29 00 METAR CYVR 290000Z CCA 28013KT 15SM FEW009 FEW025 BKN070 08/04 A3013 RMK CF2SC1AC1 CU ASOCTD SLP203
2001 03 29 01 METAR CYVR 290100Z 27015KT 20SM FEW009 FEW025 SCT075 07/03 A3013 RMK CF1SC2AC1 SLP202
2001 03 29 02 METAR CYVR 290200Z 27013KT 25SM FEW009 FEW070 07/03 A3013 RMK CF1AC1 SLP202
2001 03 29 03 METAR CYVR 290300Z 28012KT 25SM FEW009 FEW070 FEW150 06/02 A3014 RMK CF1AC1AC1 SLP205
2001 03 29 04 METAR CYVR 290400Z 27009KT 25SM FEW009 FEW070 07/01 A3015 RMK CF1AC2 SLP210
2001 03 29 05 METAR CYVR 290500Z 28008KT 25SM FEW009 BKN070 07/02 A3016 RMK CF1AC3 SLP214
2001 03 29 06 METAR CYVR 290600Z 25006KT 25SM FEW009 SCT070 06/02 A3018 RMK CF1AC2 SLP219
2001 03 29 07 METAR CYVR 290700Z 26006KT 25SM FEW009 SCT068 06/02 A3018 RMK CF1AC2 SLP221
2001 03 29 08 METAR CYVR 290800Z 26006KT 20SM FEW009 FEW030 SCT066 04/01 A3020 RMK CF1SC1AC2 SLP225
2001 03 29 09 METAR CYVR 290900Z 09004KT 20SM FEW030 FEW066 SCT210 03/01 A3020 RMK CF1AC2CI0 SLP225
2001 03 29 10 METAR CYVR 291000Z 11004KT 20SM FEW025 FEW065 SCT210 02/01 A3019 RMK CF1SC2CI0 SLP222
2001 03 29 11 METAR CYVR 291100Z 10005KT 20SM FEW060 FEW210 02/01 A3018 RMK SC1CI1 SLP220
2001 03 29 12 METAR CYVR 291200Z 10004KT 20SM FEW020 FEW060 FEW190 03/02 A3018 RMK CF1SC1CI1 SLP219
2001 03 29 13 METAR CYVR 291300Z 07003KT 20SM FEW020 SCT120 BKN190 03/02 A3018 RMK SF2AC2CI1 SLP219
2001 03 29 14 METAR CYVR 291400Z 08006KT 20SM FEW015 FEW030 SCT120 OVC220 03/02 A3016 RMK CF1SC2AC2CS0 SLP214
2001 03 29 15 METAR CYVR 291500Z 09006KT 20SM FEW015 FEW030 SCT060 BKN086 OVC180 04/03 A3015 RMK CF1SC1SC2AC3AS2 SLP210
2001 03 29 16 METAR CYVR 291600Z 08006KT 20SM FEW015 FEW030 BKN057 OVC085 05/03 A3015 RMK CF1SC1SC5AC2 SLP211
2001 03 29 17 METAR CYVR 291700Z 11005KT 20SM FEW015 SCT055 OVC085 06/03 A3015 RMK CF1SC3AC5 VIRGA NW-NE SLP208
2001 03 29 18 METAR CYVR 291800Z 16005KT 20SM FEW020 FEW050 BKN072 OVC110 07/02 A3014 RMK CF1SC2AC5AS2 PCPN NW-NE SLP206
2001 03 29 19 METAR CYVR 291900Z 13005KT 10SM -RA FEW022 BKN050 OVC075 07/03 A3014 RMK CF2SC5AC2 SLP205
2001 03 29 20 METAR CYVR 292000Z 15007KT 8SM -RA FEW012 BKN023 OVC045 06/04 A3013 RMK SF1SC6SC2 CU EMBDD SLP202
2001 03 29 21 METAR CYVR 292100Z 11009KT 5SM -RA BR FEW012 BKN023 OVC045 06/05 A3010 RMK SF2SC6SC1 SLP194
2001 03 29 22 METAR CYVR 292200Z 15010KT 7SM -RA FEW012 BKN027 BKN045 OVC080 06/04 A3009 RMK SF2SC4SC2AC1 VSBY W 15 SLP188
2001 03 29 23 METAR CYVR 292300Z 15013KT 10SM FEW012 BKN048 BKN080 07/04 A3005 RMK CF2SC4AC2 SLP177
2001 03 30 00 METAR CYVR 300000Z 16013KT 12SM FEW012 BKN040 OVC080 07/04 A3003 RMK CF2SC5AC2 SLP170
2001 03 30 01 METAR CYVR 300100Z 17012G19KT 15SM FEW012 BKN041 BKN080 07/04 A3002 RMK CF1SC5AC2 SLP164
2001 03 30 02 METAR CYVR 300200Z 18015KT 12SM -SHRA FEW012 BKN035 BKN045 BKN080 08/04 A3001 RMK SF1SC5SC2AC1 TR SF SLP161
2001 03 30 03 METAR CYVR 300300Z 16003KT 12SM FEW012 SCT020TCU BKN030 BKN080 07/04 A3002 RMK SF1TCU2SC3AC1 OCNL RW SLP164
2001 03 30 04 METAR CYVR 300400Z 06004KT 12SM FEW015 SCT030 BKN085 05/04 A3005 RMK SF1SC2AC4 SLP175
2001 03 30 05 METAR CYVR 300500Z 01003KT 15SM FEW012 FEW030 SCT080 04/03 A3006 RMK SF1SC2AC2 SLP179
2001 03 30 06 METAR CYVR 300600Z 34002KT 15SM BKN017 BKN080 04/03 A3008 RMK SC5AC2 SLP186
2001 03 30 07 METAR CYVR 300700Z 31005KT 15SM SCT015 BKN080 05/03 A3010 RMK SC4AC2 SLP191
2001 03 30 08 METAR CYVR 300800Z 32011KT 15SM FEW015 FEW080 05/03 A3011 RMK SF2AC1 SLP195
2001 03 30 09 METAR CYVR 300900Z 01004KT 15SM FEW015 05/03 A3013 RMK SF2 SLP201
2001 03 30 10 METAR CYVR 301000Z 00000KT 15SM FEW012 SCT021 04/02 A3016 RMK SF2SF2 SLP212
2001 03 30 11 METAR CYVR 301100Z 04004KT 15SM FEW012 FEW025 SCT210 02/01 A3017 RMK SF2SF1CI1 SLP216
2001 03 30 12 METAR CYVR 301200Z 35003KT 15SM FEW025 BKN036 BKN240 03/02 A3019 RMK SF1ST4CI2 SLP224
2001 03 30 13 METAR CYVR 301300Z 00000KT 15SM FEW031 SCT060 BKN240 03/02 A3021 RMK SF2SC2CI2 SLP230
2001 03 30 14 METAR CYVR 301400Z 09004KT 30SM FEW034 BKN060 BKN240 03/02 A3023 RMK SF1SC4CI1 SLP238
2001 03 30 15 METAR CYVR 301500Z 07003KT 30SM BKN020 BKN060 05/02 A3024 RMK SC6SC1 SLP241
2001 03 30 16 METAR CYVR 301600Z 36002KT 30SM SCT020 SCT030 OVC240 05/03 A3025 RMK SC3SF1CI0 SLP242
2001 03 30 17 METAR CYVR 301700Z 30003KT 30SM FEW010 FEW020 FEW035 BKN240 07/03 A3025 RMK CF1SC1SF1CI0 SLP244
2001 03 30 18 METAR CYVR 301800Z 28004KT 30SM BKN020 BKN240 08/04 A3027 RMK CU5CI0 SLP249
2001 03 30 19 METAR CYVR 301900Z 25002KT 30SM FEW020 BKN240 09/05 A3027 RMK CU2CI1 SLP249
2001 03 30 20 METAR CYVR 302000Z 26008KT 30SM FEW020 BKN240 09/04 A3028 RMK CU2CI1 SLP252
2001 03 30 21 METAR CYVR 302100Z 26007KT 30SM FEW020 BKN240 09/04 A3026 RMK CU2CI1 SLP248
2001 03 30 22 METAR CYVR 302200Z 24007KT 30SM FEW030 BKN240 09/04 A3025 RMK CU2CI2 SLP243
2001 03 30 23 METAR CYVR 302300Z 26003KT 30SM FEW037 SCT220 OVC300 10/04 A3024 RMK CU1CI2CI2 TR CU SLP239
2001 03 31 00 METAR CYVR 310000Z 25006KT 30SM FEW037 SCT220 OVC300 10/05 A3021 RMK CU1CI2CI3 TR CU SLP231
2001 03 31 01 METAR CYVR 310100Z 26004KT 30SM FEW037 FEW095 SCT220 OVC300 09/05 A3021 RMK CU1AC1CI3CI3 TR CU+AC SLP228
2001 03 31 02 METAR CYVR 310200Z 32002KT 30SM FEW037 FEW095 SCT220 OVC300 09/04 A3020 RMK SC1AC1CI2CI3 TR SC SLP225
2001 03 31 03 METAR CYVR 310300Z 00000KT 30SM FEW037 FEW095 BKN220 OVC300 08/03 A3018 RMK SC1AC2CI2CI2 TR SC SLP220
2001 03 31 04 METAR CYVR 310400Z 05008KT 20SM FEW035 SCT120 BKN230 OVC300 08/04 A3016 RMK SC1AC4CI1CI2 TR SC SLP213
2001 03 31 05 METAR CYVR 310500Z 06007KT 20SM BKN130 BKN230 OVC300 09/04 A3016 RMK AC5CI2CI1 SLP213
2001 03 31 06 METAR CYVR 310600Z 09006KT 20SM FEW042 BKN110 OVC230 08/04 A3014 RMK SC2AC4CI1 SLP206
2001 03 31 07 METAR CYVR 310700Z 08006KT 20SM FEW042 BKN110 OVC230 08/04 A3013 RMK SC2AC4CI1 SLP201
2001 03 31 08 METAR CYVR 310800Z 09007KT 20SM -SHRA SCT042 BKN062 OVC110 08/04 A3011 RMK SC3SC3AC2 SLP195
2001 03 31 09 METAR CYVR 310900Z 09009KT 15SM -SHRA BKN040 BKN062 OVC100 07/04 A3008 RMK SC5SC2AC2 SLP185
2001 03 31 10 METAR CYVR 311000Z 10006KT 12SM -SHRA FEW030 BKN040 OVC060 07/04 A3005 RMK SC2SC5SC2 SLP175
2001 03 31 11 METAR CYVR 311100Z 09007KT 10SM -RA BKN020 OVC040 06/05 A3002 RMK SF6SC2 SLP165
2001 03 31 12 METAR CYVR 311200Z 08006KT 7SM -RA FEW015 BKN020 OVC040 07/06 A3000 RMK SF2SF5SC2 SLP157
2001 03 31 13 METAR CYVR 311300Z 10006KT 5SM -RA BR FEW008 OVC018 07/06 A2997 RMK SF2SF6 VSBY LWR N SLP148
2001 03 31 14 METAR CYVR 311400Z 09008KT 6SM -RA BR FEW005 BKN017 OVC042 06/05 A2995 RMK SF2SC6SC1 SLP140
2001 03 31 15 METAR CYVR 311500Z CCA 08010KT 12SM FEW005 BKN015 OVC020 06/05 A2993 RMK SF2SC5SC2 INTMT -RA SLP134
2001 03 31 16 METAR CYVR 311600Z 09011KT 10SM -RA FEW005 OVC011 06/05 A2992 RMK SF2SC6 RA VRY LGT SLP130
2001 03 31 13 METAR CYVR 311300Z 10006KT 5SM -RA BR FEW008 OVC018 07/06 A2997 RMK SF2SF6 VSBY LWR N SLP148
2001 03 31 18 METAR CYVR 311800Z 09010KT 8SM -RA FEW003 BKN007 OVC012 07/06 A2989 RMK SF1SF6SC2 -RA INTMT SLP121
2001 03 31 19 METAR CYVR 311900Z 11010KT 6SM BR FEW003 BKN005 BKN009 OVC012 08/07 A2988 RMK SF2SF4SF2SC1 INTMT -RA SLP119
2001 03 31 20 METAR CYVR 312000Z 13008KT 8SM -SHRA FEW003 BKN008 OVC020 10/08 A2987 RMK CF1CF6SC2 CU ASOCTD VSBY SW 20 SLP114
2001 03 31 21 METAR CYVR 312100Z 16011KT 20SM FEW004 SCT014 BKN033 BKN250 11/08 A2984 RMK CF1CU2SC3CI1 VSBY + CIG LWR N-NE IN SHWRS SLP105
2001 03 31 22 METAR CYVR 312200Z 18009G15KT 20SM FEW005 FEW014TCU BKN033 BKN075 BKN250 12/08 A2983 RMK CF1TCU2SC2AC2CI1 CB NW MVG E VSBY + CIG LWR N-E SLP100
2001 03 31 23 METAR CYVR 312300Z 23009KT 20SM -SHRA FEW005 FEW013 SCT042TCU BKN072 BKN140 OVC250 12/08 A2982 RMK SF1CF1TCU2AC2AC2CI1 SHRA VRY LGT + INTMT BINOVC
2001 03 31 P0 METAR      SE SLP097
2001 04 01 00 METAR CYVR 010000Z 26006KT 20SM FEW005 FEW013 BKN043TCU BKN067 BKN140 OVC250 11/09 A2982 RMK SF1CF2TCU2SC2AC1CI1 BINOVC SLP097
2001 04 01 01 METAR CYVR 010100Z 32011KT 20SM FEW014 BKN044 BKN070 BKN250 10/08 A2983 RMK CF2SC2AC2CI0 TCU EMBDD CB SE SLP100
2001 04 01 02 METAR CYVR 010200Z 29023G28KT 20SM -SHRA FEW009 FEW012 BKN034CB BKN046 OVC070 08/07 A2986 RMK SF1SC2CB4SC2AC1 TR SF BINOVC SE MAMMA HVY SHRA N
METAR      SLP110
CYVR 010300Z 28021G27KT 20SM FEW009 FEW013 FEW040 SCT078 BKN250 07/05 A2988
     RMK CF1SF1SC2AC1CI1 TR CF CU EMBDD SLP117
CYVR 010400Z 26021G28KT 20SM FEW009 FEW013 BKN040 BKN061 BKN078 OVC250
     08/04 A2990 RMK CF1SF1SC4SC1AC0CI0 TR CF CU EMBDD SLP124
CYVR 010500Z 26021G26KT 20SM FEW015 FEW040 BKN060 BKN090 BKN250 08/04 A2993
     RMK SF1SC1SC3AC1CI0 SLP134
CYVR 010600Z 26020G25KT 20SM FEW015 FEW040 BKN066 BKN090 BKN250 08/04 A2995
     RMK SF1SC2SC2AC1CI0 SLP140
CYVR 010700Z 26017KT 15SM FEW017 FEW035 BKN072 BKN090 07/03 A2997 RMK
     SF1SC2AC4AC2 CU EMBDD SLP147
CYVR 010800Z 26014KT 15SM FEW017 BKN056 07/01 A2998 RMK SF1SC5 SLP151
CYVR 010900Z 27010G15KT 20SM FEW017 BKN057 OVC070 07/02 A2999 RMK SF1SC6AC2
     SLP155
CYVR 011000Z 29016KT 20SM FEW015 BKN055 OVC077 06/01 A2999 RMK SF1SC5AC2
     SLP155
CYVR 011100Z 29014KT 15SM -SHRA FEW015 BKN044 OVC080 06/02 A2999 RMK
     SF1SC6AC2 SLP156
CYVR 011200Z 30012KT 15SM -SHRA FEW015 BKN041 OVC080 06/01 A2998 RMK
     SF1SC6AC2 SLP151
CYVR 011300Z 29011KT 15SM FEW015 BKN041 OVC080 06/02 A2997 RMK SF1SC6AC2
     OCNL -SHRA SLP149
CYVR 011400Z 29013KT 15SM FEW015 BKN041 OVC060 05/01 A2997 RMK SF1SC6SC1
     SHWRS MTNS N VIRGA ALQDS SLP148
CYVR 011500Z 29011KT 20SM FEW015 BKN041 OVC060 06/02 A2996 RMK SF1SC7SC1
     SHWRS MTNS N SLP144
CYVR 011600Z 28012KT 20SM FEW015 SCT040 OVC061 06/01 A2996 RMK SF1SC3SC4
     SLP145
CYVR 011700Z 28011KT 30SM FEW015 SCT040 OVC060 06/01 A2996 RMK CF1SC2SC5 CU
     ASOCTD SHWRS MTNS N SLP146
CYVR 011800Z 30009KT 30SM FEW015 FEW060 OVC250 08/01 A2996 RMK CU2SC1CI1
     SHWRS MTNS N SLP144
CYVR 011900Z 27009KT 30SM FEW018 BKN250 07/02 A2995 RMK CU2CI1 CU DVLPG
     SLP143
CYVR 012000Z 27009KT 30SM FEW025 SCT250 08/02 A2994 RMK CU2CI1 TCU ASOCTD
     CB TOPS DSNT S + W SLP138
CYVR 012100Z 25008KT 30SM FEW030 FEW250 08/02 A2992 RMK CU1CI1 TCU ASOCTD
     CB TOPS W + NW SLP133
CYVR 012200Z 24009KT 30SM FEW030CB FEW250 08/M00 A2991 RMK CB2CI1 SLP128
CYVR 012300Z 26008KT 30SM FEW035 FEW250 09/M01 A2990 RMK CU2CI0 TCU ASOCTD
     CB TPS SW SLP126
2001 04 02 00 METAR CYVR 020000Z 23012KT 30SM FEW035 FEW250 08/02 A2990 RMK CU2CI0 ISOL TCU ASOCTD CB TP SW SLP125
2001 04 02 01 METAR CYVR 020100Z 24009KT 30SM FEW030 SCT250 07/01 A2989 RMK CU2CI0 TCU ASOCTD SLP121
2001 04 02 02 METAR CYVR 020200Z 27007KT 30SM FEW025 FEW080 SCT250 06/01 A2988 RMK CU2AC1CI0 TCU ASOCTD SLP118
2001 04 02 03 METAR CYVR 020300Z 27006KT 30SM FEW025 FEW080 FEW250 05/02 A2987 RMK CU1AC1CI0 SLP115
2001 04 02 04 METAR CYVR 020400Z 29004KT 30SM FEW150 FEW250 05/02 A2987 RMK AC1CI0 SLP115
2001 04 02 05 METAR CYVR 020500Z 35002KT 30SM FEW250 05/01 A2987 RMK CI0 SLP114
2001 04 02 06 METAR CYVR 020600Z 03003KT 30SM FEW150 FEW250 04/01 A2986 RMK AC1CI0 SLP110
2001 04 02 07 METAR CYVR 020700Z 09002KT 30SM FEW120 FEW170 BKN250 04/01 A2985 RMK AC2AC1CI0 SLP107
2001 04 02 08 METAR CYVR 020800Z 09002KT 30SM FEW130 SCT170 BKN250 03/00 A2984 RMK AC2AC1CI0 SLP105
2001 04 02 09 METAR CYVR 020900Z 06003KT 30SM FEW120 FEW250 03/M00 A2984 RMK AC1CI0 SLP106
2001 04 02 10 METAR CYVR 021000Z 08003KT 30SM FEW120 BKN250 03/00 A2984 RMK AC1CI0 SLP105
2001 04 02 11 METAR CYVR 021100Z 03004KT 30SM FEW020 FEW130 BKN250 02/00 A2984 RMK SC1AC2CI0 SLP106
2001 04 02 12 METAR CYVR 021200Z 13003KT 30SM FEW030 FEW130 BKN250 03/M00 A2984 RMK SC1AC2CI0 SLP106
2001 04 02 13 METAR CYVR 021300Z 03002KT 30SM FEW030 FEW120 BKN250 01/M01 A2985 RMK SC1AC2CI1 SLP108
2001 04 02 14 METAR CYVR 021400Z 03003KT 30SM FEW020 FEW030 FEW120 SCT180 BKN250 02/M01 A2986 RMK SC1SC1AC1AC1CI1 TCU SW SLP110
2001 04 02 15 METAR CYVR 021500Z 12003KT 30SM FEW020 SCT080 BKN250 03/M00 A2987 RMK SC2AC2CI2 TCU SW VSBY LWR E SLP114
2001 04 02 16 METAR CYVR 021600Z 34002KT 30SM FEW020 SCT070 BKN250 04/01 A2988 RMK SC2AC1CI1 TCU SW VSBY LWR E-SE SLP118
2001 04 02 17 METAR CYVR 021700Z 30007KT 30SM FEW020 BKN083 BKN250 06/02 A2988 RMK SC2AC2CI1 TCU SW SLP118
2001 04 02 18 METAR CYVR 021800Z 30014KT 30SM FEW020 SCT083 BKN250 07/03 A2988 RMK SC1AC2CI0 SLP119
2001 04 02 19 METAR CYVR 021900Z 29019KT 30SM FEW020 FEW080 SCT240 08/04 A2988 RMK CU2AC1CI0 TCU SLP117
2001 04 02 20 METAR CYVR 022000Z 29019KT 30SM FEW020 SCT080 BKN250 08/04 A2988 RMK CU2AC1CI0 TCU ASOCTD SLP118
2001 04 02 21 METAR CYVR 022100Z 30019KT 30SM FEW020TCU SCT080 BKN250 09/04 A2988 RMK TCU2AC2CI0 SHWRS NE SLP119
2001 04 02 22 METAR CYVR 022200Z 30016KT 30SM FEW035TCU SCT120 BKN240 09/04 A2989 RMK TCU2AC1CI2 CB NW + NE-SE SHRA N-E SLP120
2001 04 02 23 METAR CYVR 022300Z 31013KT 30SM FEW035TCU SCT100 BKN240 10/04 A2989 RMK TCU2AC1CI1 CB ALQDS XCEPT S HVR SHSNRA N-E SLP122
2001 04 03 00 METAR CYVR 030000Z 29009KT 30SM FEW038TCU FEW055 BKN100 BKN240 09/02 A2990 RMK TCU2SC1AC2CI2 CB NW+E-SE SHRA+VIRGA E SLP124
2001 04 03 01 METAR CYVR 030100Z 29007KT 30SM FEW038TCU FEW055 FEW100 SCT240 09/02 A2990 RMK TCU1SC1AC1CI0 TR SC CB E+SE+SW SLP124
2001 04 03 02 METAR CYVR 030200Z 27008KT 30SM FEW038TCU FEW055 FEW095 FEW240 08/03 A2990 RMK TCU1SC1AC1CI0 TR SC+AC ACC+CB ASOCTD SLP126
2001 04 03 03 METAR CYVR 030300Z 27005KT 30SM FEW035 FEW120 SCT240 07/04 A2992 RMK SC1AC1CI0 TR SC TCU DSTNT S SLP131
2001 04 03 04 METAR CYVR 030400Z 32002KT 30SM FEW035 FEW120 FEW240 07/03 A2993 RMK SC1AC1CI1 TR CLDS SLP135
2001 04 03 05 METAR CYVR 030500Z 08005KT 30SM FEW035 FEW120 FEW240 06/02 A2994 RMK SC1AC1CI1 TR CLDS SLP138
2001 04 03 06 METAR CYVR 030600Z 08005KT 30SM FEW120 FEW240 05/00 A2995 RMK AC1CI1 TR CLDS SLP140
2001 04 03 07 METAR CYVR 030700Z 09007KT 30SM SKC 03/00 A2996 RMK SLP144
2001 04 03 08 METAR CYVR 030800Z 06006KT 30SM SKC 04/M00 A2997 RMK SLP147
2001 04 03 09 METAR CYVR 030900Z 01006KT 30SM FEW020 03/M00 A2997 RMK SF1 SLP150
2001 04 03 10 METAR CYVR 031000Z 01003KT 30SM FEW018 FEW120 03/M00 A2998 RMK SF1AC1 SLP153
2001 04 03 11 METAR CYVR 031100Z 07002KT 20SM FEW017 03/M01 A3000 RMK SF2 SLP157
2001 04 03 12 METAR CYVR 031200Z 08003KT 20SM FEW017 SCT120 02/M00 A3000 RMK SF2AC2 SLP159
2001 04 03 13 METAR CYVR 031300Z 07002KT 20SM FEW017 FEW120 SCT240 02/00 A3002 RMK SF2AC1CI1 SLP164
2001 04 03 14 METAR CYVR 031400Z 06003KT 20SM SCT017 SCT120 BKN240 03/00 A3003 RMK SF3AC1CI1 TR CI SLP168
2001 04 03 15 METAR CYVR 031500Z 02003KT 20SM SCT017 BKN097 BKN240 03/00 A3004 RMK SC3AC2CI1 SLP173
2001 04 03 16 METAR CYVR 031600Z 08003KT 20SM FEW017 SCT076 BKN097 BKN240 05/02 A3006 RMK SC2AC2AS2CI1 SLP178
2001 04 03 17 METAR CYVR 031700Z 00000KT 20SM FEW017 BKN079 BKN240 07/02 A3007 RMK SC2AC2CI1 SLP183
2001 04 03 18 METAR CYVR 031800Z 24003KT 20SM FEW020 SCT080 BKN240 07/03 A3008 RMK SC2AC2CS2 SLP187
2001 04 03 19 METAR CYVR 031900Z 29007KT 20SM FEW025 SCT080 BKN240 08/02 A3009 RMK CU2AC2CI1 VSBY LWR E HZ SLP188
2001 04 03 20 METAR CYVR 032000Z 29009KT 30SM FEW025 FEW085 FEW180 BKN240 08/04 A3009 RMK CU1AC1AS1CI1 SLP188
2001 04 03 21 METAR CYVR 032100Z 28006KT 30SM FEW035 FEW085 FEW120 BKN240 09/03 A3009 RMK CU1AC1AC1CI1 VSBY LWR E HZ SLP189
2001 04 03 22 METAR CYVR 032200Z 27004KT 30SM FEW035 FEW120 BKN240 09/04 A3009 RMK CU1AC1CI2 SLP190
2001 04 03 23 METAR CYVR 032300Z 28007KT 30SM FEW040 FEW120 BKN240 10/04 A3010 RMK CU1AC1CI2 SLP191
2001 04 04 00 METAR CYVR 040000Z 23004KT 30SM FEW040 FEW120 SCT240 10/04 A3010 RMK CU1AC1CI1 SLP193
2001 04 04 01 METAR CYVR 040100Z 20004KT 30SM FEW040 FEW120 SCT240 10/03 A3011 RMK CU1AC1CI2 SLP197
2001 04 04 02 METAR CYVR 040200Z 19006KT 30SM FEW040 FEW130 SCT240 11/02 A3012 RMK SC1AC1CI1 SLP200
2001 04 04 03 METAR CYVR 040300Z 18005KT 30SM FEW040 FEW130 FEW240 09/03 A3014 RMK SC1AC1CI1 SLP206
2001 04 04 04 METAR CYVR 040400Z 15004KT 30SM FEW130 SCT240 09/03 A3016 RMK AC1CI1 SLP213
2001 04 04 05 METAR CYVR 040500Z 10005KT 30SM FEW120 FEW240 06/02 A3018 RMK AC1CI1 SLP221
2001 04 04 06 METAR CYVR 040600Z 09007KT 30SM FEW120 06/03 A3019 RMK AC1 SLP224
2001 04 04 07 METAR CYVR 040700Z 09006KT 30SM SKC 05/02 A3019 RMK SLP223
2001 04 04 08 METAR CYVR 040800Z 09006KT 30SM FEW110 04/01 A3020 RMK AC1 TR CLD SLP226
2001 04 04 09 METAR CYVR 040900Z 09004KT 30SM SKC 03/00 A3021 RMK SLP230
2001 04 04 10 METAR CYVR 041000Z 09005KT 30SM FEW110 04/00 A3022 RMK AC1 TR CLD SLP233
2001 04 04 11 METAR CYVR 041100Z 09007KT 30SM FEW110 03/00 A3022 RMK AC1 TR CLD SLP234
2001 04 04 12 METAR CYVR 041200Z 10005KT 30SM SKC 02/00 A3023 RMK SLP237
2001 04 04 13 METAR CYVR 041300Z 08006KT 30SM SKC 02/M00 A3024 RMK SLP241
2001 04 04 14 METAR CYVR 041400Z 09008KT 30SM FEW015 02/00 A3025 RMK SF2 SLP244
2001 04 04 15 METAR CYVR 041500Z 10006KT 30SM FEW015 05/02 A3026 RMK SC2 SLP245
2001 04 04 16 METAR CYVR 041600Z 11008KT 30SM FEW018 BKN240 07/03 A3026 RMK SC2CI1 SLP246
2001 04 04 17 METAR CYVR 041700Z 14008KT 30SM FEW019 SCT240 09/04 A3026 RMK CU2CI0 SLP248
2001 04 04 18 METAR CYVR 041800Z 14007KT 30SM FEW020 SCT240 10/05 A3026 RMK CU2CI0 SLP245
2001 04 04 19 METAR CYVR 041900Z 12007KT 30SM FEW025 BKN180 10/04 A3023 RMK CU2AC2 SLP238
2001 04 04 20 METAR CYVR 042000Z 14007KT 30SM FEW025 SCT170 BKN240 11/04 A3021 RMK CU1AC1CI1 SLP231
2001 04 04 21 METAR CYVR 042100Z 15006KT 30SM FEW030 SCT180 BKN240 12/04 A3018 RMK CU1AC1CI1 SLP221
2001 04 04 22 METAR CYVR 042200Z 16006KT 30SM FEW030 SCT150 BKN240 12/05 A3016 RMK CU1AC2CI1 SLP213
2001 04 04 23 METAR CYVR 042300Z 12005KT 30SM FEW030 SCT170 BKN240 12/05 A3014 RMK SC1AC2CI1 SLP205
2001 04 05 00 METAR CYVR 050000Z 17006KT 30SM FEW040 SCT085 BKN240 12/04 A3013 RMK SC1AC2CI2 SLP202
2001 04 05 01 METAR CYVR 050100Z 13005KT 20SM FEW040 BKN080 BKN240 11/03 A3011 RMK SC1AC4CI2 SLP196
2001 04 05 02 METAR CYVR 050200Z 13003KT 20SM FEW050 SCT085 BKN240 11/04 A3010 RMK SC2AC2CI2 SLP192
2001 04 05 03 METAR CYVR 050300Z 10004KT 20SM FEW065 SCT085 BKN140 OVC240 10/03 A3010 RMK SC2AC2AC2CI2 SLP191
2001 04 05 04 METAR CYVR 050400Z 10003KT 20SM FEW065 SCT085 OVC140 10/04 A3010 RMK SC2AC2AC4 SLP194
2001 04 05 05 METAR CYVR 050500Z 10005KT 20SM FEW065 OVC140 10/04 A3010 RMK SC2AC6 SLP193
2001 04 05 06 METAR CYVR 050600Z 11004KT 20SM FEW060 OVC120 09/05 A3010 RMK SC2AC6 SLP191
2001 04 05 07 METAR CYVR 050700Z 10007KT 15SM BKN080 OVC120 08/06 A3009 RMK AS5AS3 SLP188
2001 04 05 08 METAR CYVR 050800Z 09008KT 15SM BKN075 OVC090 08/06 A3008 RMK AS6AS2 VIRGA ALQDS SLP184
2001 04 05 09 METAR CYVR 050900Z 08005KT 15SM OVC080 08/06 A3007 RMK AS8 VIRGA ALQDS SLP182
2001 04 05 10 METAR CYVR 051000Z 16003KT 15SM BKN078 OVC090 09/05 A3005 RMK AS6AS2 VIRGA MOON DMLY VSBL SLP177
2001 04 05 11 METAR CYVR 051100Z CCA 23005KT 15SM -RA BKN070 OVC090 09/01 A3005 RMK AS6AS2 SLP176
2001 04 05 12 METAR CYVR 051200Z 05003KT 12SM -RA BKN052 OVC060 09/M01 A3003 RMK SC6SC2 SLP170
2001 04 05 13 METAR CYVR 051300Z 23011G20KT 10SM -RA SCT020 OVC043 07/01 A3005 RMK SF3SC5 SLP175
2001 04 05 14 METAR CYVR 051400Z 06008KT 12SM -RA SCT018 OVC040 06/02 A3000 RMK SF3SC5 SLP160
2001 04 05 15 METAR CYVR 051500Z 04008KT 6SM -RA BR FEW011 BKN015 OVC028 06/03 A3000 RMK SF2SF3SC3 SLP157
2001 04 05 16 METAR CYVR 051600Z 06007KT 6SM -RA BR FEW011 BKN015 OVC025 05/03 A2997 RMK SF2SF4SC2 SLP150
2001 04 05 17 METAR CYVR 051700Z 07009KT 8SM -RA FEW011 BKN015 OVC028 04/03 A2995 RMK SF2SF4SC2 SLP143
2001 04 05 18 METAR CYVR 051800Z 08009KT 8SM -RA FEW011 BKN017 OVC025 04/02 A2993 RMK SF2SF5SC2 SLP136
2001 04 05 19 METAR CYVR 051900Z 08009KT 8SM -RA FEW012 BKN020 OVC028 04/03 A2991 RMK SF2SF5SC1 SLP127
2001 04 05 20 METAR CYVR 052000Z 08012G17KT 8SM -RA FEW011 OVC021 04/03 A2987 RMK SF2SF6 SLP113
2001 04 05 21 METAR CYVR 052100Z 07011KT 8SM -RA FEW009 OVC020 05/03 A2984 RMK SF2SF6 SLP104
2001 04 05 22 METAR CYVR 052200Z 08013KT 8SM -RA FEW009 BKN028 OVC037 05/04 A2981 RMK SF2SC5SC2 SLP093
2001 04 05 23 METAR CYVR 052300Z 07013G18KT 8SM -RA FEW009 BKN024 OVC031 06/04 A2978 RMK SF2SC5SC2 SLP085
2001 04 06 00 METAR CYVR 060000Z 11013KT 8SM -RA FEW008 SCT013 OVC024 06/04 A2976 RMK SF2SF2SF4 VSBY LWR E HIR S-SW SLP078
2001 04 06 01 METAR CYVR 060100Z 16010G16KT 15SM -SHRA FEW008 BKN018 OVC026 07/05 A2974 RMK SF1SC6SC2 VSBY LWR N SLP070
2001 04 06 02 METAR CYVR 060200Z 14010KT 15SM -SHRA FEW014 SCT022 BKN037 OVC058 07/05 A2972 RMK CF2SC2SC3SC2 SLP065
2001 04 06 03 METAR CYVR 060300Z 15006KT 15SM -SHRA FEW014 SCT028 OVC043 07/05 A2971 RMK CF2SC2SC4 SLP061
2001 04 06 04 METAR CYVR 060400Z 14009KT 15SM -SHRA FEW013 SCT030 OVC065 06/05 A2971 RMK CF1SC2SC5 SLP059
2001 04 06 05 METAR CYVR 060500Z 14007KT 15SM FEW013 SCT060 SCT110 OVC200 06/04 A2970 RMK CF1SC2AC1CI2 SLP056
2001 04 06 06 METAR CYVR 060600Z 14003KT 15SM FEW013 SCT065 SCT120 OVC200 06/04 A2968 RMK CF1SC2AC1CS2 SLP051
2001 04 06 07 METAR CYVR 060700Z 13005KT 20SM FEW015 SCT060 BKN110 06/03 A2967 RMK CF2SC2AC2 SLP048
2001 04 06 08 METAR CYVR 060800Z 13005KT 20SM FEW015 OVC061 06/03 A2967 RMK CF2SC5 SLP047
2001 04 06 09 METAR CYVR 060900Z 23010KT 20SM SCT016 OVC060 06/03 A2966 RMK CF3SC3 SLP044
2001 04 06 10 METAR CYVR 061000Z 22009KT 15SM -SHRA BKN020 OVC040 06/02 A2965 RMK SC5SC3 SLP041
2001 04 06 11 METAR CYVR 061100Z 30006KT 15SM -SHRA BKN019 OVC040 06/03 A2965 RMK SC5SC3 SHWRS VRY LGT SLP041
2001 04 06 12 METAR CYVR 061200Z 31005KT 30SM BKN021 BKN120 05/03 A2965 RMK SC5AC2 SLP041
2001 04 06 13 METAR CYVR 061300Z 10004KT 30SM FEW015 BKN023 BKN120 03/02 A2966 RMK SF2SC3AC1 SLP042
2001 04 06 14 METAR CYVR 061400Z 10004KT 30SM FEW015 SCT027TCU BKN040 BKN120 BKN160 04/03 A2966 RMK CF1TCU3SC1AC1AC1 OCNL -SHRA. VSBY CIG LWR SW. SLP043
2001 04 06 15 METAR CYVR 061500Z 10006KT 20SM -SHRA FEW012 BKN027TCU BKN040 BKN120 05/03 A2967 RMK CF2TCU3SC1AC1 SLP046
2001 04 06 16 METAR CYVR 061600Z 13009KT 8SM TSRA FEW010 BKN018CB BKN040 BKN120 03/02 A2969 RMK CF2CB4SC1AC1 SLP052
2001 04 06 17 METAR CYVR 061700Z 35005KT 10SM -SHRA FEW010 BKN022TCU BKN040 BKN120 05/03 A2969 RMK CF2TCU4SC1AC1 CB ASOCTD SHWRS VRY LGT SLP052
2001 04 06 18 METAR CYVR 061800Z 14005KT 15SM FEW015 SCT030TCU SCT050 BKN100 BKN220 08/03 A2969 RMK CF1TCU2SC1AC1CI0 SLP054
2001 04 06 19 METAR CYVR 061900Z 18005KT 20SM FEW015 BKN038TCU BKN100 BKN220 08/02 A2970 RMK CF1TCU4AC1CI0 CB DSNT W SLP057
2001 04 06 20 METAR CYVR 062000Z 26009KT 30SM FEW020 SCT042TCU SCT100 BKN220 09/03 A2971 RMK CF1TCU2AC1CI1 CB ASOCTD N QUAD SLP059
2001 04 06 21 METAR CYVR 062100Z 15010KT 30SM FEW020 SCT030TCU SCT100 BKN220 08/03 A2972 RMK CF1TCU2AC1CI1 CB ASOCTD N QUAD SLP063
2001 04 06 22 METAR CYVR 062200Z 18009G16KT 20SM FEW020 SCT030TCU SCT100 BKN220 09/02 A2973 RMK CF1TCU2AC1CI2 CB ASOCTD N AND SW SHWRS N-NE AND SW SLP067
2001 04 06 23 METAR CYVR 062300Z 21010KT 20SM FEW020 SCT030TCU SCT130 BKN220 09/03 A2974 RMK CF1TCU3AC1CI2 CB ASOCTD SHWRS N-NE SLP071
2001 04 07 00 METAR CYVR 070000Z 24007KT 20SM FEW020 SCT030TCU BKN130 BKN220 08/03 A2976 RMK CF1TCU4AC1CI2 CB ASOCTD SHWRS N-NE SLP077
2001 04 07 01 METAR CYVR 070100Z 28002KT 20SM FEW020 SCT030TCU BKN120 OVC220 07/03 A2977 RMK CF1TCU4AC2CI1 CB ASOCTD SHWRS NE-SE SLP081
2001 04 07 02 METAR CYVR 070200Z 05004KT 30SM FEW020 SCT030TCU SCT120 BKN220 06/02 A2977 RMK CF1TCU2AC1CI2 SLP082
2001 04 07 03 METAR CYVR 070300Z 00000KT 30SM FEW030 FEW120 BKN220 06/02 A2978 RMK CU2AC1CI1 TCU AND SHWRS SE SLP085
2001 04 07 04 METAR CYVR 070400Z 36002KT 20SM BKN025 BKN120 BKN220 06/02 A2981 RMK SC5AC1CI0 SLP093
2001 04 07 05 METAR CYVR 070500Z 01002KT 20SM FEW025 FEW120 FEW220 05/02 A2981 RMK SC1AC1CI0 SLP095
2001 04 07 06 METAR CYVR 070600Z 10005KT 20SM FEW025 FEW220 04/01 A2982 RMK SC1CI1 SLP097
2001 04 07 07 METAR CYVR 070700Z 06002KT 30SM FEW019 BKN160 03/01 A2982 RMK SC2AC1 SLP099
2001 04 07 08 METAR CYVR 070800Z 09007KT 30SM BKN018 BKN160 03/01 A2984 RMK SC5AC2 SLP103
2001 04 07 09 METAR CYVR 070900Z 09005KT 30SM BKN018 03/01 A2984 RMK SC6 SLP106
2001 04 07 10 METAR CYVR 071000Z 00000KT 8SM -SHRA FEW009 BKN015 OVC024CB 04/02 A2986 RMK SF2SF5CB2 SLP112
2001 04 07 11 METAR CYVR 071100Z 11005KT 8SM -SHRA FEW009 BKN015 OVC024TCU 04/02 A2986 RMK SF2SF5TCU2 SLP111
2001 04 07 12 METAR CYVR 071200Z 11003KT 15SM -SHRA FEW009 FEW015 SCT028TCU BKN080 04/02 A2986 RMK SF2SF1TCU2AC2 SHWRS VRY LGT SLP111
2001 04 07 13 METAR CYVR 071300Z 10003KT 15SM -SHRA SCT009 BKN021 BKN034 04/02 A2987 RMK SF3SC2SC2 SLP114
2001 04 07 14 METAR CYVR 071400Z 10003KT 30SM FEW009 BKN018 BKN045 04/02 A2987 RMK SF2SC3SC2 SLP114
2001 04 07 15 METAR CYVR 071500Z 09005KT 30SM FEW012 SCT022 BKN030 BKN080 BKN210 04/03 A2988 RMK SF2SC2SC2AC2CI1 TCU EMBDD SLP117
2001 04 07 16 METAR CYVR 071600Z 13003KT 30SM FEW012 SCT022 BKN031 BKN080 05/03 A2988 RMK SF2SC2SC2AC2 TCU EMBDD SLP117
2001 04 07 17 METAR CYVR 071700Z 21004KT 30SM FEW012 BKN015 BKN031 06/03 A2988 RMK CF2CU3SC2 TCU ASOCTD SLP119
2001 04 07 18 METAR CYVR 071800Z 26005KT 20SM FEW010 BKN015TCU BKN040 BKN070 06/03 A2989 RMK CF2TCU3SC1AC1 CB EMBDD SLP120
2001 04 07 19 METAR CYVR 071900Z 24005KT 20SM VCSH FEW010 SCT015TCU BKN060 07/04 A2989 RMK CF1TCU3SC1 CB EMBDD SLP120
2001 04 07 20 METAR CYVR 072000Z 25006KT 20SM VCSH BKN020TCU BKN060 08/03 A2988 RMK TCU5SC1 CB ASOCTD W+N SLP118
2001 04 07 21 METAR CYVR 072100Z 25007KT 20SM SCT020TCU SCT060 09/04 A2987 RMK TCU3SC1 CB ASOCTD W + N SHWRS N SLP116
2001 04 07 22 METAR CYVR 072200Z 25007KT 20SM FEW018TCU SCT060 09/03 A2987 RMK TCU2SC2 SLP113
2001 04 07 23 METAR CYVR 072300Z 23008KT 20SM FEW018TCU SCT060TCU 09/02 A2986 RMK TCU2TCU2 CB ASOCTD SHRS MTNS N SLP111
2001 04 08 00 METAR CYVR 080000Z 23008KT 20SM FEW020TCU SCT060TCU 09/02 A2986 RMK TCU2TCU2 CB ASOCTD TO E SLP111
2001 04 08 01 METAR CYVR 080100Z 24006KT 20SM FEW020TCU SCT060TCU 08/02 A2986 RMK TCU2TCU1 CB ASOCTD TO NE SHWRS NE AGAINST NTNS SLP111
2001 04 08 02 METAR CYVR 080200Z 24005KT 20SM FEW020 SCT060TCU 08/01 A2986 RMK SC2TCU2 CB ASOCTD TO NE SLP112
2001 04 08 03 METAR CYVR 080300Z 24003KT 20SM FEW020 FEW060 07/01 A2988 RMK SC2SC1 SLP117
2001 04 08 04 METAR CYVR 080400Z 16002KT 20SM FEW030 07/01 A2989 RMK SC2 SLP121
2001 04 08 05 METAR CYVR 080500Z 04005KT 25SM FEW030 FEW060 05/01 A2989 RMK SC1SC1 SLP123
2001 04 08 06 METAR CYVR 080600Z 04004KT 25SM FEW035 04/01 A2989 RMK SC1 SLP123
2001 04 08 07 METAR CYVR 080700Z 09003KT 20SM FEW035 03/01 A2990 RMK SC1 TR CLD. SLP126
2001 04 08 08 METAR CYVR 080800Z 10003KT 20SM FEW035 03/00 A2991 RMK SC1 TR CLD SLP129
2001 04 08 09 METAR CYVR 080900Z 09004KT 20SM FEW055 03/01 A2992 RMK SC2 SLP132
2001 04 08 10 METAR CYVR 081000Z 00000KT 20SM FEW055 03/01 A2992 RMK SC1 SLP133
2001 04 08 11 METAR CYVR 081100Z 10003KT 20SM FEW015 FEW025 SCT035 BKN047 BKN055 03/01 A2994 RMK SF1SC2SC2SC2SC1 SLP138
2001 04 08 12 METAR CYVR 081200Z 11006KT 20SM FEW015 FEW025 BKN045 BKN055 03/02 A2995 RMK SF1SC1SC5SC1 SLP142
2001 04 08 13 METAR CYVR 081300Z 09003KT 20SM FEW015 FEW025 BKN045 BKN055 04/02 A2997 RMK SF1SC1SC3SC1 SLP148
2001 04 08 14 METAR CYVR 081400Z 09003KT 20SM FEW020 SCT050 SCT080 BKN210 04/01 A2999 RMK SC2SC2AC1CI0 210 LYR THN SLP154
2001 04 08 15 METAR CYVR 081500Z 00000KT 20SM FEW020 SCT038 BKN080 BKN210 04/01 A3000 RMK CU2SC2AC2CI1 VIRGA SLP158
2001 04 08 16 METAR CYVR 081600Z 24002KT 30SM FEW010 FEW020 SCT032 SCT080 BKN210 06/03 A3000 RMK CF1CU2SC1AC1CI1 VIRGA SLP160
2001 04 08 17 METAR CYVR 081700Z 25003KT 30SM FEW018 BKN028 BKN080 BKN210 06/03 A3002 RMK CU2SC3AC1CI1 SLP165
2001 04 08 18 METAR CYVR 081800Z 30005KT 30SM FEW020 SCT032 SCT080 BKN210 08/04 A3003 RMK CU2SC2AC1CI0 210 LYR THN SLP170
2001 04 08 19 METAR CYVR 081900Z 29012G17KT 30SM FEW020 SCT032 BKN210 08/04 A3005 RMK CU2SC2CI0 210 LYR THN SLP174
2001 04 08 20 METAR CYVR 082000Z 28009KT 30SM SCT020 SCT035 BKN210 08/04 A3005 RMK CU3SC1CI0 210 LYR THN SLP177
2001 04 08 21 METAR CYVR 082100Z 26006KT 30SM FEW025 SCT210 09/04 A3006 RMK CU2CI1 SLP180
2001 04 08 22 METAR CYVR 082200Z 25004KT 30SM FEW025 SCT210 10/03 A3007 RMK CU1CI1 SLP183
2001 04 08 23 METAR CYVR 082300Z 25007KT 30SM FEW025 FEW210 10/04 A3008 RMK CU1CI1 TCU TOPS NW SLP184
2001 04 09 00 METAR CYVR 090000Z 24007KT 30SM FEW030 FEW220 10/03 A3008 RMK CU1CI1 TCU TOPS NW TR CI SLP186
2001 04 09 01 METAR CYVR 090100Z 22008KT 30SM FEW030 FEW110 FEW220 10/03 A3010 RMK CU1AC1CI1 TR CLD SLP191
2001 04 09 02 METAR CYVR 090200Z 19006KT 30SM FEW030 FEW110 FEW220 10/02 A3010 RMK CU1AC1CI1 TR CLD SLP193
2001 04 09 03 METAR CYVR 090300Z 18004KT 30SM FEW030 FEW110 FEW220 09/02 A3011 RMK CU1AC1CI1 TR CLD SLP197
2001 04 09 04 METAR CYVR 090400Z 14005KT 30SM FEW030 FEW220 08/03 A3013 RMK SC1CI1 SLP202
2001 04 09 05 METAR CYVR 090500Z 08004KT 30SM FEW030 FEW220 06/02 A3015 RMK SC1CI1 SLP208
2001 04 09 06 METAR CYVR 090600Z 08007KT 30SM FEW030 FEW220 05/02 A3016 RMK SC1CI1 SLP212
2001 04 09 07 METAR CYVR 090700Z 07007KT 30SM FEW030 FEW220 05/02 A3016 RMK SC1CI1 TR CLD SLP214
2001 04 09 08 METAR CYVR 090800Z 07007KT 30SM FEW030 04/02 A3017 RMK SC1 TR CLD SLP217
2001 04 09 09 METAR CYVR 090900Z 09003KT 30SM FEW030 05/02 A3018 RMK SC1 TR CLD SLP219
2001 04 09 10 METAR CYVR 091000Z 09004KT 30SM FEW030 FEW220 04/02 A3018 RMK SC1CI1 TR CLD SLP220
2001 04 09 11 METAR CYVR 091100Z 09003KT 30SM FEW030 FEW220 04/02 A3018 RMK SC1CI1 TR CLD SLP221
2001 04 09 12 METAR CYVR 091200Z 08004KT 30SM FEW030 FEW077 FEW220 04/01 A3018 RMK SC1AC1CI1 TR CLD SLP221
2001 04 09 13 METAR CYVR 091300Z 09003KT 30SM FEW030 BKN079 04/02 A3018 RMK SC1AC5 TR SC SLP221
2001 04 09 14 METAR CYVR 091400Z 08006KT 30SM FEW025 BKN060 BKN080 05/03 A3019 RMK SC2SC3AC2 SLP222
2001 04 09 15 METAR CYVR 091500Z 09007KT 30SM FEW015 BKN062 BKN080 06/04 A3018 RMK SF2SC3AC1 SLP221
2001 04 09 16 METAR CYVR 091600Z 10004KT 20SM FEW010 BKN021 BKN045 OVC070 07/05 A3019 RMK SF2SC2SC2AC1 SLP224
2001 04 09 17 METAR CYVR 091700Z 08003KT 15SM FEW010 SCT020 BKN065 BKN080 08/06 A3019 RMK SF2SC2SC2AC1 SLP222
2001 04 09 18 METAR CYVR 091800Z 23007KT 15SM FEW010 BKN020TCU BKN031 BKN230 08/06 A3018 RMK CF2TCU2SC2CI0 VIRGA SLP221
2001 04 09 19 METAR CYVR 091900Z 27007KT 15SM FEW010 SCT025 BKN053 BKN080 09/05 A3018 RMK CF1CU2SC2AC2 TCU/ACC ASOCTD SLP219
2001 04 09 20 METAR CYVR 092000Z 26005KT 15SM FEW010 FEW025 BKN047 BKN080 09/05 A3016 RMK CF1CU2SC2AC2 SLP213
2001 04 09 21 METAR CYVR 092100Z 24004KT 20SM FEW010 FEW030 OVC060 09/04 A3014 RMK CF1CU2SC6 SHWRS DSNT NE SLP207
2001 04 09 22 METAR CYVR 092200Z 22006KT 30SM SCT032 BKN070 OVC230 10/04 A3013 RMK CU3AC3CI1 SLP201
2001 04 09 23 METAR CYVR 092300Z 22006KT 30SM FEW033 SCT070 BKN230 11/04 A3010 RMK CU2AC2CI1 SLP192
2001 04 10 00 METAR CYVR 100000Z 27005KT 30SM FEW043 SCT084 BKN230 10/04 A3008 RMK CU2AC2CI1 SLP187
2001 04 10 01 METAR CYVR 100100Z 29004KT 30SM FEW044 SCT079 BKN230 10/04 A3006 RMK CU2AC2CI2 SLP180
2001 04 10 02 METAR CYVR 100200Z 29005KT 30SM FEW047 BKN085 BKN230 09/04 A3005 RMK SC2AC2CI1 VIRGA S W-NW SLP176
2001 04 10 03 METAR CYVR 100300Z 26008KT 30SM FEW045 BKN073 BKN230 08/04 A3005 RMK SC2AC3CI1 SLP176
2001 04 10 04 METAR CYVR 100400Z 24006KT 30SM FEW043 FEW083 SCT250 09/03 A3005 RMK SC1AC1CI0 SLP175
2001 04 10 05 METAR CYVR 100500Z 28004KT 30SM FEW090 SCT230 07/04 A3005 RMK AC1CI1 SLP174
2001 04 10 06 METAR CYVR 100600Z 26004KT 30SM FEW041 SCT093 BKN230 08/05 A3003 RMK SC1AC2CI1 SLP170
2001 04 10 07 METAR CYVR 100700Z 00000KT 30SM FEW040 SCT063 BKN092 BKN230 08/04 A3002 RMK SC1SC2AC2CI0 SLP166
2001 04 10 08 METAR CYVR 100800Z 13002KT 30SM FEW040 FEW062 SCT093 BKN230 07/04 A3002 RMK SC1SC2AC2CI0 SLP164
2001 04 10 09 METAR CYVR 100900Z 09004KT 30SM FEW040 FEW060 SCT093 BKN230 06/04 A3000 RMK SC1SC2AC2CI1 SLP160
2001 04 10 10 METAR CYVR 101000Z 10004KT 30SM FEW040 FEW060 SCT090 BKN180 OVC230 05/03 A2998 RMK SC1SC1AC2CI2CI1 SLP152
2001 04 10 11 METAR CYVR 101100Z 08005KT 30SM FEW040 FEW060 BKN082 OVC180 06/03 A2997 RMK SC1SC2AC3CI2 SLP148
2001 04 10 12 METAR CYVR 101200Z 10005KT 30SM FEW040 FEW060 SCT080 BKN180 06/03 A2996 RMK SC1SC2AC2CI1 SLP144
2001 04 10 13 METAR CYVR 101300Z 10003KT 20SM FEW017 SCT040 BKN060 BKN150 05/04 A2996 RMK SC2SC2SC2AC1 SLP144
2001 04 10 14 METAR CYVR 101400Z 12004KT 20SM FEW016 BKN025 OVC060 06/04 A2995 RMK SC2SC3SC2 SHWRS S-NW SLP141
2001 04 10 15 METAR CYVR 101500Z 13003KT 15SM -SHRA FEW015 BKN030 BKN060 OVC100 06/05 A2995 RMK SC2SC3SC2AC1 SLP140
2001 04 10 16 METAR CYVR 101600Z 15004KT 10SM -SHRA FEW007 SCT014 BKN021 OVC050 06/05 A2993 RMK SF2SC2SC3SC1 VSBY SW-NW 3 SLP136
2001 04 10 17 METAR CYVR 101700Z 28007KT 10SM -RA FEW006 SCT012 BKN022 OVC050 06/05 A2992 RMK SF2SF2SC4SC1 SLP133
2001 04 10 18 METAR CYVR 101800Z 28010KT 15SM FEW008 FEW015 BKN024 BKN050 07/04 A2992 RMK SF1CF2SC4SC1 TCU ASOCTD NE-S SLP132
2001 04 10 19 METAR CYVR 101900Z 01010KT 10SM SHRA FEW007 SCT013 BKN020 OVC050 07/04 A2992 RMK SF2CF2SC4SC1 TCU ASOCTD SLP131
2001 04 10 20 METAR CYVR 102000Z 01006KT 15SM FEW010 SCT017 BKN026 OVC070 07/05 A2992 RMK CF2CF2SC2AC2 TCU ASOCTD NE OCNL RW- SLP132
2001 04 10 21 METAR CYVR 102100Z 30009KT 20SM FEW015 SCT025 BKN060 BKN100 07/03 A2990 RMK CF1CU2SC3AC1 TCU NW SLP125
2001 04 10 22 METAR CYVR 102200Z 36012KT 20SM FEW015 SCT025 BKN060 BKN130 08/04 A2988 RMK CF1CU2SC3AC1 VIRGA SW + NE SLP118
2001 04 10 23 METAR CYVR 102300Z 30015KT 20SM -SHRA FEW015 SCT025 BKN060 BKN130 08/03 A2989 RMK CF1CU3SC2AC2 SLP120
2001 04 11 00 METAR CYVR 110000Z 31014KT 20SM FEW015 FEW025 BKN060 BKN130 08/04 A2989 RMK CF1CU2SC3AC2 TCU EMBDD VIRGA W-E SLP121
2001 04 11 01 METAR CYVR 110100Z 29005KT 20SM FEW015 FEW025 SCT055 BKN130 08/04 A2989 RMK CF1CU1SC2AC2 VIRGA S-SW SLP120
2001 04 11 02 METAR CYVR 110200Z 30009KT 20SM FEW015 FEW025 FEW055 SCT130 08/04 A2989 RMK CF1CU1SC1AC1 VIRGA E SLP120
2001 04 11 03 METAR CYVR 110300Z 10006KT 20SM FEW025 FEW055 SCT130 07/04 A2991 RMK CF1SC2AC1 VIRGA E SLP129
2001 04 11 04 METAR CYVR 110400Z 00000KT 20SM FEW025 FEW055 06/04 A2992 RMK CF1SC1 SLP133
2001 04 11 05 METAR CYVR 110500Z 36003KT 20SM FEW050 05/02 A2993 RMK SC1 SLP136
2001 04 11 06 METAR CYVR 110600Z 00000KT 20SM FEW100 04/02 A2994 RMK AC1 SLP137
2001 04 11 07 METAR CYVR 110700Z 36007KT 20SM FEW140 05/M01 A2995 RMK AC1 SLP141
2001 04 11 08 METAR CYVR 110800Z 33003KT 20SM FEW140 06/M04 A2997 RMK AC1 SLP147
2001 04 11 09 METAR CYVR 110900Z 36006KT 30SM FEW220 06/M04 A2997 RMK CI0 SLP150
2001 04 11 10 METAR CYVR 111000Z 33008KT 30SM SKC 04/M04 A2998 RMK SLP153
2001 04 11 11 METAR CYVR 111100Z 33010KT 30SM SKC 06/M04 A3000 RMK SLP157
2001 04 11 12 METAR CYVR 111200Z 35009KT 30SM SKC 05/M05 A3000 RMK SLP159
2001 04 11 13 METAR CYVR 111300Z 03005KT 30SM SKC 03/M04 A3002 RMK SLP165
2001 04 11 14 METAR CYVR 111400Z 03005KT 30SM FEW250 05/M05 A3004 RMK CI0 SLP172
2001 04 11 15 METAR CYVR 111500Z 36003KT 30SM FEW250 07/M04 A3005 RMK CI0 SLP177
2001 04 11 16 METAR CYVR 111600Z 02003KT 30SM FEW250 10/M04 A3006 RMK CI0 SLP178
2001 04 11 17 METAR CYVR 111700Z 22004KT 30SM FEW250 12/M04 A3006 RMK CI0 SLP180
2001 04 11 18 METAR CYVR 111800Z 26009KT 30SM FEW250 11/00 A3007 RMK CI0 SLP181
2001 04 11 19 METAR CYVR 111900Z 29017KT 30SM FEW040 11/03 A3007 RMK CF1 TR CLD SLP182
2001 04 11 20 METAR CYVR 112000Z 29016KT 30SM FEW040 12/01 A3007 RMK CF1 TR CLD SLP181
2001 04 11 21 METAR CYVR 112100Z 29013KT 30SM FEW040 FEW250 12/00 A3006 RMK CF1CI0 SLP179
2001 04 11 22 METAR CYVR 112200Z 29012KT 30SM FEW040 12/01 A3005 RMK CU1 TR CU SLP174
2001 04 11 23 METAR CYVR 112300Z 30012KT 30SM FEW040 12/M01 A3003 RMK CU1 TR CLD SLP170
2001 04 12 00 METAR CYVR 120000Z 29009KT 30SM FEW040 13/M03 A3002 RMK CU1 TR CLD SLP166
2001 04 12 01 METAR CYVR 120100Z 30005KT 30SM FEW045 FEW250 12/M03 A3001 RMK CU1CI1 CI DSNT W TR CU SLP163
2001 04 12 02 METAR CYVR 120200Z 27003KT 30SM FEW050 FEW250 11/01 A3001 RMK SC1CI1 TR SC SLP162
2001 04 12 03 METAR CYVR 120300Z 24003KT 30SM FEW050 FEW250 10/00 A3000 RMK SC1CI1 TR SC SLP160
2001 04 12 04 METAR CYVR 120400Z 03003KT 30SM FEW250 08/00 A3001 RMK CI1 CI DSNT W SLP163
2001 04 12 05 METAR CYVR 120500Z 05002KT 30SM SKC 08/M02 A3002 RMK SLP166
2001 04 12 04 METAR CYVR 120400Z 03003KT 30SM FEW250 08/00 A3001 RMK CI1 CI DSNT W SLP163
2001 04 12 07 METAR CYVR 120700Z 11004KT 30SM SKC 05/M03 A3001 RMK SLP162
2001 04 12 08 METAR CYVR 120800Z 11009KT 30SM SKC 04/M03 A3001 RMK SLP163
2001 04 12 09 METAR CYVR 120900Z 09007KT 30SM SKC 04/M02 A3001 RMK SLP163
2001 04 12 10 METAR CYVR 121000Z 08007KT 30SM SCT240 04/M02 A3000 RMK CI1 SLP160
2001 04 12 11 METAR CYVR 121100Z 09012KT 30SM SCT240 05/M02 A3000 RMK CI1 SLP159
2001 04 12 12 METAR CYVR 121200Z 09010KT 30SM SCT240 04/M02 A3000 RMK CI2 SLP157
2001 04 12 13 METAR CYVR 121300Z 09008KT 30SM BKN240 04/M02 A2999 RMK CI2 SLP155
2001 04 12 14 METAR CYVR 121400Z 09011KT 30SM BKN140 BKN180 05/M02 A3000 RMK AS5AC2 SLP157
2001 04 12 15 METAR CYVR 121500Z 10008KT 30SM BKN150 06/M01 A3000 RMK AS6 SLP160
2001 04 12 16 METAR CYVR 121600Z 09011KT 30SM FEW043 BKN130 07/00 A3000 RMK SC1AS6 SLP160
2001 04 12 17 METAR CYVR 121700Z 11013KT 30SM FEW043 OVC100 08/02 A3001 RMK SC2AC6 SLP162
2001 04 12 18 METAR CYVR 121800Z 12009KT 30SM FEW028 FEW045 OVC075 09/03 A3002 RMK SF1SC2AC6 SLP164
2001 04 12 19 METAR CYVR 121900Z 14006KT 30SM SCT024 OVC068 09/02 A3002 RMK SC3AC5 SLP167
2001 04 12 20 METAR CYVR 122000Z 19011KT 30SM -RA BKN025 OVC060 09/02 A3002 RMK SC5SC3 SLP167
2001 04 12 21 METAR CYVR 122100Z 22011KT 20SM SCT025 BKN033 OVC068 09/01 A3003 RMK SC3SC3AC2 SHWRS MNTS N SLP168
2001 04 12 22 METAR CYVR 122200Z 23007G15KT 12SM -SHRA FEW015 SCT025 OVC052 08/03 A3003 RMK SF2SC2SC4 TCU EMBDD SLP169
2001 04 12 23 METAR CYVR 122300Z 11006KT 10SM -SHRA FEW015 FEW025 BKN041 OVC090 08/02 A3002 RMK SF1SC2SC4AC2 SLP167
2001 04 13 00 METAR CYVR 130000Z 10009KT 10SM -SHRA FEW015 FEW025 BKN037 OVC090 08/02 A3002 RMK SF1SC2SC4AC2 SLP165
2001 04 13 01 METAR CYVR 130100Z 09009KT 10SM -SHRA FEW015TCU SCT025 BKN040 OVC090 06/04 A3002 RMK TCU2SC2SC2AC2 SLP167
2001 04 13 02 METAR CYVR 130200Z 07006KT 15SM FEW018TCU BKN032 BKN054 OVC090 07/04 A3002 RMK TCU2SC2SC2AC2 SHWRS ALQDS VSBY SW 30 SLP166
2001 04 13 03 METAR CYVR 130300Z 09005KT 10SM -SHRA SCT014TCU BKN026 BKN055 BKN090 06/04 A3003 RMK TCU4SC2SC1AC1 VSBY SW 30 SLP168
2001 04 13 04 METAR CYVR 130400Z 09006KT 15SM FEW013 BKN024 BKN060 06/04 A3005 RMK CU2SC3SC2 FEW TCU SLP174
2001 04 13 05 METAR CYVR 130500Z 10004KT 20SM FEW015 BKN028 OVC060 06/04 A3006 RMK SC2SC5SC2 SLP178
2001 04 13 06 METAR CYVR 130600Z 09003KT 15SM FEW015 BKN030 OVC050 06/04 A3007 RMK SC2SC5SC2 SLP181
2001 04 13 07 METAR CYVR 130700Z 09003KT 15SM FEW015 BKN027 BKN050 OVC065 06/04 A3008 RMK SC2SC3SC2SC1 SLP185
2001 04 13 08 METAR CYVR 130800Z 30003KT 10SM -RA FEW015 BKN025 OVC045 05/04 A3010 RMK SC2SC4SC2 SLP192
2001 04 13 09 METAR CYVR 130900Z 31008KT 10SM -RA FEW015 BKN025 OVC042 05/03 A3012 RMK SC2SC5SC1 SLP198
2001 04 13 10 METAR CYVR 131000Z 26005KT 10SM -RA FEW008 BKN020 OVC040 06/04 A3012 RMK CF2SC4SC2 SLP199
2001 04 13 11 METAR CYVR 131100Z 29013KT 10SM -RA FEW008 BKN022 OVC045 06/03 A3012 RMK CF2SC3SC2 SLP200
2001 04 13 12 METAR CYVR 131200Z 26015KT 10SM -RA FEW008 BKN020 OVC040 06/04 A3013 RMK CF2SC3SC2 SLP202
2001 04 13 13 METAR CYVR 131300Z 25013KT 12SM FEW008 BKN022 OVC070 06/02 A3014 RMK CF2SC3AC2 SLP206
2001 04 13 14 METAR CYVR 131400Z 26012KT 15SM FEW008 BKN024 BKN070 OVC250 06/02 A3016 RMK CF2SC3AC2CI1 SLP213
2001 04 13 15 METAR CYVR 131500Z 26011KT 20SM FEW009 BKN028 OVC070 07/01 A3018 RMK CF1SC5AC2 SLP220
2001 04 13 16 METAR CYVR 131600Z 27011G16KT 20SM BKN027 BKN070 BKN250 07/01 A3020 RMK SC5AC2CI1 SLP225
2001 04 13 17 METAR CYVR 131700Z 26010KT 20SM BKN027 BKN072 OVC250 07/02 A3021 RMK SC5AC2CI0 SLP230
2001 04 13 18 METAR CYVR 131800Z 25009G15KT 20SM SCT026 BKN083 07/00 A3023 RMK SC3AC3 SLP235
2001 04 13 19 METAR CYVR 131900Z 24008KT 30SM FEW026 OVC085 08/03 A3024 RMK SC2AC5 SLP239
2001 04 13 20 METAR CYVR 132000Z 26006KT 30SM FEW045 OVC085 08/03 A3025 RMK SC2AC5 SLP242
2001 04 13 21 METAR CYVR 132100Z 26004KT 30SM FEW030 BKN065 BKN085 BKN250 08/02 A3025 RMK CU2SC3AC1CI1 SLP242
2001 04 13 22 METAR CYVR 132200Z 26006KT 30SM FEW037 SCT070 OVC250 09/01 A3025 RMK CU2AC2CI2 SLP242
2001 04 13 23 METAR CYVR 132300Z 25006KT 30SM FEW047 SCT100 OVC250 09/01 A3024 RMK CU2AC2CI2 SLP241
2001 04 14 00 METAR CYVR 140000Z 29004KT 30SM FEW052 SCT100 BKN250 09/01 A3024 RMK CU2AC2CI1 TCU ASOCTD SLP240
2001 04 14 01 METAR CYVR 140100Z 26005KT 30SM FEW050 FEW100 BKN250 09/01 A3024 RMK CU1AC2CI1 SLP239
2001 04 14 02 METAR CYVR 140200Z 27005KT 30SM FEW052TCU SCT100 OVC250 08/01 A3024 RMK TCU1AC2CI2 SLP239
2001 04 14 03 METAR CYVR 140300Z 25004KT 30SM FEW050 SCT100 BKN250 07/01 A3024 RMK SC2AC1CI1 VIRGA S SHWRS DSTN NW SLP240
2001 04 14 04 METAR CYVR 140400Z 26002KT 30SM FEW046 FEW090 BKN250 07/01 A3026 RMK SC1AC1CI0 SLP246
2001 04 14 05 METAR CYVR 140500Z 04003KT 30SM FEW090 SCT250 06/01 A3026 RMK AC1CI0 SLP248
2001 04 14 06 METAR CYVR 140600Z 06007KT 30SM FEW037 SCT098 05/01 A3027 RMK SC1AC1 SLP249
2001 04 14 07 METAR CYVR 140700Z 07006KT 20SM FEW035 FEW100 05/02 A3027 RMK SC1AC1 SLP250
2001 04 14 08 METAR CYVR 140800Z 08004KT 20SM FEW035 FEW100 04/01 A3028 RMK SC1AC1 SLP254
2001 04 14 09 METAR CYVR 140900Z 08005KT 20SM FEW025 FEW100 03/01 A3028 RMK SC1AC2 SLP255
2001 04 14 10 METAR CYVR 141000Z 07006KT 20SM FEW020 FEW090 02/00 A3028 RMK SC2AC1 SLP254
2001 04 14 11 METAR CYVR 141100Z 10005KT 15SM FEW018 SCT070 03/01 A3029 RMK SC2AC1 SLP256
2001 04 14 12 METAR CYVR 141200Z 09005KT 15SM FEW020 SCT040 SCT070 03/01 A3028 RMK SC2SC1AC1 SLP255
2001 04 14 13 METAR CYVR 141300Z 09006KT 20SM FEW020 SCT040 02/01 A3028 RMK SC1SC3 SLP253
2001 04 14 14 METAR CYVR 141400Z 11005KT 20SM SCT040 BKN100 03/01 A3028 RMK SC3AC2 SLP255
2001 04 14 15 METAR CYVR 141500Z 11004KT 30SM SCT050 BKN140 04/02 A3029 RMK SC3AS2 SLP257
2001 04 14 16 METAR CYVR 141600Z 11004KT 30SM FEW050 SCT120 06/02 A3030 RMK SC2AS2 SLP259
2001 04 14 17 METAR CYVR 141700Z 14005KT 30SM FEW025 FEW045 FEW100 SCT220 07/01 A3030 RMK CU1SC1AC1CI1 SLP259
2001 04 14 18 METAR CYVR 141800Z 27006KT 30SM FEW030 FEW045 FEW100 SCT220 08/02 A3030 RMK CU2SC1AC1CS2 TR SC.AC. SLP259
2001 04 14 19 METAR CYVR 141900Z 25006KT 30SM FEW030 09/03 A3029 RMK CU2 HAZE. SLP256
2001 04 14 20 METAR CYVR 142000Z 25008KT 30SM FEW030 09/03 A3028 RMK CU2 HAZE. SLP252
2001 04 14 21 METAR CYVR 142100Z 25008KT 30SM FEW030 09/04 A3027 RMK CU2 HAZE. SLP249
2001 04 14 22 METAR CYVR 142200Z 29006KT 30SM FEW035 09/02 A3025 RMK CU1 DUST HAZE ALOFT SLP242
2001 04 14 23 METAR CYVR 142300Z 25008KT 30SM FEW040 10/02 A3022 RMK CU1 TR CU DUST HAZE ALOFT SLP233
2001 04 15 00 METAR CYVR 150000Z 28008KT 30SM FEW040 09/02 A3021 RMK CU1 TR CU SLP228
2001 04 15 01 METAR CYVR 150100Z 30009KT 30SM FEW040 09/02 A3019 RMK CU1 TR CU SLP222
2001 04 15 02 METAR CYVR 150200Z 31008KT 30SM SKC 08/02 A3017 RMK SLP217
2001 04 15 03 METAR CYVR 150300Z 31007KT 30SM SKC 07/02 A3016 RMK SLP214
2001 04 15 05 METAR CYVR 150500Z 32008KT 30SM SKC 05/01 A3016 RMK SLP213
2001 04 15 07 METAR CYVR 150700Z 36003KT 30SM SKC 07/02 A3015 RMK SLP210
2001 04 15 08 METAR CYVR 150800Z 29006KT 30SM SKC 06/02 A3015 RMK SLP208
2001 04 15 09 METAR CYVR 150900Z 34004KT 30SM SKC 05/01 A3014 RMK SLP207
2001 04 15 10 METAR CYVR 151000Z 36002KT 30SM SKC 04/M01 A3014 RMK SLP206
2001 04 15 11 METAR CYVR 151100Z 36004KT 30SM FEW240 03/M01 A3013 RMK CI0 SLP202
2001 04 15 12 METAR CYVR 151200Z 12002KT 30SM FEW240 04/00 A3014 RMK CI0 SLP205
2001 04 15 13 METAR CYVR 151300Z 09004KT 30SM FEW240 02/M01 A3013 RMK CI0 SLP204
2001 04 15 14 METAR CYVR 151400Z 09004KT 30SM FEW230 03/01 A3014 RMK CI0 SLP207
2001 04 15 15 METAR CYVR 151500Z 11002KT 30SM FEW230 05/02 A3015 RMK CI1 SLP210
2001 04 15 16 METAR CYVR 151600Z 01002KT 30SM SCT220 08/02 A3015 RMK CI1 SLP208
2001 04 15 17 METAR CYVR 151700Z 23004KT 30SM BKN220 09/02 A3015 RMK CI2 SLP208
2001 04 15 18 METAR CYVR 151800Z 31004KT 30SM SCT220 10/04 A3015 RMK CI1 SLP209
2001 04 15 19 METAR CYVR 151900Z 31005KT 30SM SCT220 11/05 A3013 RMK CI1 SLP202
2001 04 15 20 METAR CYVR 152000Z 29008KT 30SM BKN200 12/06 A3011 RMK CI2 SLP197
2001 04 15 21 METAR CYVR 152100Z 29009KT 30SM FEW150 BKN220 11/06 A3010 RMK AC1CI2 SLP194
2001 04 15 22 METAR CYVR 152200Z 31009KT 30SM FEW150 BKN220 12/06 A3008 RMK AC1CI2 TR AC SLP185
2001 04 15 23 METAR CYVR 152300Z 30008KT 30SM BKN220 13/07 A3006 RMK CI3 SLP180
2001 04 16 00 METAR CYVR 160000Z 29009KT 30SM FEW130 SCT160 OVC220 13/07 A3005 RMK AC2AC2CI4 SLP176
2001 04 16 01 METAR CYVR 160100Z 30006KT 30SM SCT120 BKN180 OVC220 12/07 A3004 RMK AC3AC3CI2 SLP173
2001 04 16 02 METAR CYVR 160200Z 33005KT 30SM FEW110 SCT160 OVC220 11/07 A3002 RMK AC2AC2CS5 SLP167
2001 04 16 03 METAR CYVR 160300Z 34002KT 30SM FEW110 BKN230 11/07 A3001 RMK AC2CI3 SLP163
2001 04 16 04 METAR CYVR 160400Z 35003KT 30SM FEW140 BKN230 10/07 A3001 RMK AC2CI2 SLP161
2001 04 16 05 METAR CYVR 160500Z 10004KT 30SM FEW130 BKN230 11/04 A3001 RMK AC2CI3 SLP162
2001 04 16 06 METAR CYVR 160600Z 09006KT 30SM SCT130 OVC220 11/04 A3000 RMK AC3CI5 SLP159
2001 04 16 07 METAR CYVR 160700Z 09007KT 30SM SCT120 OVC210 10/04 A3000 RMK AC2CI3 SLP157
2001 04 16 08 METAR CYVR 160800Z 09008KT 30SM BKN098 OVC120 11/02 A2999 RMK AC6AC2 SLP154
2001 04 16 09 METAR CYVR 160900Z 09006KT 30SM OVC120 11/02 A2998 RMK AC7 SLP151
2001 04 16 10 METAR CYVR 161000Z 10009KT 30SM OVC110 11/01 A2997 RMK AC7 SLP149
2001 04 16 11 METAR CYVR 161100Z 12006KT 30SM OVC110 12/00 A2996 RMK AC7 SLP146
2001 04 16 12 METAR CYVR 161200Z 11009KT 30SM SCT095 OVC110 11/01 A2995 RMK AC3AC5 SLP143
2001 04 16 13 METAR CYVR 161300Z 11009KT 20SM SCT080 OVC094 11/01 A2995 RMK AC3AC5 SLP141
2001 04 16 14 METAR CYVR 161400Z 29002KT 12SM SCT080 OVC092 10/05 A2995 RMK AC4AC4 HZ SLP142
2001 04 16 15 METAR CYVR 161500Z 01003KT 15SM SCT084 OVC092 11/05 A2996 RMK AC4AC4 SLP146
2001 04 16 16 METAR CYVR 161600Z 01006KT 15SM SCT078 OVC086 12/03 A2995 RMK AC3AC5 VIRGA SLP143
2001 04 16 17 METAR CYVR 161700Z 09008KT 15SM SCT076 OVC090 13/04 A2994 RMK AC3AC5 VIRGA SLP139
2001 04 16 18 METAR CYVR 161800Z 15005KT 15SM SCT078 OVC091 14/02 A2993 RMK AC3AC5 VIRGA SLP135
2001 04 16 19 METAR CYVR 161900Z 27005KT 20SM FEW078 OVC120 12/05 A2992 RMK AC2AS6 SLP132
2001 04 16 20 METAR CYVR 162000Z 29006KT 20SM OVC120 13/05 A2990 RMK AS8 SLP124
2001 04 16 21 METAR CYVR 162100Z 30008KT 20SM BKN120 13/05 A2986 RMK AS7 SLP112
2001 04 16 22 METAR CYVR 162200Z 29009KT 20SM FEW090 OVC110 13/06 A2984 RMK AC1AS6 SLP103
2001 04 16 23 METAR CYVR 162300Z 31008KT 20SM OVC120 14/06 A2981 RMK AS8 SLP093
2001 04 17 00 METAR CYVR 170000Z 30007KT 20SM OVC110 13/06 A2978 RMK AS8 SLP084
2001 04 17 01 METAR CYVR 170100Z 29007KT 20SM OVC090 11/07 A2978 RMK AC8 SLP084
2001 04 17 02 METAR CYVR 170200Z 32009KT 20SM FEW038 BKN095 OVC140 11/06 A2978 RMK SC2AC3AS2 VIRGA SLP083
2001 04 17 03 METAR CYVR 170300Z 36011KT 20SM OVC090 13/03 A2972 RMK AC8 SLP065
2001 04 17 04 METAR CYVR 170400Z 22007KT 20SM OVC100 14/02 A2971 RMK AC8 SLP060
2001 04 17 05 METAR CYVR 170500Z 23005KT 20SM OVC110 13/05 A2971 RMK AC8 SLP062
2001 04 17 06 METAR CYVR 170600Z 23015KT 20SM OVC100 12/06 A2974 RMK AC8 SLP072
2001 04 17 07 METAR CYVR 170700Z 22009KT 15SM -RA OVC045 13/07 A2981 RMK SC8 PRESRR SLP094
2001 04 17 08 METAR CYVR 170800Z 10009KT 10SM -RA OVC045 10/08 A2984 RMK SC8 SLP104
2001 04 17 09 METAR CYVR 170900Z 19010KT 8SM -RA SCT008 BKN015 OVC040 10/08 A2987 RMK SF3SF2SC2 SLP116
2001 04 17 10 METAR CYVR 171000Z 14008KT 8SM -RA FEW008 SCT016 OVC039 09/08 A2988 RMK SF2SF2SC5 SLP119
2001 04 17 11 METAR CYVR 171100Z 10006KT 15SM FEW008 FEW040 BKN100 08/07 A2992 RMK SF1SF1AC4 SLP130
2001 04 17 12 METAR CYVR 171200Z 09005KT 20SM FEW012 FEW028 FEW070 BKN210 08/07 A2994 RMK SF1SC1AC1CI1 SLP138
2001 04 17 13 METAR CYVR 171300Z 10009KT 20SM FEW015 FEW040 BKN075 OVC120 08/07 A2996 RMK SF1SC2AC4AC2 SLP144
2001 04 17 14 METAR CYVR 171400Z 11010KT 12SM -RA FEW015 FEW040 BKN078 BKN110 OVC200 09/07 A2997 RMK SF1SC1AC3AC1CI2 SLP149
2001 04 17 15 METAR CYVR 171500Z CCA 18014G27KT 10SM -RA FEW008 SCT030 BKN046 OVC060 08/06 A3000 RMK SF2SF2SC2SC2 CB EMBDD CIG + VSBY HIER SW RERA SLP158
2001 04 17 16 METAR CYVR 171600Z 14011KT 20SM FEW015 FEW030 SCT120 BKN240 08/05 A3002 RMK SF1SC2AC2CI2 VIRGA E CB ASOCTD SLP165
2001 04 17 17 METAR CYVR 171700Z 13010KT 15SM FEW020 SCT035 BKN056 BKN120 OVC240 09/06 A3007 RMK SF2SC2SC2AC2CI1 SHWRS SW SLP181
2001 04 17 18 METAR CYVR 171800Z 12010KT 10SM -SHRA FEW015 SCT028 BKN043 OVC060 09/06 A3009 RMK SF2SF2SC3SC2 CIG RGD SLP188
2001 04 17 19 METAR CYVR 171900Z 12009KT 20SM -SHRA FEW012 FEW040 SCT070 BKN120 BKN200 09/07 A3009 RMK SF1SF1AC2AC2CI1 SLP188
2001 04 17 20 METAR CYVR 172000Z 13007KT 20SM FEW015 FEW035 BKN078 BKN120 BKN210 12/08 A3009 RMK SF1SF2AC2AC1CI0 SLP188
2001 04 17 21 METAR CYVR 172100Z 13012G17KT 15SM FEW020 BKN040 BKN070 BKN210 13/07 A3008 RMK SF2SC3AC2CI0 SHWRS + CIG LWR W SLP184
2001 04 17 22 METAR CYVR 172200Z 14014G22KT 15SM FEW020 SCT040 BKN074 BKN210 13/06 A3007 RMK SC2SC2AC2CI0 CU/TCU ASOCTD SLP182
2001 04 17 23 METAR CYVR 172300Z 14015G20KT 15SM FEW020 BKN065TCU OVC210 13/06 A3005 RMK SF2TCU4CI1 VIRGA S-N SLP176
2001 04 18 00 METAR CYVR 180000Z 16014KT 15SM FEW020 BKN063CB BKN210 13/05 A3006 RMK CF2CB4CI1 SHWRS S-N SLP178
2001 04 18 01 METAR CYVR 180100Z 24005KT 15SM FEW020 BKN063TCU BKN120 BKN210 13/06 A3006 RMK CF2TCU3AC2CI0 SLP180
2001 04 18 02 METAR CYVR 180200Z 00000KT 20SM FEW020 SCT060TCU BKN084 BKN210 13/06 A3006 RMK CF1TCU2AC2CI1 SHWRS SW-N SLP178
2001 04 18 03 METAR CYVR 180300Z 00000KT 20SM FEW020 SCT060TCU BKN082 12/04 A3005 RMK CF1TCU3AC2 SHWRS ALQDS SLP176
2001 04 18 04 METAR CYVR 180400Z 14004KT 20SM -SHRA FEW020 BKN053TCU OVC085 11/07 A3007 RMK CF2TCU5AC2 SLP182
2001 04 18 05 METAR CYVR 180500Z 09006KT 15SM -SHRA FEW020 BKN050TCU OVC085 09/07 A3007 RMK CF2TCU4AC2 SHWRS VRY LGT SLP181
2001 04 18 06 METAR CYVR 180600Z 32006KT 10SM -SHRA SCT020 BKN030 OVC050TCU 09/07 A3006 RMK SF3SC2TCU3 SLP180
2001 04 18 07 METAR CYVR 180700Z 06006KT 12SM FEW015 BKN047 BKN100 OVC200 09/07 A3005 RMK SF1SC5AC2CI1 SLP176
2001 04 18 08 METAR CYVR 180800Z 07005KT 10SM FEW015 BKN045 OVC100 08/07 A3005 RMK SF2SC6AC1 SLP175
2001 04 18 09 METAR CYVR 180900Z 25003KT 3SM SHRA BR FEW008 BKN020 OVC030 07/05 A3005 RMK SF2SC4SC2 CB ASOCTD SLP175
2001 04 18 10 METAR CYVR 181000Z 04003KT 8SM -SHRA FEW008 FEW020 OVC040 07/05 A3004 RMK SF1SF2SC6 SLP171
2001 04 18 11 METAR CYVR 181100Z 08005KT 6SM -SHRA BR FEW008 FEW020 OVC040 07/06 A3003 RMK SF1SC2SC6 SLP170
2001 04 18 12 METAR CYVR 181200Z 05006KT 6SM -SHRA BR FEW008 FEW020 OVC045 07/05 A3004 RMK SF1SC2SC6 SLP172
2001 04 18 13 METAR CYVR 181300Z 11008KT 10SM FEW008 SCT020 BKN051 BKN100 BKN240 07/05 A3003 RMK SF2SC2SC2AC1CI0 SHRA E SLP169
2001 04 18 14 METAR CYVR 181400Z 09007KT 15SM -SHRA FEW008 FEW034 SCT051 BKN073 BKN100 OVC240 07/06 A3003 RMK SF1SC2SC2AC2AC2CI1 BINOVC CIG+VSBY LWR N-NE BR PTCHS
2001 04 18 BD METAR      CU EMBDD SLP170
2001 04 18 15 METAR CYVR 181500Z 09009KT 15SM -SHRA FEW008 FEW034 SCT057 BKN073 BKN110 OVC240 08/06 A3004 RMK SF1SC2SC2AC2AC2CI0 BR PTCHS CU EMBDD SHRA VRY
2001 04 18 P1 METAR      LGT+INTMT SLP172
2001 04 18 16 METAR CYVR 181600Z 09009KT 20SM FEW010 FEW036 SCT057 BKN075 BKN110 BKN240 09/07 A3004 RMK SF1CF2SC2AC2AC2CI0 CIG+VSBY LWR N-E TR SF BR PTCHS TCU DSTNT
2001 04 18 P1 METAR      W SLP172
2001 04 18 17 METAR CYVR 181700Z 09009KT 20SM FEW010 FEW040 FEW056 SCT080 SCT240 10/08 A3003 RMK CF1CU2SC1AC1CI0 TCU EMBDD TR CF SLP170
2001 04 18 18 METAR CYVR 181800Z 11005KT 20SM FEW010 BKN023 BKN056 BKN085 OVC240 11/07 A3002 RMK CF1CU5SC1AC1CI0 TCU EMBDD SLP167
2001 04 18 19 METAR CYVR 181900Z 23007KT 30SM FEW015 FEW024TCU SCT056 SCT085 BKN210 12/07 A3002 RMK CF1TCU2SC1AC1CI0 CBS DSTNT SW-W SHRA N SLP164
2001 04 18 20 METAR CYVR 182000Z 23006G16KT 30SM FEW031TCU FEW080 SCT210 12/06 A3001 RMK TCU2AC1CI1 CB DSTNT W TR AC SLP161
2001 04 18 21 METAR CYVR 182100Z 24005KT 30SM FEW036TCU FEW080 SCT210 13/05 A3000 RMK TCU2AC1CI0 CB DSTNT SW-W SHRA NE TR AC SLP160
2001 04 18 22 METAR CYVR 182200Z 24004KT 30SM SCT036TCU BKN210 13/05 A3000 RMK TCU4CI1 CB DSNT S-NW SHWRS DSNT NE SLP157
2001 04 18 23 METAR CYVR 182300Z 22007KT 30SM SCT036TCU BKN081 BKN210 13/05 A2998 RMK TCU3AC2CI1 CB DSNT SW SLP152
2001 04 19 00 METAR CYVR 190000Z 25003KT 30SM SCT040TCU SCT210 13/05 A2997 RMK TCU3CI1 CB DSNT SW-N ESE SHWRS DSNT SW+NE SLP147
2001 04 19 01 METAR CYVR 190100Z 23004KT 30SM FEW040TCU SCT080 12/04 A2996 RMK TCU2AC1 VIRGA SW-W DSNT SLP144
2001 04 19 02 METAR CYVR 190200Z 23003KT 30SM FEW040TCU SCT060 12/04 A2995 RMK TCU2SC1 SHWRS DSNT W SLP141
2001 04 19 03 METAR CYVR 190300Z 24004KT 30SM FEW040TCU SCT060 11/04 A2995 RMK TCU2SC2 SLP140
2001 04 19 04 METAR CYVR 190400Z 30002KT 30SM FEW040TCU FEW060 10/05 A2995 RMK TCU1SC2 SLP140
2001 04 19 05 METAR CYVR 190500Z 36004KT 30SM FEW040 FEW060 08/04 A2995 RMK SC1SC1 SLP142
2001 04 19 06 METAR CYVR 190600Z 09006KT 30SM FEW040 FEW060 07/04 A2995 RMK SC1SC1 SLP142
2001 04 19 07 METAR CYVR 190700Z 07006KT 20SM SCT040 BKN070 08/05 A2995 RMK SC3AC1 SLP141
2001 04 19 08 METAR CYVR 190800Z 08004KT 20SM SCT050 BKN070 07/04 A2995 RMK SC3AC1 SLP141
2001 04 19 09 METAR CYVR 190900Z 08005KT 20SM FEW050 BKN080 07/04 A2994 RMK SC2AC1 SLP139
2001 04 19 10 METAR CYVR 191000Z 33003KT 20SM FEW050 SCT080 07/04 A2995 RMK SC1AC2 SLP141
2001 04 19 11 METAR CYVR 191100Z 04004KT 20SM SCT030 BKN070 BKN220 07/03 A2995 RMK SC4AC2CI1 SLP142
2001 04 19 12 METAR CYVR 191200Z 09004KT 20SM FEW030 BKN052 BKN220 06/04 A2995 RMK SC2SC5CI1 SLP143
2001 04 19 13 METAR CYVR 191300Z 07005KT 20SM FEW033 SCT052 BKN090 BKN200 06/03 A2995 RMK SC2SC2AC2CI1 SLP143
2001 04 19 14 METAR CYVR 191400Z 08006KT 20SM FEW033 SCT064 BKN090 BKN200 07/05 A2997 RMK SC2SC2AC2CI1 CIG+VSBY LWR N-E BR PTCHS SLP147
2001 04 19 15 METAR CYVR 191500Z 10008KT 20SM FEW016 SCT031 BKN064 OVC090 08/06 A2997 RMK SC2SC2SC2AC2 BR PTCHS NE SLP150
2001 04 19 16 METAR CYVR 191600Z 10008KT 20SM FEW018 SCT037 BKN064 OVC090 08/06 A2998 RMK SC2SC2SC2AC2 SLP153
2001 04 19 17 METAR CYVR 191700Z 11009KT 15SM -SHRA FEW018 BKN033 OVC062 08/06 A2999 RMK CF2SC4SC2 CU EMBDD CIG+VSBY HIER W SLP154
2001 04 19 18 METAR CYVR 191800Z 10009KT 15SM SCT016 BKN032 BKN060 OVC090 09/07 A2999 RMK CF3CU2SC2AC2 SLP156
2001 04 19 19 METAR CYVR 191900Z 09008KT 20SM FEW016 BKN034 BKN060 BKN090 OVC200 10/06 A2999 RMK CF2CU3SC2AC1CI0 TCU ASOCTD SLP156
2001 04 19 20 METAR CYVR 192000Z 15006KT 20SM FEW018 BKN034 BKN076 OVC200 12/07 A2998 RMK CF1CU4AC1CI2 TCU ASOCTD SLP152
2001 04 19 21 METAR CYVR 192100Z 10006KT 20SM FEW020 SCT041 BKN076 OVC200 12/06 A2997 RMK CF1CU4AC1CI2 TCU ASOCTD TR CF SLP149
2001 04 19 22 METAR CYVR 192200Z 23007KT 20SM FEW025 SCT040 BKN075 OVC200 12/05 A2995 RMK CF2CU2AC2CI1 SLP141
2001 04 19 23 METAR CYVR 192300Z 25007KT 20SM SCT025 BKN065 OVC200 13/05 A2993 RMK CU3CU1CI0 SLP134
2001 04 20 00 METAR CYVR 200000Z 26006KT 25SM FEW025 SCT065 BKN200 12/06 A2991 RMK CU2CU1CI0 SLP128
2001 04 20 01 METAR CYVR 200100Z 30007KT 25SM FEW045 BKN200 12/05 A2989 RMK SC2CI0 SLP122
2001 04 20 02 METAR CYVR 200200Z 30005KT 25SM FEW045 BKN200 11/05 A2988 RMK SC1CI0 SLP117
2001 04 20 03 METAR CYVR 200300Z 30006KT 25SM BKN200 09/04 A2987 RMK CI1 SLP114
2001 04 20 04 METAR CYVR 200400Z 30006KT 25SM BKN200 08/04 A2987 RMK CI1 SLP116
2001 04 20 05 METAR CYVR 200500Z 34003KT 25SM BKN200 08/03 A2987 RMK CI1 SLP116
2001 04 20 06 METAR CYVR 200600Z 33006KT 25SM BKN200 09/03 A2987 RMK CI1 SLP115
2001 04 20 07 METAR CYVR 200700Z 01005KT 30SM BKN200 08/04 A2987 RMK CI1 SLP114
2001 04 20 08 METAR CYVR 200800Z 32008KT 30SM BKN200 08/04 A2986 RMK CI1 SLP110
2001 04 20 09 METAR CYVR 200900Z 33007KT 30SM BKN200 06/03 A2986 RMK CI1 SLP110
2001 04 20 10 METAR CYVR 201000Z 01004KT 30SM FEW100 SCT200 06/03 A2985 RMK AC1CI0 SLP109
2001 04 20 11 METAR CYVR 201100Z 31010KT 30SM FEW100 SCT200 07/03 A2985 RMK AC1CI0 SLP109
2001 04 20 12 METAR CYVR 201200Z 36006KT 30SM SCT100 BKN200 06/03 A2986 RMK AC3CI1 SLP112
2001 04 20 13 METAR CYVR 201300Z 36005KT 30SM FEW040 SCT100 BKN200 05/03 A2987 RMK SC1AC3CI0 TR SC SLP113
2001 04 20 14 METAR CYVR 201400Z 31013KT 30SM FEW015 FEW100 SCT200 08/05 A2987 RMK ST1AC1CI2 TR ST.AC. SLP115
2001 04 20 15 METAR CYVR 201500Z 31013KT 30SM FEW015 FEW100 SCT200 08/06 A2988 RMK ST1AC1CI2 TR AC. VSBY LWR E IN HAZE. SLP117
2001 04 20 16 METAR CYVR 201600Z 30015KT 30SM FEW015 FEW200 09/07 A2988 RMK SF1CI1 HAZE E. SLP118
2001 04 20 17 METAR CYVR 201700Z 30016G21KT 30SM FEW015 FEW200 10/07 A2988 RMK SF1CI1 HAZE E. SLP119
2001 04 20 18 METAR CYVR 201800Z 30019KT 30SM FEW015 FEW100 FEW200 10/07 A2989 RMK SF1AC1CI2 TR SF.AC. HAZE E. SLP120
2001 04 20 19 METAR CYVR 201900Z 29018KT 30SM FEW025 BKN200 11/08 A2989 RMK CU1CI2 HAZE E. SLP120
2001 04 20 20 METAR CYVR 202000Z 29018KT 30SM FEW030 BKN200 11/08 A2988 RMK CU1CI2 HAZE E. SLP118
2001 04 20 21 METAR CYVR 202100Z 29018KT 30SM FEW030 BKN200 12/08 A2987 RMK CU2CI2 SLP116
2001 04 20 22 METAR CYVR 202200Z 31018KT 30SM FEW035 SCT200 13/08 A2988 RMK CU2CI1 TCU ASOCTD SLP117
2001 04 20 23 METAR CYVR 202300Z 30017KT 30SM FEW035 FEW200 13/07 A2987 RMK CU2CI0 TCU ASOCTD SLP113
2001 04 21 00 METAR CYVR 210000Z 32014KT 30SM FEW035 FEW200 13/07 A2986 RMK CU2CI0 TCU ASOCTD SLP112
2001 04 21 01 METAR CYVR 210100Z 32014KT 30SM FEW045 FEW200 13/07 A2987 RMK CU2CI0 SLP114
2001 04 21 02 METAR CYVR 210200Z 29014KT 30SM FEW040 FEW220 12/07 A2987 RMK CU2CI1 TCU ASCTD SLP115
2001 04 21 03 METAR CYVR 210300Z 31010G15KT 30SM FEW040 FEW220 11/07 A2988 RMK CU1CI0 SLP119
2001 04 21 04 METAR CYVR 210400Z 31009KT 30SM FEW040 FEW220 10/06 A2990 RMK CU1CI0 SLP125
2001 04 21 05 METAR CYVR 210500Z 30011KT 30SM FEW080 10/06 A2992 RMK AC1 SLP131
2001 04 21 06 METAR CYVR 210600Z 35008KT 30SM FEW090 11/07 A2994 RMK AC1 SLP139
2001 04 21 07 METAR CYVR 210700Z 36004KT 30SM FEW090 10/05 A2995 RMK AC1 TR AC SLP142
2001 04 21 08 METAR CYVR 210800Z 06004KT 30SM FEW090 09/03 A2997 RMK AC1 TR AC SLP147
2001 04 21 09 METAR CYVR 210900Z 08002KT 30SM FEW090 09/03 A2998 RMK AC2 SLP152
2001 04 21 L METAR CYVR NIL
2001 04 21 11 METAR CYVR 211100Z 03002KT 30SM FEW100 07/03 A3000 RMK AC2 SLP159
2001 04 21 12 METAR CYVR 211200Z 08002KT 30SM FEW100 07/03 A3001 RMK AC2 SLP162
2001 04 21 13 METAR CYVR 211300Z 00000KT 30SM FEW100 06/03 A3002 RMK AC1 VIRGA DSTN NE-E SLP167
2001 04 21 14 METAR CYVR 211400Z 00000KT 30SM FEW120 07/03 A3004 RMK AC2 SLP173
2001 04 21 15 METAR CYVR 211500Z 09006KT 30SM FEW110 09/05 A3005 RMK ACC1 SLP176
2001 04 21 16 METAR CYVR 211600Z 11007KT 30SM FEW027 FEW110 11/07 A3006 RMK CU1ACC1 SLP179
2001 04 21 17 METAR CYVR 211700Z 11008KT 30SM FEW026 FEW110 SCT240 12/07 A3005 RMK CU2ACC1CI0 ACC TR SLP177
2001 04 21 18 METAR CYVR 211800Z 14010KT 30SM FEW021 FEW047 BKN240 12/08 A3006 RMK CF2CU1CI0 SLP180
2001 04 21 19 METAR CYVR 211900Z 12009KT 30SM FEW022 FEW052TCU SCT240 14/07 A3005 RMK CF1TCU1CI0 SLP177
2001 04 21 20 METAR CYVR 212000Z 16007KT 30SM FEW024 FEW055TCU SCT240 14/07 A3005 RMK CF1TCU1CI1 CF TR SLP175
2001 04 21 21 METAR CYVR 212100Z 18005KT 30SM FEW025 FEW055TCU BKN240 15/07 A3005 RMK CF1TCU1CI1 TR CF SLP174
2001 04 21 22 METAR CYVR 212200Z 16006KT 30SM FEW050TCU BKN240 15/07 A3004 RMK TCU1CI2 SLP171
2001 04 21 23 METAR CYVR 212300Z 16010KT 30SM FEW050 FEW090 BKN240 16/04 A3003 RMK CU1AC1CI2 TCU ASOCTD SLP168
2001 04 22 00 METAR CYVR 220000Z 17007KT 30SM FEW050 FEW090 SCT240 16/06 A3002 RMK CU1AC1CI1 SLP164
2001 04 22 01 METAR CYVR 220100Z 14006KT 30SM FEW050 FEW090 SCT240 16/06 A3001 RMK CU1AC1CI1 SLP162
2001 04 22 02 METAR CYVR 220200Z 11006KT 30SM FEW050 FEW090 SCT240 15/06 A3001 RMK CU1AC1CI1 SLP161
2001 04 22 03 METAR CYVR 220300Z 17002KT 30SM FEW070 SCT240 14/06 A3001 RMK AC2CI0 SLP161
2001 04 22 04 METAR CYVR 220400Z 25007KT 30SM SCT072 SCT240 12/08 A3003 RMK AC3CI0 SLP168
2001 04 22 05 METAR CYVR 220500Z 26013KT 30SM FEW070 FEW240 11/05 A3005 RMK AC2CI0 SLP174
2001 04 22 06 METAR CYVR 220600Z 20005KT 30SM FEW070 11/05 A3006 RMK AC1 SLP180
2001 04 22 07 METAR CYVR 220700Z 18005KT 30SM FEW038 SCT061 09/04 A3009 RMK SF2SC2 SLP188
2001 04 22 08 METAR CYVR 220800Z 09005KT 30SM FEW040 SCT062 SCT160 07/04 A3011 RMK SF2SC2AC1 SLP195
2001 04 22 09 METAR CYVR 220900Z 09008KT 30SM FEW040 FEW060 SCT150 07/04 A3012 RMK SF1SC1AC2 SLP198
2001 04 22 08 METAR CYVR 220800Z 09005KT 30SM FEW040 SCT062 SCT160 07/04 A3011 RMK SF2SC2AC1 SLP195
2001 04 22 11 METAR CYVR 221100Z 09011KT 20SM FEW040 FEW060 BKN140 07/03 A3014 RMK SF1SC2AC4 SLP205
2001 04 22 12 METAR CYVR 221200Z 09009KT 20SM FEW040 BKN120 07/03 A3015 RMK SF2AC5 SLP210
2001 04 22 13 METAR CYVR 221300Z 09009KT 20SM FEW057 BKN100 OVC140 07/03 A3017 RMK SC2AC4AS2 SLP216
2001 04 22 14 METAR CYVR 221400Z 09009KT 20SM BKN062 BKN100 BKN140 OVC230 08/03 A3018 RMK SC5AC2AS1CI1 SLP220
2001 04 22 15 METAR CYVR 221500Z 22012KT 20SM SCT049 BKN100 OVC140 09/03 A3020 RMK SC4AC2AS2 SLP225
2001 04 22 16 METAR CYVR 221600Z 20009KT 20SM -RA BKN038 OVC100 09/03 A3022 RMK SC6AC2 SLP232
2001 04 22 17 METAR CYVR 221700Z 20005KT 15SM -RA BKN033 OVC100 09/04 A3023 RMK SC6AC2 RAIN VRY LGT SLP236
2001 04 22 18 METAR CYVR 221800Z 14004KT 15SM -RA FEW023 BKN047 OVC100 09/04 A3023 RMK SF1SC4AC3 RAIN VRY LGT SLP238
2001 04 22 19 METAR CYVR 221900Z 12008KT 12SM -RA SCT017 OVC023 09/07 A3023 RMK SF4SC4 SLP238
2001 04 22 20 METAR CYVR 222000Z 09010KT 10SM -RA BKN016 OVC023 08/07 A3023 RMK SF5SC3 SLP237
2001 04 22 21 METAR CYVR 222100Z 13008KT 12SM -RA SCT018 OVC032 09/07 A3023 RMK SF4SC4 VRY LGT RAIN SLP237
2001 04 22 22 METAR CYVR 222200Z 14008KT 8SM -RA SCT012 OVC035 09/07 A3023 RMK SF3SC5 SLP238
2001 04 22 23 METAR CYVR 222300Z 13011KT 8SM -RA SCT010 OVC030 09/07 A3022 RMK SF3SC5 SLP234
2001 04 23 00 METAR CYVR 230000Z 13012KT 8SM -RA FEW010 BKN030 OVC055 08/06 A3021 RMK SF2SC3SC2 SLP231
2001 04 23 01 METAR CYVR 230100Z 12013KT 10SM -RA FEW018 SCT030 OVC055 08/06 A3021 RMK SC2SC2SC4 VER LGT RAIN SLP229
2001 04 23 02 METAR CYVR 230200Z 10009KT 8SM -RA FEW015 SCT030 OVC055 08/07 A3020 RMK SC2SC2SC4 SLP226
2001 04 23 03 METAR CYVR 230300Z 09011KT 8SM -RA FEW011 SCT016 OVC030 08/06 A3020 RMK SC2SC2SC4 SLP225
2001 04 23 04 METAR CYVR 230400Z 09008KT 8SM -RA FEW010 BKN018 OVC030 08/07 A3020 RMK CF2SC5SC1 SLP227
2001 04 23 05 METAR CYVR 230500Z 08008KT 8SM -RA FEW009 BKN015 OVC030 08/06 A3020 RMK CF2SC6SC1 SLP227
2001 04 23 06 METAR CYVR 230600Z 08011KT 8SM -RA FEW009 BKN015 OVC030 08/07 A3020 RMK CF2SC5SC1 SLP225
2001 04 23 07 METAR CYVR 230700Z 08009G15KT 4SM -RA BR FEW006 OVC010 07/07 A3019 RMK SF2SC6 SLP222
2001 04 23 08 METAR CYVR 230800Z 07012KT 4SM -RA BR FEW006 OVC011 07/07 A3019 RMK SF2SC6 SLP222
2001 04 23 09 METAR CYVR 230900Z 09010KT 6SM -RA BR FEW006 BKN012 OVC016 07/07 A3019 RMK SF2SC4SC2 SLP222
2001 04 23 10 METAR CYVR 231000Z 09012KT 6SM -RA BR FEW005 BKN010 OVC014 07/07 A3018 RMK SF2SC3SC3 SLP219
2001 04 23 11 METAR CYVR 231100Z 09014KT 8SM -RA FEW005 SCT010 OVC015 07/06 A3018 RMK SF2SF2SC4 SLP218
2001 04 23 12 METAR CYVR 231200Z 09010KT 8SM -RA FEW008 BKN012 OVC020 08/07 A3018 RMK SF2SC5SC2 VRY LGT RAIN SLP219
2001 04 23 13 METAR CYVR 231300Z 08012KT 7SM -RA BKN012 OVC032 08/07 A3017 RMK SF6SC2 VRY LGT RAIN SLP217
2001 04 23 14 METAR CYVR 231400Z 09012KT 12SM FEW009 BKN012 OVC027 08/07 A3018 RMK SF2SF5SC2 SLP220
2001 04 23 15 METAR CYVR 231500Z 09010KT 12SM FEW009 BKN013 OVC028 08/07 A3020 RMK SF2SF4SC2 SLP225
2001 04 23 16 METAR CYVR 231600Z 10011KT 15SM FEW010 BKN018 OVC030 08/07 A3021 RMK SF2SF4SC2 SLP228
2001 04 23 17 METAR CYVR 231700Z 11011G17KT 15SM SCT014 OVC035 09/08 A3022 RMK SF3SC5 SLP233
2001 04 23 18 METAR CYVR 231800Z 10011KT 15SM SCT015 BKN035 OVC110 10/08 A3023 RMK SF4SC2AC2 SLP235
2001 04 23 19 METAR CYVR 231900Z 14008KT 15SM FEW018 BKN032 OVC110 11/08 A3025 RMK SF2SC2AC3 SLP243
2001 04 23 20 METAR CYVR 232000Z 14009KT 15SM -SHRA FEW017 BKN025 OVC110 11/08 A3026 RMK SF2SC3AC2 SHWRS VRY LGT SLP246
2001 04 23 21 METAR CYVR 232100Z 13010KT 15SM -SHRA FEW015 BKN035 OVC073 12/08 A3026 RMK SF2SC5AC2 SLP247
2001 04 23 22 METAR CYVR 232200Z 15012G18KT 12SM -SHRA SCT015 BKN031 OVC070 12/08 A3027 RMK SF3SC4AC1 SLP249
2001 04 23 23 METAR CYVR 232300Z 14008KT 5SM -SHRA BR SCT015 OVC032 11/09 A3027 RMK SF3SC5 SLP251
2001 04 24 00 METAR CYVR 240000Z 13011G16KT 15SM -SHRA FEW015 BKN034 OVC055 12/09 A3027 RMK SF2SC4SC2 SHWRS VRY LGT SLP251
2001 04 24 01 METAR CYVR 240100Z 12007KT 15SM -SHRA FEW015 BKN035 OVC048 12/09 A3028 RMK SF2SC4SC2 SLP254
2001 04 24 02 METAR CYVR 240200Z 09008KT 15SM -SHRA FEW015 SCT032 BKN068 OVC110 12/09 A3026 RMK SF2SC2AC2AC2 SHWRS VRY LGT SLP248
2001 04 24 03 METAR CYVR 240300Z 08006KT 15SM FEW015 BKN042 OVC090 11/09 A3027 RMK SF2SC3AC3 SLP249
2001 04 24 04 METAR CYVR 240400Z 07007KT 15SM FEW015 BKN042 BKN090 11/09 A3028 RMK SF2SC3AC2 SLP252
2001 04 24 05 METAR CYVR 240500Z 06005KT 15SM SCT048 BKN090 11/09 A3028 RMK SC3AC2 SLP253
2001 04 24 06 METAR CYVR 240600Z 07006KT 15SM FEW031 BKN050 BKN090 11/09 A3027 RMK SC2SC2AC1 SLP250
2001 04 24 07 METAR CYVR 240700Z 10007KT 15SM BKN031 BKN050 OVC090 11/09 A3027 RMK SC5SC2AC2 SLP251
2001 04 24 08 METAR CYVR 240800Z 11007KT 15SM SCT031 BKN100 11/09 A3027 RMK SC4AC3 SLP249
2001 04 24 09 METAR CYVR 240900Z 13006KT 15SM FEW030 BKN070 OVC100 11/09 A3027 RMK SC2AC3AC2 SLP249
2001 04 24 10 METAR CYVR 241000Z 10005KT 15SM BKN028 BKN070 OVC100 11/09 A3027 RMK SC5AC2AC2 SLP249
2001 04 24 11 METAR CYVR 241100Z 11007KT 15SM FEW026 BKN058 OVC100 11/09 A3027 RMK SC2SC4AC2 SLP250
2001 04 24 12 METAR CYVR 241200Z 09006KT 15SM -SHRA FEW030 BKN059 OVC100 10/09 A3026 RMK SC2SC4AC2 PCPN VRY LGT SLP245
2001 04 24 13 METAR CYVR 241300Z 10006KT 15SM FEW022 BKN055 OVC080 11/09 A3026 RMK SC2SC5AC1 SLP246
2001 04 24 14 METAR CYVR 241400Z 10007KT 15SM FEW020 BKN055 OVC080 11/09 A3024 RMK SC2SC4AC2 SLP241
2001 04 24 15 METAR CYVR 241500Z 09010KT 15SM SCT023 BKN055 OVC080 12/09 A3023 RMK SC4SC2AC2 SLP238
2001 04 24 14 METAR CYVR 241400Z 10007KT 15SM FEW020 BKN055 OVC080 11/09 A3024 RMK SC2SC4AC2 SLP241
2001 04 24 17 METAR CYVR 241700Z 11008KT 15SM BKN026 OVC055 12/09 A3024 RMK SC6SC2 SLP241
2001 04 24 18 METAR CYVR 241800Z 09009KT 12SM -SHRA BKN022 OVC048 12/10 A3025 RMK SC6SC2 SLP242
2001 04 24 19 METAR CYVR 241900Z 08009KT 12SM -SHRA BKN022 BKN044 OVC065 12/11 A3024 RMK SC5SC2SC2 SLP240
2001 04 24 20 METAR CYVR 242000Z 06008KT 12SM -SHRA SCT022 BKN043 OVC065 13/11 A3023 RMK SC3SC4SC1 SLP235
2001 04 24 21 METAR CYVR 242100Z 08010KT 15SM BKN038 OVC055 14/11 A3022 RMK SC6SC2 SLP234
2001 04 24 22 METAR CYVR 242200Z 08007KT 15SM BKN035 BKN055 BKN080 15/11 A3022 RMK SC5SC2AC1 SLP232
2001 04 24 23 METAR CYVR 242300Z 08010KT 20SM FEW025 SCT040 BKN070 BKN220 15/11 A3021 RMK SC2SC2AC2CI1 SLP229
2001 04 25 00 METAR CYVR 250000Z 07008KT 20SM FEW028 BKN060 BKN100 BKN220 14/11 A3020 RMK SC2SC4AC1CI1 SLP227
2001 04 25 01 METAR CYVR 250100Z 06009KT 20SM FEW030 SCT060 BKN090 BKN220 14/11 A3019 RMK SC2SC2AC3CI1 SLP222
2001 04 25 02 METAR CYVR 250200Z 10003KT 15SM -SHRA SCT030 BKN060 OVC090 14/11 A3019 RMK SC3SC3AC2 SHWRS VRY LGT SLP222
2001 04 25 03 METAR CYVR 250300Z 08006KT 20SM FEW030 SCT042 BKN090 BKN220 13/11 A3018 RMK SC2SC2AC2CI2 SLP221
2001 04 25 04 METAR CYVR 250400Z 08003KT 20SM FEW030 SCT045 BKN085 BKN220 13/10 A3019 RMK SC2SC2AC2CI1 SLP224
2001 04 25 05 METAR CYVR 250500Z 12002KT 20SM FEW035 SCT060 BKN082 BKN140 13/11 A3020 RMK SC2SC2AC2AC1 SLP225
2001 04 25 06 METAR CYVR 250600Z 04002KT 20SM FEW035 BKN070 OVC120 13/11 A3019 RMK SC2AC4AC2 SLP223
2001 04 25 07 METAR CYVR 250700Z 11004KT 15SM FEW030 BKN065 OVC120 12/10 A3018 RMK SC2SC4AC2 SLP221
2001 04 25 08 METAR CYVR 250800Z 15002KT 15SM FEW030 BKN055 OVC120 13/11 A3019 RMK SC2SC4AC2 SLP222
2001 04 25 09 METAR CYVR 250900Z 09002KT 15SM FEW030 BKN050 BKN120 12/10 A3018 RMK SC1SC4AC2 SLP219
2001 04 25 10 METAR CYVR 251000Z 00000KT 15SM FEW030 SCT050 BKN140 12/10 A3018 RMK SC1SC3AC2 SLP218
2001 04 25 11 METAR CYVR 251100Z 09004KT 15SM FEW035 SCT050 BKN180 11/10 A3018 RMK SC1SC3AC2 SLP218
2001 04 25 12 METAR CYVR 251200Z 09004KT 15SM FEW040 FEW065 SCT180 09/08 A3017 RMK SC1SC2AC2 SLP215
2001 04 25 13 METAR CYVR 251300Z 11006KT 30SM BKN038 BKN100 BKN180 10/10 A3016 RMK SC5AC2CI1 SLP213
2001 04 25 14 METAR CYVR 251400Z 09004KT 30SM SCT023 BKN039 BKN100 11/10 A3017 RMK SC3SC2AC2 SLP215
2001 04 25 15 METAR CYVR 251500Z 11005KT 30SM FEW025 BKN039 BKN100 12/11 A3017 RMK SC2SC2AC2 SLP216
2001 04 25 16 METAR CYVR 251600Z 12004KT 30SM FEW015 BKN027 BKN040 14/11 A3017 RMK SC2SC2SC2 SLP216
2001 04 25 17 METAR CYVR 251700Z 30004KT 30SM FEW025 SCT040 BKN090 BKN180 16/11 A3016 RMK SC2SC2AC1CI0 SLP212
2001 04 25 18 METAR CYVR 251800Z 27007KT 30SM FEW025 SCT040 BKN090 BKN180 13/11 A3016 RMK SC1SC2AC2CI0 SLP212
2001 04 25 19 METAR CYVR 251900Z 27006KT 20SM FEW025 FEW160 BKN200 14/12 A3015 RMK CU1AS1CI2 VSBY LWR S-SW. SLP209
2001 04 25 20 METAR CYVR 252000Z 25004KT 25SM FEW030 FEW160 BKN240 16/12 A3012 RMK CU1AC1CI2 SLP200
2001 04 25 21 METAR CYVR 252100Z CCA 26005KT 25SM FEW030 BKN240 17/13 A3010 RMK CU1CI1 COTRA SLP191
2001 04 25 22 METAR CYVR 252200Z 25009KT 30SM FEW030 BKN200 16/13 A3008 RMK CU1CI1 COTRA SLP185
2001 04 25 23 METAR CYVR 252300Z 28007KT 30SM FEW030 BKN220 17/12 A3005 RMK CU1CI2 TR CU SLP177
2001 04 26 00 METAR CYVR 260000Z 28007KT 30SM FEW030 BKN220 17/12 A3002 RMK CU1CI3 TR CU SLP166
2001 04 26 01 METAR CYVR 260100Z 31007KT 30SM FEW200 BKN240 16/12 A2999 RMK CS2CI1 SLP156
2001 04 26 02 METAR CYVR 260200Z 31009KT 30SM BKN220 14/11 A2997 RMK CI4 SLP147
2001 04 26 03 METAR CYVR 260300Z 32009KT 30SM BKN220 13/10 A2995 RMK CI4 SLP140
2001 04 26 04 METAR CYVR 260400Z 32009KT 25SM BKN220 13/10 A2995 RMK CI4 SLP141
2001 04 26 05 METAR CYVR 260500Z 32009KT 20SM BKN220 12/10 A2995 RMK CI5 SLP140
2001 04 26 06 METAR CYVR 260600Z 32008KT 20SM BKN220 11/10 A2994 RMK CI5 SLP138
2001 04 26 07 METAR CYVR 260700Z 32009KT 20SM SKC 11/10 A2992 RMK SLP133
2001 04 26 08 METAR CYVR 260800Z 32003KT 20SM SKC 11/09 A2992 RMK SLP130
2001 04 26 09 METAR CYVR 260900Z 27004KT 20SM SCT240 10/09 A2991 RMK CI0 SLP128
2001 04 26 10 METAR CYVR 261000Z 00000KT 20SM SCT240 11/09 A2990 RMK CI0 SLP126
2001 04 26 11 METAR CYVR 261100Z 00000KT 20SM FEW240 09/08 A2990 RMK CI0 SLP126
2001 04 26 12 METAR CYVR 261200Z 00000KT 20SM MIFG BKN240 10/08 A2990 RMK CI2 SLP126
2001 04 26 13 METAR CYVR 261300Z 32009KT 20SM MIFG BKN240 09/08 A2991 RMK CI2 SLP129
2001 04 26 14 METAR CYVR 261400Z 00000KT 20SM FEW140 BKN240 10/08 A2992 RMK AC1CI2 TR AC VSBY LWR E SLP130
2001 04 26 15 METAR CYVR 261500Z 10005KT 20SM FEW140 OVC240 12/08 A2994 RMK AC1CI5 VSBY LWR E SLP137
2001 04 26 16 METAR CYVR 261600Z 11007KT 20SM FEW050 FEW140 OVC240 14/10 A2994 RMK SC1AC1CI6 TR AC VSBY LWR E SLP137
2001 04 26 17 METAR CYVR 261700Z 14007KT 20SM FEW050 FEW140 OVC240 15/10 A2995 RMK SC1AC1CI6 TR AC SLP140
2001 04 26 16 METAR CYVR 261600Z 11007KT 20SM FEW050 FEW140 OVC240 14/10 A2994 RMK SC1AC1CI6 TR AC VSBY LWR E SLP137
2001 04 26 19 METAR CYVR 261900Z 15007KT 20SM FEW050 SCT140 OVC240 17/11 A2996 RMK SC1AC2CI4 SLP144
2001 04 26 20 METAR CYVR 262000Z 15002KT 20SM FEW050 BKN060 BKN240 18/11 A2995 RMK SC1SC4CI2 SLP143
2001 04 26 21 METAR CYVR 262100Z 14007KT 20SM FEW050 BKN066 OVC140 17/11 A2996 RMK SC1AC6AC2 SLP144
2001 04 26 22 METAR CYVR 262200Z 14008KT 20SM BKN057 OVC140 19/12 A2995 RMK SC5AC2 SLP141
2001 04 26 23 METAR CYVR 262300Z 16009KT 20SM FEW058 BKN180 19/11 A2994 RMK SC2AC2 SLP139
2001 04 27 00 METAR CYVR 270000Z 15009KT 20SM FEW050 BKN140 17/10 A2994 RMK SC2AC4 SLP138
2001 04 27 01 METAR CYVR 270100Z 14014KT 20SM FEW050 SCT130 BKN180 16/09 A2994 RMK SC1AC3AC2 SLP137
2001 04 27 02 METAR CYVR 270200Z 15008KT 20SM SCT040 BKN120 OVC180 16/08 A2994 RMK SC3AC3AC1 SLP138
2001 04 27 03 METAR CYVR 270300Z 16004KT 30SM SCT045 BKN130 15/09 A2994 RMK SC3AC3 SLP137
2001 04 27 04 METAR CYVR 270400Z 18004KT 30SM SCT045 BKN120 15/08 A2995 RMK SC3AC2 SLP140
2001 04 27 05 METAR CYVR 270500Z 16005KT 30SM FEW050 BKN090 14/08 A2995 RMK SC2AC3 SLP141
2001 04 27 06 METAR CYVR 270600Z 14006KT 30SM BKN052 13/07 A2995 RMK SC6 SLP142
2001 04 27 07 METAR CYVR 270700Z 15004KT 20SM BKN051 13/08 A2995 RMK SC7 SLP143
2001 04 27 08 METAR CYVR 270800Z 12002KT 20SM BKN055 13/09 A2995 RMK SC6 SLP143
2001 04 27 09 METAR CYVR 270900Z 10008KT 30SM BKN048 12/09 A2995 RMK SC6 SLP141
2001 04 27 10 METAR CYVR 271000Z 11005KT 30SM OVC048 12/09 A2994 RMK SC8 SLP139
2001 04 27 11 METAR CYVR 271100Z 10007KT 30SM OVC037 11/09 A2994 RMK SC8 SLP137
2001 04 27 12 METAR CYVR 271200Z 10009KT 30SM BKN051 OVC095 11/09 A2993 RMK SC6AC2 SLP135
2001 04 27 13 METAR CYVR 271300Z 10007KT 20SM BKN050 BKN060 OVC095 10/08 A2993 RMK SC5SC2AC2 SLP134
2001 04 27 14 METAR CYVR 271400Z 11007KT 20SM BKN045 BKN060 OVC095 11/08 A2992 RMK SC5SC2AC2 SLP133
2001 04 27 15 METAR CYVR 271500Z 11011KT 20SM FEW030 BKN046 BKN060 OVC090 11/08 A2992 RMK SC1SC5SC2AC1 SLP133
2001 04 27 16 METAR CYVR 271600Z 13007KT 20SM FEW030 BKN045 OVC080 12/09 A2992 RMK SC1SC6AC2 SLP132
2001 04 27 17 METAR CYVR 271700Z 12007KT 20SM FEW018 BKN048 OVC080 13/09 A2991 RMK CF1SC6AC2 SLP127
2001 04 27 18 METAR CYVR 271800Z 11009KT 20SM FEW018 BKN046 BKN075 13/09 A2989 RMK CF1SC4AC2 SLP122
2001 04 27 19 METAR CYVR 271900Z 12011KT 20SM FEW020 BKN045 OVC075 13/08 A2989 RMK SC2SC3AC2 SLP120
2001 04 27 20 METAR CYVR 272000Z 12010KT 20SM SCT022 BKN048 OVC075 14/09 A2987 RMK SC3SC3AC2 SLP115
2001 04 27 21 METAR CYVR 272100Z 11010KT 15SM BKN021 OVC045 13/09 A2986 RMK SC5SC3 SLP112
2001 04 27 22 METAR CYVR 272200Z 10009KT 10SM -RA FEW015 BKN022 BKN040 OVC055 12/09 A2984 RMK SF2SF2SC2SC2 CIG RGD TCU SW SLP103
2001 04 27 23 METAR CYVR 272300Z 11011KT 15SM FEW015 FEW025 SCT075 BKN150 BKN200 14/11 A2982 RMK SF1CF2AC2AC2CI2 SLP097
2001 04 28 00 METAR CYVR 280000Z 14009KT 15SM SCT018 BKN050 BKN080 OVC180 14/10 A2981 RMK SC4SC2AC2AC1 TCU EMBDD SHWRS E SLP094
2001 04 28 01 METAR CYVR 280100Z 19008KT 15SM -SHRA SCT015 BKN040 BKN060 OVC140 13/11 A2980 RMK CF3SC2SC2AC2 TCU EMBDD SLP092
2001 04 28 02 METAR CYVR 280200Z 18010G16KT 10SM -SHRA SCT015 BKN043 OVC058 12/10 A2979 RMK CF3SC3SC2 TCU EMBDD SLP087
2001 04 28 03 METAR CYVR 280300Z 15003KT 15SM -SHRA FEW015 BKN060 OVC080 12/09 A2977 RMK CF2SC4AC2 SLP082
2001 04 28 04 METAR CYVR 280400Z 11008KT 10SM -SHRA FEW015 BKN053 OVC100 11/09 A2978 RMK SF2SC4AC2 SLP084
2001 04 28 05 METAR CYVR 280500Z CCA 11007KT 15SM FEW012 BKN058 OVC088 11/09 A2979 RMK SF2SC3AC2 INTMT RW- SLP087
2001 04 28 06 METAR CYVR 280600Z 10007KT 15SM FEW010 BKN052 OVC100 10/09 A2979 RMK SF2SC5AC2 SLP086
2001 04 28 07 METAR CYVR 280700Z 11008KT 15SM FEW010 BKN053 OVC100 10/09 A2978 RMK SF2SC6AC1 SLP083
2001 04 28 08 METAR CYVR 280800Z 15004KT 10SM -SHRA FEW010 BKN038 OVC056 10/09 A2977 RMK SF2SC4SC2 SLP082
2001 04 28 09 METAR CYVR 280900Z 21007KT 10SM -SHRA FEW010 BKN038 OVC058 10/08 A2977 RMK SF2SC4SC2 SLP081
2001 04 28 10 METAR CYVR 281000Z 18003KT 10SM -SHRA FEW010 BKN041 OVC061 09/07 A2976 RMK SF1SC4SC3 SLP078
2001 04 28 11 METAR CYVR 281100Z 20005KT 15SM FEW010 FEW022 SCT040 BKN060 OVC100 09/07 A2977 RMK SF1CF1SC3SC3AC2 OCNL RW- SLP081
2001 04 28 12 METAR CYVR 281200Z 30006KT 12SM -SHRA FEW010 SCT014 BKN025 BKN039 OVC080 09/07 A2978 RMK SF1CF2SC2SC2AC1 SLP084
2001 04 28 13 METAR CYVR 281300Z 29010KT 10SM FEW012 SCT020 BKN032 OVC090 09/07 A2979 RMK SF2CF2SC3AC1 OCNL -SHRA TCU ASOCTD SLP088
2001 04 28 14 METAR CYVR 281400Z 28011KT 15SM FEW012 FEW020 SCT030 BKN058 BKN090 08/06 A2981 RMK SF1CF2SC1SC2AC1 TCU ASOCTD SHWRS NE-SE VSBY SW 30 SLP094
2001 04 28 15 METAR CYVR 281500Z 27007KT 20SM FEW012 FEW020 BKN036 BKN090 09/07 A2982 RMK SF1CF2SC2AC1 SLP099
2001 04 28 16 METAR CYVR 281600Z 25003KT 20SM FEW012 FEW038 SCT055 BKN250 11/08 A2984 RMK CF1SC2SC2CI0 TCU NE-S SLP103
2001 04 28 17 METAR CYVR 281700Z 22004KT 20SM FEW015 FEW026TCU SCT053 BKN085 BKN250 11/06 A2984 RMK CF1TCU2SC2AC1CI0 SLP103
2001 04 28 18 METAR CYVR 281800Z 22006KT 20SM FEW012 SCT023TCU BKN070 BKN250 11/06 A2985 RMK CF1TCU4AC2CI1 SHWR DSNT NE SLP107
2001 04 28 19 METAR CYVR 281900Z 23007KT 20SM FEW025 SCT060 SCT250 12/05 A2985 RMK CU2SC1CI1 TCU ASOCTD SLP109
2001 04 28 20 METAR CYVR 282000Z 19005KT 20SM SCT027TCU SCT060 BKN250 14/06 A2985 RMK TCU4SC1CI1 SHWR DSNT NE SLP109
2001 04 28 21 METAR CYVR 282100Z 20008KT 30SM FEW032 FEW060 BKN250 14/05 A2985 RMK CU2SC1CI1 TCU ASOCTD SHWR DSNT NE CB TOP DSNT SE SLP109
2001 04 28 22 METAR CYVR 282200Z 21007KT 30SM FEW035TCU SCT250 14/06 A2986 RMK TCU2CI1 CB TOPS DSNT SE+SW-W SHWRS DSNT N+SE-S SLP110
2001 04 28 23 METAR CYVR 282300Z 18008KT 30SM FEW035TCU SCT080 BKN250 14/05 A2985 RMK TCU2AC1CI2 CB TOPS DSNT ESE+SW SHWRS DSNT N+SW SLP108
2001 04 29 00 METAR CYVR 290000Z 18008KT 30SM FEW035TCU SCT080 BKN250 14/02 A2985 RMK TCU2AC2CI2 CB+SHWRS SW SHWRS DSNT N SLP109
2001 04 29 01 METAR CYVR 290100Z 20012KT 30SM FEW035TCU BKN050CB BKN080 13/04 A2986 RMK TCU2CB2AC2 VIRGA/SHWRS OVRHD+SW-N SLP112
2001 04 29 02 METAR CYVR 290200Z 16006KT 20SM -SHRA FEW035TCU BKN048CB BKN080 11/07 A2987 RMK TCU2CB3AC2 SLP113
2001 04 29 03 METAR CYVR 290300Z 13008KT 20SM FEW030 SCT050TCU BKN060 BKN090 11/06 A2986 RMK SC2TCU2SC2AC2 SHWRS DSNT N-E SLP112
2001 04 29 04 METAR CYVR 290400Z 19010KT 20SM -SHRA FEW030 SCT050TCU BKN077 11/06 A2988 RMK SC2TCU2AC4 SLP118
2001 04 29 05 METAR CYVR 290500Z 21017G24KT 20SM FEW030 SCT050 BKN081 10/03 A2990 RMK SC2SC2AC4 SLP124
2001 04 29 06 METAR CYVR 290600Z 21022G31KT 20SM FEW030 FEW050 SCT080 BKN200 09/01 A2990 RMK SC2SC1AC2CI1 SLP125
2001 04 29 07 METAR CYVR 290700Z 21009KT 20SM FEW030 FEW080 FEW160 BKN240 09/01 A2992 RMK SC1AC1AC2CI0 SLP133
2001 04 29 08 METAR CYVR 290800Z 17006KT 20SM FEW030 FEW082 BKN100 BKN240 09/02 A2992 RMK SC1AC2AC3CI0 SLP132
2001 04 29 09 METAR CYVR 290900Z 13011KT 20SM FEW030 SCT050 BKN085 OVC120 09/05 A2993 RMK SC1SC2AC2AC3 SLP134
2001 04 29 10 METAR CYVR 291000Z 13011KT 12SM -RA SCT030 BKN045 OVC060 08/05 A2990 RMK SC3SC3SC2 SLP126
2001 04 29 11 METAR CYVR 291100Z 13013G18KT 15SM FEW020 FEW050 OVC085 08/05 A2987 RMK SC1SC2AC6 SLP114
2001 04 29 12 METAR CYVR 291200Z 13015G20KT 15SM FEW020 FEW050 OVC077 08/04 A2986 RMK SC1SC1AC6 SLP112
2001 04 29 13 METAR CYVR 291300Z 13021G26KT 15SM FEW022 SCT033 OVC076 08/04 A2983 RMK SC2SC2AC5 SLP102
2001 04 29 14 METAR CYVR 291400Z 14018KT 15SM -RA FEW024 BKN031 OVC075 08/04 A2983 RMK SC2SC3AC2 PCPN VRY LGT SLP102
2001 04 29 15 METAR CYVR 291500Z 13018G25KT 10SM -RA FEW024 BKN030 OVC070 08/04 A2982 RMK SC2SC4AC2 SLP097
2001 04 29 16 METAR CYVR 291600Z 13021G28KT 10SM -RA FEW022 BKN031 OVC070 08/04 A2982 RMK SC2SC4AC2 VSBY NW 5 SLP096
2001 04 29 17 METAR CYVR 291700Z 14017G24KT 8SM -RA FEW012 SCT024 BKN034 OVC070 08/05 A2981 RMK SF1SC2SC2AC2 VSBY HIER SW SLP095
2001 04 29 18 METAR CYVR 291800Z 14014KT 10SM -RA FEW012 SCT025 BKN044 OVC090 09/05 A2982 RMK SF1SC3SC2AC3 PCPN VRY LGT SLP098
2001 04 29 19 METAR CYVR 291900Z 16018G25KT 10SM FEW012 FEW025 BKN037 OVC090 10/06 A2984 RMK SF1SC2SC4AC2 SHWRS DSNT N-E SLP105
2001 04 29 20 METAR CYVR 292000Z 16019G24KT 15SM FEW012 FEW025 SCT040 BKN065 BKN100 11/07 A2984 RMK SF1SC2SC2SC3AC1 SHWRS DSNT NE-E SML BRKS SW SLP105
2001 04 29 21 METAR CYVR 292100Z 15015KT 15SM FEW015 FEW025 SCT050 BKN076 12/05 A2986 RMK SF1SC2SC2AC4 TCU ASOCTD SHWRS DSNT E + SW SLP110
2001 04 29 22 METAR CYVR 292200Z 15011KT 20SM FEW015 FEW028 SCT054 BKN076 BKN200 12/07 A2988 RMK CF1CU2SC2AC2CI1 TCU ASOCTD SHRA NE-E TR CI SLP117
2001 04 29 23 METAR CYVR 292300Z 16010KT 20SM FEW015 SCT028 BKN054 BKN097 OVC200 12/06 A2987 RMK CF1CU2SC2AC2CI0 SLP115
2001 04 30 00 METAR CYVR 300000Z 17011G17KT 20SM FEW017 SCT028 BKN057 BKN096 OVC200 11/06 A2989 RMK CF1CU2SC2AC2CI1 TCU EMBDD SHRA DSTNT S BINOVC SLP121
2001 04 30 01 METAR CYVR 300100Z 21016KT 20SM FEW017 FEW030 FEW058 FEW096 FEW200 12/03 A2989 RMK CF1CU1SC1AC1CI1 CB+SHRA NW TR CF+CI SLP122
2001 04 30 02 METAR CYVR 300200Z 21013G18KT 20SM FEW017 FEW030 BKN058 BKN083 OVC200 11/03 A2991 RMK CF1CU1SC4AC2CI0 TR CF SLP127
2001 04 30 03 METAR CYVR 300300Z 20011KT 20SM FEW022 FEW031 FEW056 BKN076 OVC200 11/03 A2992 RMK CF1SC1SC1AC4CI2 CU ASOCTD BINOVC W TR CF SLP130
2001 04 30 04 METAR CYVR 300400Z 21015KT 20SM FEW022 FEW031 FEW056 BKN081 OVC200 10/03 A2993 RMK CF1SC1SC1AC4CI2 CU ASOCTD BINOVC W TR CF SLP136
2001 04 30 05 METAR CYVR 300500Z 19008G15KT 20SM FEW022 FEW031 FEW056 SCT076 BKN200 10/04 A2995 RMK SF1SC1SC1AC2CI2 TR SF SLP140
2001 04 30 06 METAR CYVR 300600Z 18006KT 15SM FEW022 FEW033 SCT055 BKN092 OVC200 09/04 A2996 RMK SF1SC2SC2AC2CI1 BINOVC SLP144
2001 04 30 07 METAR CYVR 300700Z 19009KT 15SM FEW020 FEW050 BKN085 10/03 A2997 RMK SF1SC2AC5 SLP147
2001 04 30 08 METAR CYVR 300800Z 21013KT 15SM FEW020 FEW040 BKN070 10/03 A2997 RMK SF1SC2AC5 SLP148
2001 04 30 09 METAR CYVR 300900Z 17007KT 15SM FEW020 FEW040 BKN080 09/04 A2996 RMK SF1SC1AC3 SLP144
2001 04 30 10 METAR CYVR 301000Z 14008KT 15SM FEW020 FEW040 BKN085 08/05 A2995 RMK SF1SC2AC5 SLP140
2001 04 30 11 METAR CYVR 301100Z 11009KT 15SM FEW020 FEW040 BKN090 08/05 A2992 RMK SF1SC2AC5 SLP131
2001 04 30 12 METAR CYVR 301200Z 09008KT 15SM -SHRA FEW020 FEW040 OVC075 08/06 A2989 RMK SF1SC2AC6 RW- VERY LGT SLP120
2001 04 30 13 METAR CYVR 301300Z 09009KT 8SM -SHRA BKN014 OVC043 08/06 A2985 RMK SF5SC3 CIG RGD SLP108
2001 04 30 14 METAR CYVR 301400Z 09012KT 10SM -SHRA FEW009 BKN012 BKN018 OVC046 08/07 A2980 RMK SF1SF4SC2SC1 SLP091
2001 04 30 15 METAR CYVR 301500Z 12009KT 10SM -SHRA FEW009 BKN014 OVC020 09/07 A2978 RMK SF1SF4SC3 SLP084
2001 04 30 16 METAR CYVR 301600Z 13015KT 12SM -SHRA FEW008 BKN018 OVC055 09/06 A2974 RMK SF2SC6SC1 SLP070
2001 04 30 17 METAR CYVR 301700Z 14015G27KT 10SM -SHRA FEW008 FEW016 OVC050 09/07 A2968 RMK SF1SF2SC6 SLP051
2001 04 30 18 METAR CYVR 301800Z 16017KT 10SM -SHRA FEW008 SCT016 OVC042 10/07 A2968 RMK SF1SC2SC5 SLP051
2001 04 30 19 METAR CYVR 301900Z 19021G27KT 12SM FEW008 FEW016 BKN042 BKN070 11/08 A2971 RMK SF1SC2SC2AC2 OCNL -SHRA VSBY SW-W 30 SLP060
2001 04 30 20 METAR CYVR 302000Z 21012G20KT 20SM FEW016 SCT030 SCT070 SCT200 12/07 A2974 RMK CF1CU2AC1CI1 TCU ASOCTD SLP069
2001 04 30 21 METAR CYVR 302100Z 23014KT 20SM FEW015 SCT025 SCT070 BKN190 12/04 A2977 RMK CF1CU2AC1CI2 SHWRS MTNS N SLP082
2001 04 30 22 METAR CYVR 302200Z 24016KT 30SM FEW015 SCT035 BKN120 BKN220 12/04 A2982 RMK CF1CU3AC2CI0 SHWRS N-E TCU/CB ASOCTD SLP099
2001 04 30 23 METAR CYVR 302300Z 23015G30KT 30SM FEW015 FEW035 SCT060 BKN120 BKN200 13/03 A2986 RMK CF1CU2SC2AC2CI0 TCU TOPS NE-E SLP110
2001 05 01 00 METAR CYVR 010000Z 25011KT 30SM FEW040 SCT060 BKN120 BKN220 13/02 A2988 RMK CU2SC2AC2CI2 SHWRS + TCU/CB TOPS NE-E SLP117
2001 05 01 01 METAR CYVR 010100Z 22014KT 30SM FEW040 SCT060 BKN100 BKN200 11/02 A2991 RMK CU2SC2AC2CI1 SLP129
2001 05 01 02 METAR CYVR 010200Z 21018G26KT 15SM SCT035 BKN057 BKN070 BKN100 11/03 A2993 RMK SC3SC2AC1CI1 SHWRS ALQDS TCU/CB EMBDD SLP136
2001 05 01 03 METAR CYVR 010300Z 21014G20KT 20SM SCT030 BKN055 BKN075 BKN083 10/03 A2995 RMK SC3SC2AC2AC1 SHWRS ALQDS TCU EMBDD SLP142
2001 05 01 04 METAR CYVR 010400Z 19012G20KT 20SM SCT030 BKN060 BKN078 OVC089 09/04 A2997 RMK SC3SC2AC2AC1 SHWRS W-E SLP149
2001 05 01 05 METAR CYVR 010500Z 18011KT 20SM SCT035 BKN060 OVC075 09/04 A3000 RMK SC3SC3AC2 SLP157
2001 05 01 06 METAR CYVR 010600Z 21011G17KT 15SM -SHRA SCT030 OVC048 09/04 A3001 RMK SC4SC4 TCU EMBDD SLP162
2001 05 01 07 METAR CYVR 010700Z 21014KT 10SM -SHRA BKN034 OVC052 08/04 A3003 RMK SC6SC2 SLP168
2001 05 01 08 METAR CYVR 010800Z 18010KT 10SM -SHRA FEW030 SCT050 OVC100 08/04 A3003 RMK SC2SC2AC4 SLP169
2001 05 01 L METAR CYVR NIL
2001 05 01 10 METAR CYVR 011000Z 21013KT 15SM FEW030 FEW050 BKN110 BKN250 08/03 A3005 RMK SC1SC2AC2CI2 SLP176
2001 05 01 11 METAR CYVR 011100Z 22015KT 20SM FEW030 FEW050 SCT080 08/03 A3007 RMK SC1SC1AC2 SLP183
2001 05 01 12 METAR CYVR 011200Z 22014KT 20SM FEW030 FEW052 SCT062 08/03 A3009 RMK SC2SC1SC1 SLP190
2001 05 01 13 METAR CYVR 011300Z 21012KT 20SM FEW020 FEW060 SCT120 BKN250 08/03 A3011 RMK SC1SC2AC1CI2 SLP197
2001 05 01 14 METAR CYVR 011400Z 22013KT 20SM FEW018 FEW060 FEW095 SCT120 BKN250 08/03 A3014 RMK CU1SC1AC1AC1CI2 SLP205
2001 05 01 15 METAR CYVR 011500Z 21009KT 20SM FEW018 SCT060 SCT120 BKN250 08/03 A3016 RMK CU1SC3AC1CI2 SLP213
2001 05 01 16 METAR CYVR 011600Z 22010G16KT 20SM FEW018 BKN058 BKN140 BKN250 09/03 A3018 RMK CF1SC5AC2CI1 VIRGA S-W SLP221
2001 05 01 17 METAR CYVR 011700Z 22011KT 20SM FEW020 FEW058 SCT090 BKN140 BKN250 10/04 A3020 RMK CU1SC2AC1AC2CI2 SLP227
2001 05 01 18 METAR CYVR 011800Z 22013KT 20SM FEW021 FEW140 SCT180 BKN240 11/04 A3021 RMK CU2AC1AC2CI2 MDT CU SLP230
2001 05 01 19 METAR CYVR 011900Z 22010KT 20SM FEW025 FEW140 SCT180 BKN240 12/04 A3023 RMK CU2AC1AC2CI2 SLP237
2001 05 01 20 METAR CYVR 012000Z 22009KT 20SM FEW027 BKN210 12/03 A3024 RMK SC2CI4 TCU DSNT N-E SLP241
2001 05 01 21 METAR CYVR 012100Z 20005KT 20SM FEW030 SCT055 SCT180 BKN240 12/03 A3025 RMK CU2SC1CI1CI1 TCU ASOCTD SLP243
2001 05 01 22 METAR CYVR 012200Z 23006KT 20SM FEW030 SCT055 SCT110 BKN220 13/03 A3025 RMK CU1SC2AC1CI1 TCU ASOCTD SHWRS SW SLP244
2001 05 01 23 METAR CYVR 012300Z 26003KT 20SM FEW055 SCT140 SCT220 13/03 A3025 RMK CU2AC1CI1 TCU ALQDS SHWRS S-W SLP243
2001 05 02 00 METAR CYVR 020000Z 24007KT 20SM FEW055 SCT140 SCT220 13/04 A3026 RMK CU2AC1CI1 TCU ASOCTD CB + SHWRS W-N SLP245
2001 05 02 01 METAR CYVR 020100Z 29009KT 20SM FEW030 SCT059 BKN140 BKN220 12/03 A3028 RMK CF1CU2AC2CI1 TCU/CB ASOCTD SHWRS NW-NE + SW SLP252
2001 05 02 02 METAR CYVR 020200Z 36005KT 20SM FEW030 SCT060 BKN120 BKN210 11/03 A3028 RMK CF1CU2AC2CI1 TCU/CB ASOCTD SHWRS NW-E SLP255
2001 05 02 03 METAR CYVR 020300Z 03003KT 20SM BKN060 BKN120 BKN220 09/04 A3030 RMK CU5AC1CI1 TCU/CB ASOCTD SHWRS SE-W SLP261
2001 05 02 04 METAR CYVR 020400Z 29015KT 20SM FEW035 FEW055 09/05 A3033 RMK CF1CU2 TCU DSNT E-SW SLP269
2001 05 02 05 METAR CYVR 020500Z 27017KT 20SM FEW030 FEW050 09/06 A3034 RMK CF1CU1 SLP273
2001 05 02 06 METAR CYVR 020600Z 27021G26KT 20SM FEW030 FEW050 09/05 A3036 RMK CF1CU1 SLP281
2001 05 02 07 METAR CYVR 020700Z 29023KT 30SM FEW030 09/05 A3036 RMK CF1 SLP282
2001 05 02 08 METAR CYVR 020800Z 30016G22KT 30SM FEW030 08/05 A3038 RMK CF1 SLP286
2001 05 02 09 METAR CYVR 020900Z 31014G19KT 30SM FEW025 08/04 A3040 RMK SC2 SLP293
2001 05 02 10 METAR CYVR 021000Z 31003KT 30SM FEW030 05/02 A3041 RMK CF2 SLP299
2001 05 02 11 METAR CYVR 021100Z 00000KT 30SM FEW020 06/03 A3044 RMK SC1 SLP308
2001 05 02 12 METAR CYVR 021200Z 03005KT 30SM FEW020 04/02 A3046 RMK SC1 SLP315
2001 05 02 13 METAR CYVR 021300Z 00000KT 30SM FEW020 FEW210 05/02 A3047 RMK SC1CI0 SLP318
2001 05 02 14 METAR CYVR 021400Z 10004KT 30SM FEW020 SCT100 BKN210 07/03 A3050 RMK SC2AC2CI0 SLP327
2001 05 02 15 METAR CYVR 021500Z 09004KT 30SM FEW025 FEW040 FEW210 08/04 A3052 RMK SC1SC1CI0 SLP336
2001 05 02 16 METAR CYVR 021600Z 16003KT 30SM SCT023 SCT040 10/04 A3054 RMK SC3SC1 SLP340
2001 05 02 17 METAR CYVR 021700Z 31006KT 30SM SCT029 BKN045 10/05 A3055 RMK CU4SC2 SLP344
2001 05 02 18 METAR CYVR 021800Z 31008KT 30SM BKN035 BKN045 09/05 A3056 RMK CU5SC1 TCU ASOCTD SLP347
2001 05 02 19 METAR CYVR 021900Z 29011KT 30SM FEW040 SCT230 11/07 A3056 RMK CU2CI0 TCU ASOCTD SLP348
2001 05 02 20 METAR CYVR 022000Z 28009KT 30SM FEW040 SCT230 11/06 A3056 RMK CU2CS1 HALO SLP348
2001 05 02 21 METAR CYVR 022100Z 25005KT 30SM FEW040 BKN230 12/06 A3055 RMK CU2CS1 HALO SLP346
2001 05 02 22 METAR CYVR 022200Z 25006KT 30SM FEW040 BKN220 12/07 A3054 RMK CU2CS2 HALO SLP342
2001 05 02 23 METAR CYVR 022300Z 24005KT 30SM FEW040 SCT220 13/07 A3052 RMK CU1CS2 SLP336
2001 05 03 00 METAR CYVR 030000Z 24006G15KT 30SM FEW040 SCT220 12/07 A3052 RMK CU1CS2 HALO SLP334
2001 05 03 01 METAR CYVR 030100Z 26005KT 30SM FEW043 FEW055 SCT220 12/07 A3051 RMK CU1SC1CS1 SLP332
2001 05 03 02 METAR CYVR 030200Z 27003KT 30SM FEW043 FEW160 SCT220 BKN300 11/06 A3050 RMK CU1AC1CS2CI0 SLP328
2001 05 03 03 METAR CYVR 030300Z 27003KT 30SM FEW043 FEW160 SCT220 BKN300 10/05 A3050 RMK SC1AC1CS2CI1 TR SC+AC SLP328
2001 05 03 04 METAR CYVR 030400Z 34002KT 20SM FEW043 FEW170 SCT220 BKN300 10/05 A3050 RMK SC1AC2CS1CI1 TR SC N SLP328
2001 05 03 05 METAR CYVR 030500Z 04002KT 20SM FEW140 SCT220 BKN300 10/05 A3051 RMK AC2CS1CI1 SLP330
2001 05 03 06 METAR CYVR 030600Z 10004KT 20SM FEW140 SCT220 BKN300 10/05 A3049 RMK AC2CS1CI1 SLP326
2001 05 03 07 METAR CYVR 030700Z 05005KT 30SM BKN250 10/05 A3049 RMK CS0 HALO SLP324
2001 05 03 08 METAR CYVR 030800Z 09005KT 30SM OVC250 07/05 A3048 RMK CS0 SLP322
2001 05 03 09 METAR CYVR 030900Z 09006KT 30SM OVC250 07/04 A3047 RMK CS0 SLP319
2001 05 03 10 METAR CYVR 031000Z 09005KT 30SM FEW160 OVC250 07/04 A3047 RMK AC2CS0 SLP317
2001 05 03 11 METAR CYVR 031100Z 09006KT 30SM FEW110 OVC250 06/04 A3046 RMK AC2CS0 SLP314
2001 05 03 12 METAR CYVR 031200Z 10009KT 30SM FEW085 SCT110 OVC250 06/04 A3044 RMK AC2AC1CS0 SLP309
2001 05 03 13 METAR CYVR 031300Z 10009KT 30SM FEW020 FEW085 BKN110 BKN250 07/04 A3043 RMK SC1AC1AC6CI1 SC OVR STRT SLP304
2001 05 03 14 METAR CYVR 031400Z 11008KT 30SM FEW020 BKN110 BKN250 07/05 A3043 RMK SC1AC6CI1 SC OVR STRT SLP304
2001 05 03 15 METAR CYVR 031500Z 11010KT 30SM FEW020 FEW050 FEW085 BKN110 BKN250 08/05 A3043 RMK SC1SC1AC2AC5CI1 SLP303
2001 05 03 16 METAR CYVR 031600Z 10009KT 30SM FEW020 FEW050 FEW080 OVC110 10/05 A3042 RMK SC1SC1AC2AS5 SLP302
2001 05 03 17 METAR CYVR 031700Z 12009KT 30SM FEW020 FEW040 SCT080 OVC110 11/05 A3041 RMK SC1SC1AC3AS5 SLP299
2001 05 03 18 METAR CYVR 031800Z 12007KT 30SM FEW020 FEW040 BKN078 OVC100 11/06 A3041 RMK SC1SC1AC5AS3 SLP297
2001 05 03 19 METAR CYVR 031900Z 13008KT 30SM FEW020 FEW040 BKN071 OVC100 11/06 A3041 RMK SC1SC1AC6AS2 SLP296
2001 05 03 20 METAR CYVR 032000Z 13005KT 30SM FEW035 BKN065 OVC100 12/06 A3040 RMK SC1SC6AS2 VIRGA SLP293
2001 05 03 21 METAR CYVR 032100Z 20006KT 30SM -SHRA FEW035 BKN050 OVC070 12/06 A3039 RMK SC2SC5AS1 SLP292
2001 05 03 22 METAR CYVR 032200Z 23005KT 20SM -SHRA FEW035 OVC048 11/07 A3039 RMK SC2SC6 SLP291
2001 05 03 23 METAR CYVR 032300Z 17003KT 20SM -RA FEW033 OVC051 11/04 A3038 RMK SF2SC6 SLP287
2001 05 04 00 METAR CYVR 040000Z 09003KT 20SM -RA FEW038 OVC058 11/04 A3036 RMK SC2SC6 SLP280
2001 05 04 01 METAR CYVR 040100Z 02005KT 20SM BKN047 OVC083 11/07 A3034 RMK SC5AC3 SLP274
2001 05 04 02 METAR CYVR 040200Z 04007KT 20SM FEW023 SCT047 BKN085 BKN220 11/06 A3031 RMK CF1SC2AC2CI1 SLP265
2001 05 04 03 METAR CYVR 040300Z 07007KT 20SM FEW025 FEW045 BKN081 OVC230 10/05 A3030 RMK CF1SC1AC4CI2 SLP259
2001 05 04 04 METAR CYVR 040400Z 07009KT 20SM FEW045 SCT110 OVC230 10/05 A3028 RMK SC1AC3CS2 SLP254
2001 05 04 05 METAR CYVR 040500Z 07005KT 20SM BKN089 BKN230 09/05 A3028 RMK AC5CI0 SLP253
2001 05 04 06 METAR CYVR 040600Z 05004KT 20SM SCT060 BKN120 BKN230 09/06 A3026 RMK SC3AC2CI1 SLP247
2001 05 04 07 METAR CYVR 040700Z 04004KT 20SM FEW060 BKN093 OVC220 09/05 A3024 RMK SC2AC5CI1 SLP241
2001 05 04 08 METAR CYVR 040800Z 07005KT 20SM FEW060 OVC100 09/05 A3021 RMK SC2AC6 SLP231
2001 05 04 09 METAR CYVR 040900Z 22002KT 20SM FEW050 OVC090 09/05 A3021 RMK SC2AC6 SLP230
2001 05 04 10 METAR CYVR 041000Z 19002KT 20SM BKN077 OVC100 09/05 A3019 RMK AC5AC3 SLP222
2001 05 04 11 METAR CYVR 041100Z 18002KT 20SM OVC076 09/06 A3016 RMK AC8 SLP214
2001 05 04 12 METAR CYVR 041200Z 00000KT 20SM OVC080 08/06 A3014 RMK AC8 SLP207
2001 05 04 13 METAR CYVR 041300Z 35002KT 20SM OVC080 08/06 A3012 RMK AC8 SLP199
2001 05 04 14 METAR CYVR 041400Z 00000KT 20SM FEW060 OVC078 09/06 A3010 RMK SC2AC6 SLP193
2001 05 04 15 METAR CYVR 041500Z 09004KT 20SM FEW060 OVC075 10/06 A3008 RMK SC2AC6 SLP186
2001 05 04 16 METAR CYVR 041600Z 11006KT 15SM FEW060 BKN070 OVC110 10/06 A3006 RMK SC2AC4AC2 SLP179
2001 05 04 17 METAR CYVR 041700Z 10009KT 15SM FEW045 BKN065 OVC110 11/06 A3004 RMK SC2SC4AC2 SLP172
2001 05 04 18 METAR CYVR 041800Z 12009KT 15SM FEW045 BKN065 OVC100 12/06 A3001 RMK SC2SC3AC2 SLP162
2001 05 04 19 METAR CYVR 041900Z 10008KT 15SM FEW042 BKN065 OVC100 12/07 A2998 RMK SC2SC3AC3 SLP153
2001 05 04 20 METAR CYVR 042000Z 20006KT 12SM -RA FEW042 BKN065 OVC100 12/06 A2999 RMK SC2SC4AC2 R- VERY LGT SLP156
2001 05 04 21 METAR CYVR 042100Z 09010KT 10SM -RA FEW040 BKN050 OVC080 11/07 A2994 RMK SC2SC4AC2 SLP139
2001 05 04 22 METAR CYVR 042200Z 14006KT 4SM -RA BR FEW030 OVC042 11/08 A2995 RMK SF2SC6 SLP142
2001 05 04 23 METAR CYVR 042300Z 13008KT 4SM -RA BR SCT030 OVC050 10/09 A2994 RMK SF3SC5 SLP138
2001 05 05 00 METAR CYVR 050000Z 13010KT 5SM -RA BR SCT030 OVC044 10/09 A2993 RMK SF3SC5 SLP134
2001 05 05 01 METAR CYVR 050100Z 11010KT 20SM FEW030 BKN056 BKN080 10/08 A2990 RMK SF2SC3AC1 SHWRS OVR MTNS N SLP124
2001 05 05 02 METAR CYVR 050200Z 11010KT 6SM -RA BR FEW020 BKN046 OVC080 10/08 A2987 RMK SF2SC4AC1 SLP113
2001 05 05 03 METAR CYVR 050300Z 13011KT 5SM -RA BR FEW020 BKN045 OVC080 09/08 A2985 RMK SF2SC5AC1 SLP107
2001 05 05 04 METAR CYVR 050400Z 15012KT 5SM -RA BR FEW020 BKN045 BKN090 09/08 A2984 RMK SF2SC4AC1 VSBY W 20 SLP104
2001 05 05 05 METAR CYVR 050500Z 18014KT 20SM FEW020 SCT120 BKN210 09/07 A2985 RMK SF2AC2CI1 MNTNS N OBSCD ACC ASOCTD SLP108
2001 05 05 06 METAR CYVR 050600Z 24015KT 20SM FEW020 SCT060 BKN120 09/06 A2986 RMK SF2SC2AC1 SLP112
2001 05 05 07 METAR CYVR 050700Z 25017KT 15SM FEW030 BKN060 BKN140 09/04 A2990 RMK SC2SC4AC2 SLP124
2001 05 05 08 METAR CYVR 050800Z 27016KT 15SM SCT035 BKN075 BKN140 09/04 A2994 RMK SC3AC2AC1 SLP139
2001 05 05 09 METAR CYVR 050900Z 29021G26KT 20SM FEW035 SCT080 BKN220 08/04 A2997 RMK SC2AC2CI1 SLP148
2001 05 05 10 METAR CYVR 051000Z 28017KT 20SM FEW035 FEW080 BKN220 08/03 A3001 RMK SC1AC1CI4 SLP163
2001 05 05 11 METAR CYVR 051100Z 27022KT 20SM FEW035 FEW080 BKN220 08/03 A3004 RMK SC1AC2CI2 SLP172
2001 05 05 12 METAR CYVR 051200Z 27018KT 20SM FEW015 FEW060 SCT120 BKN220 08/04 A3007 RMK CF1SC2AC2CI1 TR CF SLP181
2001 05 05 13 METAR CYVR 051300Z 28013KT 20SM FEW025 FEW060 FEW100 SCT220 07/04 A3010 RMK CF1SC1AC1CI0 SLP192
2001 05 05 14 METAR CYVR 051400Z 28013KT 20SM FEW025 FEW060 FEW100 SCT220 08/04 A3013 RMK CF1SC1AC1CI0 SLP201
2001 05 05 15 METAR CYVR 051500Z 28013KT 30SM FEW025 FEW060 FEW100 SCT220 08/04 A3016 RMK CF1SC1AC1CI0 SLP212
2001 05 05 16 METAR CYVR 051600Z 28013KT 30SM FEW030 FEW060 FEW100 SCT220 10/05 A3018 RMK CF1SC1AC1CI0 SLP219
2001 05 05 17 METAR CYVR 051700Z 27015KT 30SM FEW040 FEW070 10/05 A3020 RMK SC1AC1 SLP226
2001 05 05 18 METAR CYVR 051800Z 27019KT 30SM FEW040 FEW070 11/05 A3022 RMK SC1AC1 SLP234
2001 05 05 19 METAR CYVR 051900Z 29017KT 30SM FEW040 FEW070 FEW220 11/04 A3024 RMK SC1AC1CI0 SLP239
2001 05 05 20 METAR CYVR 052000Z 29017KT 30SM FEW040 SCT080 BKN220 12/05 A3025 RMK CU2AC2CI1 TCU ASOCTD NE AND W SLP243
2001 05 05 21 METAR CYVR 052100Z 26016KT 30SM FEW040 SCT080 BKN220 12/04 A3026 RMK CU2AC2CI0 TCU ASOCTD SLP245
2001 05 05 22 METAR CYVR 052200Z 27014KT 30SM FEW050 SCT075 BKN220 12/03 A3026 RMK CU2AC2CI0 SLP248
2001 05 05 23 METAR CYVR 052300Z 24012KT 30SM FEW050 SCT075 SCT220 12/03 A3027 RMK CU1AC2CI0 SLP250
2001 05 06 00 METAR CYVR 060000Z 26016KT 30SM FEW050 FEW075 SCT220 12/03 A3026 RMK CU1AC1CI1 SLP248
2001 05 06 01 METAR CYVR 060100Z 27014KT 30SM FEW050 FEW075 BKN220 12/03 A3026 RMK CU1AC1CI1 TR AC SLP247
2001 05 06 02 METAR CYVR 060200Z 27014KT 30SM FEW050 FEW075 BKN220 11/04 A3026 RMK CU1AC1CI0 SLP245
2001 05 06 03 METAR CYVR 060300Z 27011KT 30SM FEW050 FEW075 SCT220 10/04 A3026 RMK SC1AC1CI1 TR SC AC SLP248
2001 05 06 04 METAR CYVR 060400Z 25008KT 30SM FEW050 FEW075 FEW220 10/04 A3027 RMK SC1AC1CI0 TR SC AC SLP249
2001 05 06 05 METAR CYVR 060500Z 23008KT 30SM FEW050 FEW220 10/05 A3027 RMK SC1CI0 TR SC SLP251
2001 05 06 06 METAR CYVR 060600Z 25007KT 30SM FEW050 FEW220 09/04 A3027 RMK SC1CI0 TR SC SLP251
2001 05 06 07 METAR CYVR 060700Z 23007KT 30SM FEW220 08/04 A3028 RMK CI2 SLP254
2001 05 06 08 METAR CYVR 060800Z 10010KT 30SM FEW220 06/04 A3029 RMK CI2 SLP257
2001 05 06 09 METAR CYVR 060900Z 09007KT 30SM FEW050 BKN220 06/03 A3029 RMK SC1CI5 SLP258
2001 05 06 10 METAR CYVR 061000Z 09007KT 30SM FEW050 BKN220 05/02 A3030 RMK SC1CI6 SLP259
2001 05 06 11 METAR CYVR 061100Z 09006KT 20SM SCT028 BKN200 05/03 A3030 RMK SC4CI3 SLP259
2001 05 06 12 METAR CYVR 061200Z 09007KT 30SM FEW030 BKN200 05/03 A3030 RMK SC1CI2 SLP260
2001 05 06 13 METAR CYVR 061300Z 09005KT 30SM FEW030 FEW080 BKN200 04/02 A3030 RMK SC1AC1CI1 CONTRA SLP259
2001 05 06 14 METAR CYVR 061400Z 07004KT 30SM FEW030 FEW080 SCT200 07/04 A3030 RMK SC1AC1CI0 SLP259
2001 05 06 15 METAR CYVR 061500Z 00000KT 30SM FEW030 FEW080 BKN200 08/04 A3030 RMK SC1AC1CI1 SLP260
2001 05 06 16 METAR CYVR 061600Z 30004KT 30SM FEW030 BKN200 09/03 A3030 RMK SC1CI1 SLP260
2001 05 06 17 METAR CYVR 061700Z 29006KT 30SM FEW030 OVC200 10/05 A3030 RMK SC1CI2 SLP260
2001 05 06 18 METAR CYVR 061800Z 27008KT 30SM FEW030 OVC200 10/05 A3030 RMK SC1CI2 SLP260
2001 05 06 19 METAR CYVR 061900Z 25007KT 30SM FEW030 BKN200 11/06 A3030 RMK SC1CI2 SLP260
2001 05 06 20 METAR CYVR 062000Z 26007KT 30SM FEW035 BKN200 11/05 A3030 RMK SC1CI2 SLP259
2001 05 06 21 METAR CYVR 062100Z 26006KT 30SM FEW035 BKN200 12/06 A3029 RMK SC1CI2 SLP256
2001 05 06 22 METAR CYVR 062200Z 24007KT 30SM FEW042 BKN240 12/05 A3028 RMK SC1CS2 SLP253
2001 05 06 23 METAR CYVR 062300Z 27004KT 30SM FEW045 BKN240 13/03 A3027 RMK SC1CS1 SC TR SLP250
2001 05 07 00 METAR CYVR 070000Z 26004KT 30SM FEW045 FEW100 OVC240 13/02 A3026 RMK SC1AC1CS1 TR SC/AC SLP245
2001 05 07 01 METAR CYVR 070100Z 25004KT 30SM FEW110 BKN240 13/03 A3025 RMK AC1CS1 SLP242
2001 05 07 02 METAR CYVR 070200Z 30005KT 30SM BKN130 BKN240 12/02 A3024 RMK AC5CI2 SLP240
2001 05 07 03 METAR CYVR 070300Z 23004KT 30SM BKN110 OVC240 12/03 A3023 RMK AC6CI1 SLP238
2001 05 07 04 METAR CYVR 070400Z 00000KT 30SM BKN120 OVC240 11/04 A3024 RMK AC6CI2 SLP239
2001 05 07 05 METAR CYVR 070500Z 00000KT 30SM BKN130 OVC240 11/03 A3025 RMK AC6CI2 SLP243
2001 05 07 06 METAR CYVR 070600Z 28002KT 30SM BKN140 OVC230 11/03 A3025 RMK AC6CI2 SLP244
2001 05 07 07 METAR CYVR 070700Z 01002KT 30SM BKN100 11/04 A3025 RMK AC7 SLP243
2001 05 07 08 METAR CYVR 070800Z 00000KT 30SM BKN085 OVC100 11/03 A3026 RMK AC5AC3 SLP245
2001 05 07 09 METAR CYVR 070900Z 09003KT 30SM BKN079 OVC100 10/04 A3025 RMK AC6AC2 SLP243
2001 05 07 10 METAR CYVR 071000Z 10006KT 30SM BKN078 09/04 A3025 RMK AC5 SLP243
2001 05 07 11 METAR CYVR 071100Z 11004KT 30SM FEW080 BKN190 09/04 A3026 RMK AC2CI2 SLP245
2001 05 07 12 METAR CYVR 071200Z 12005KT 30SM FEW080 BKN190 08/04 A3025 RMK AC2CI2 SLP244
2001 05 07 13 METAR CYVR 071300Z 09004KT 30SM FEW080 SCT180 BKN220 08/05 A3026 RMK AC2CI1CS2 SLP246
2001 05 07 14 METAR CYVR 071400Z 09006KT 30SM FEW080 SCT180 BKN220 09/06 A3027 RMK AC2CI1CS2 SLP249
2001 05 07 15 METAR CYVR 071500Z 10004KT 30SM FEW080 SCT180 BKN220 11/06 A3028 RMK AC2CI1CS2 SLP254
2001 05 07 16 METAR CYVR 071600Z 10005KT 30SM FEW080 SCT180 BKN220 12/06 A3027 RMK AC2CI1CS2 SLP251
2001 05 07 17 METAR CYVR 071700Z 14002KT 30SM FEW070 SCT130 BKN180 14/04 A3027 RMK AC2AC2CI1 SLP251
2001 05 07 18 METAR CYVR 071800Z 24004KT 30SM SCT070 BKN130 BKN180 15/05 A3027 RMK AC3AC1CI1 SLP250
2001 05 07 19 METAR CYVR 071900Z 26006KT 30SM SCT070 BKN120 BKN180 16/09 A3026 RMK AC3AC1CI1 SLP248
2001 05 07 20 METAR CYVR 072000Z 28007KT 30SM SCT070 BKN120 BKN180 15/09 A3027 RMK AC3AC2CI0 SLP249
2001 05 07 21 METAR CYVR 072100Z 29003KT 30SM SCT070 BKN110 BKN180 16/09 A3026 RMK AC3AC2CI0 SLP245
2001 05 07 22 METAR CYVR 072200Z 30010KT 30SM FEW070 BKN083 BKN180 14/08 A3026 RMK AC2AC4CI0 SLP246
2001 05 07 23 METAR CYVR 072300Z 30011KT 30SM FEW070 BKN080 BKN180 13/07 A3025 RMK AC1AC6CI1 SLP244
2001 05 08 00 METAR CYVR 080000Z 29010KT 30SM BKN075 OVC180 13/08 A3024 RMK AC6CS2 SLP241
2001 05 08 01 METAR CYVR 080100Z 34006KT 30SM BKN063 OVC180 14/06 A3023 RMK SC7CS1 SLP238
2001 05 08 02 METAR CYVR 080200Z 01004KT 30SM BKN063 OVC180 14/07 A3023 RMK SC7CI1 SLP237
2001 05 08 03 METAR CYVR 080300Z 34005KT 25SM BKN059 BKN082 OVC100 14/08 A3023 RMK SC6AC2AC1 SLP236
2001 05 08 04 METAR CYVR 080400Z 34002KT 15SM BKN053 OVC070 13/08 A3023 RMK SC6AC2 SLP237
2001 05 08 05 METAR CYVR 080500Z 35006KT 15SM BKN046 OVC070 13/08 A3024 RMK SC6AC2 SLP240
2001 05 08 06 METAR CYVR 080600Z 10005KT 15SM SCT046 BKN054 OVC100 12/08 A3024 RMK SC3SC3AC2 SLP239
2001 05 08 07 METAR CYVR 080700Z 10005KT 15SM -SHRA FEW040 BKN050 BKN060 OVC100 12/09 A3024 RMK SC1SC5SC2AC1 SLP239
2001 05 08 08 METAR CYVR 080800Z 13004KT 15SM FEW040 BKN050 OVC100 12/09 A3023 RMK SC1SC6AC2 OCNL -SHRA SLP238
2001 05 08 09 METAR CYVR 080900Z 10005KT 15SM FEW050 SCT055 OVC060 11/09 A3022 RMK SC2SC2SC5 SLP234
2001 05 08 10 METAR CYVR 081000Z 11004KT 15SM SCT035 BKN060 OVC075 11/08 A3022 RMK SC3SC3AC2 SLP233
2001 05 08 11 METAR CYVR 081100Z 10004KT 15SM FEW035 SCT050 BKN060 OVC075 11/08 A3022 RMK SC2SC2SC3AC2 SLP232
2001 05 08 12 METAR CYVR 081200Z 11006KT 15SM FEW035 SCT060 OVC250 10/08 A3022 RMK SC2SC2CI4 SLP232
2001 05 08 13 METAR CYVR 081300Z 11005KT 15SM FEW030 SCT060 OVC250 09/07 A3022 RMK SC2SC2CI2 SLP232
2001 05 08 14 METAR CYVR 081400Z 20002KT 15SM FEW030 SCT060 OVC250 10/08 A3022 RMK SC2SC2CI2 SLP233
2001 05 08 15 METAR CYVR 081500Z 29017KT 15SM FEW015 BKN058 OVC250 10/07 A3024 RMK SC2SC3CI2 SLP240
2001 05 08 16 METAR CYVR 081600Z 29021KT 15SM FEW015 BKN030 BKN065 10/06 A3024 RMK SC2SC3SC2 TCU ASOCTD SLP240
2001 05 08 17 METAR CYVR 081700Z 29022G27KT 15SM BKN030 BKN065 10/06 A3025 RMK SC5SC2 TCU ASOCTD SLP244
2001 05 08 18 METAR CYVR 081800Z 28022G28KT 15SM FEW030 SCT060 BKN250 11/06 A3026 RMK SC2SC2CI2 SLP246
2001 05 08 19 METAR CYVR 081900Z 28022G27KT 15SM FEW040 FEW070 BKN220 11/06 A3027 RMK SC1AC2CI2 SLP251
2001 05 08 20 METAR CYVR 082000Z 28017G24KT 15SM FEW045 FEW070 OVC220 11/05 A3028 RMK SC1AC2CI2 SLP253
2001 05 08 21 METAR CYVR 082100Z 28015KT 15SM FEW045 FEW070 OVC220 12/05 A3028 RMK SC1AC1CI2 SLP252
2001 05 08 22 METAR CYVR 082200Z 30012KT 20SM FEW045 FEW070 BKN220 12/04 A3027 RMK SC1AC1CI6 HALO SLP250
2001 05 08 23 METAR CYVR 082300Z 28011KT 20SM FEW045 FEW070 BKN220 13/04 A3027 RMK SC1AC1CS6 HALO SLP249
2001 05 09 00 METAR CYVR 090000Z 24006KT 20SM FEW045 FEW070 BKN220 13/04 A3025 RMK SC1AC1CS5 HALO SLP242
2001 05 09 01 METAR CYVR 090100Z 24007KT 20SM FEW040 FEW070 BKN220 12/02 A3023 RMK SC1AC1CS6 SLP236
2001 05 09 02 METAR CYVR 090200Z 24008KT 20SM FEW040 FEW070 BKN220 12/03 A3022 RMK SC1AC1CI3 SLP233
2001 05 09 03 METAR CYVR 090300Z 29006KT 20SM FEW040 FEW070 BKN200 11/05 A3021 RMK SC1AC1CI6 SLP230
2001 05 09 04 METAR CYVR 090400Z 28012KT 20SM FEW040 BKN160 BKN200 10/04 A3021 RMK SC1AC5CI2 SLP230
2001 05 09 05 METAR CYVR 090500Z 28014G19KT 20SM FEW040 BKN160 BKN200 10/03 A3021 RMK SC1AC5CI1 TR SC SLP229
2001 05 09 06 METAR CYVR 090600Z 28010KT 20SM BKN160 BKN200 10/04 A3019 RMK AC5CI1 SLP222
2001 05 09 07 METAR CYVR 090700Z 27012KT 30SM FEW150 BKN240 10/06 A3019 RMK AC1CI1 SLP223
2001 05 09 08 METAR CYVR 090800Z 31009KT 30SM SCT240 09/05 A3018 RMK CI0 SLP221
2001 05 09 09 METAR CYVR 090900Z 31010KT 30SM FEW240 08/04 A3018 RMK CI0 SLP219
2001 05 09 10 METAR CYVR 091000Z 35005KT 30SM SKC 06/03 A3017 RMK SLP216
2001 05 09 11 METAR CYVR 091100Z 02005KT 30SM FEW080 07/03 A3018 RMK AC0 AC TR SLP219
2001 05 09 12 METAR CYVR 091200Z 03003KT 30SM FEW090 FEW240 06/02 A3018 RMK AC1CI0 SLP218
2001 05 09 13 METAR CYVR 091300Z 02002KT 30SM FEW065 SCT240 06/03 A3019 RMK SC2CI0 SLP222
2001 05 09 14 METAR CYVR 091400Z 00000KT 30SM FEW040 SCT065 BKN240 08/03 A3019 RMK SC1SC3CI0 SLP222
2001 05 09 15 METAR CYVR 091500Z 00000KT 30SM FEW040 BKN060 BKN240 09/03 A3019 RMK SC1SC4CI0 SLP224
2001 05 09 16 METAR CYVR 091600Z 30008KT 30SM FEW045 BKN062 BKN240 10/05 A3019 RMK SC1SC5CI0 SLP224
2001 05 09 17 METAR CYVR 091700Z 28009KT 30SM FEW030 BKN045 BKN060 10/05 A3020 RMK SC1SC5SC1 SLP225
2001 05 09 18 METAR CYVR 091800Z 30008KT 30SM FEW040 SCT080 BKN240 11/07 A3019 RMK SC2AC2CI0 SLP224
2001 05 09 19 METAR CYVR 091900Z 27003KT 30SM FEW045 SCT100 11/06 A3020 RMK SC1AC2 SLP225
2001 05 09 20 METAR CYVR 092000Z 24007KT 30SM FEW050 FEW090 12/07 A3020 RMK SC1AC1 SLP225
2001 05 09 21 METAR CYVR 092100Z 26005KT 30SM FEW050 FEW090 13/05 A3018 RMK SC2AC1 SLP220
2001 05 09 22 METAR CYVR 092200Z 22008KT 30SM FEW055 FEW090 FEW140 14/05 A3017 RMK CU1AC1AC1 SLP217
2001 05 09 23 METAR CYVR 092300Z 23010KT 30SM FEW055 FEW090 FEW140 14/05 A3016 RMK CU1AC1AC2 SLP214
2001 05 10 00 METAR CYVR 100000Z 24009KT 30SM FEW055 FEW090 SCT130 15/05 A3015 RMK CU1AC1AC2 SLP210
2001 05 10 01 METAR CYVR 100100Z 20006KT 30SM FEW055 FEW090 BKN150 BKN270 14/03 A3013 RMK SC1AC1AC5CI0 SLP204
2001 05 10 02 METAR CYVR 100200Z 22006KT 30SM FEW055 FEW090 BKN140 BKN270 14/04 A3013 RMK SC1AC2AC3CI0 SLP202
2001 05 10 03 METAR CYVR 100300Z 27002KT 30SM FEW055 FEW095 BKN140 13/05 A3013 RMK SC1AC2AC4 SLP201
2001 05 10 04 METAR CYVR 100400Z 27003KT 30SM FEW095 BKN140 11/08 A3013 RMK AC1AC3 SLP202
2001 05 10 05 METAR CYVR 100500Z 01003KT 30SM FEW095 SCT140 11/06 A3014 RMK AC1AC3 SLP206
2001 05 10 06 METAR CYVR 100600Z 05005KT 30SM FEW100 FEW140 11/04 A3014 RMK AC1AC2 SLP206
2001 05 10 07 METAR CYVR 100700Z 07002KT 30SM FEW050 FEW140 09/02 A3014 RMK SC1AC2 TR SC SLP206
2001 05 10 08 METAR CYVR 100800Z 08006KT 20SM FEW140 07/03 A3015 RMK AC2 SLP209
2001 05 10 09 METAR CYVR 100900Z 11003KT 20SM FEW070 FEW140 08/04 A3016 RMK AC1AC2 TR AC SLP212
2001 05 10 10 METAR CYVR 101000Z 09006KT 20SM FEW140 07/03 A3016 RMK AC2 SLP213
2001 05 10 11 METAR CYVR 101100Z 09006KT 20SM FEW140 FEW220 06/03 A3017 RMK AC1CI1 SLP216
2001 05 10 12 METAR CYVR 101200Z 08008KT 30SM FEW140 FEW220 05/02 A3018 RMK AC1CI1 SLP219
2001 05 10 13 METAR CYVR 101300Z 08008KT 30SM FEW012 FEW120 SCT250 06/03 A3019 RMK ST1AC2CI0 SLP223
2001 05 10 14 METAR CYVR 101400Z 09010KT 30SM FEW020 SCT090 BKN250 08/05 A3020 RMK SC1AC4CI1 SLP227
2001 05 10 15 METAR CYVR 101500Z 09010KT 30SM FEW020 BKN090 BKN250 09/06 A3022 RMK SC1AC5CI1 SLP232
2001 05 10 16 METAR CYVR 101600Z 10011KT 20SM FEW017 BKN090 BKN250 09/06 A3023 RMK SC2AC4CI1 SLP238
2001 05 10 17 METAR CYVR 101700Z 11012KT 20SM FEW025 SCT090 SCT130 BKN250 11/05 A3024 RMK CU2AC2AC1CI1 SLP239
2001 05 10 18 METAR CYVR 101800Z 10011KT 30SM FEW040 FEW090 BKN250 12/04 A3023 RMK CU1AC1CI0 SLP238
2001 05 10 19 METAR CYVR 101900Z 13007G15KT 30SM FEW040 FEW100 BKN250 13/04 A3025 RMK CU1AC1CI1 SLP244
2001 05 10 20 METAR CYVR 102000Z 14006KT 30SM FEW040 BKN250 14/05 A3024 RMK CU1CI1 SLP240
2001 05 10 21 METAR CYVR 102100Z 15005KT 30SM FEW045 BKN250 13/05 A3024 RMK CU1CI2 COTRA SLP239
2001 05 10 22 METAR CYVR 102200Z 11007KT 30SM FEW043 SCT210 15/03 A3022 RMK CU1CI2 TR CU SLP234
2001 05 10 23 METAR CYVR 102300Z 14006KT 30SM FEW043 SCT180 15/M00 A3021 RMK CU1CI2 TR CU SLP229
2001 05 11 00 METAR CYVR 110000Z 16007KT 30SM FEW043 SCT180 16/03 A3020 RMK CU1CI1 TR CU SLP225
2001 05 11 01 METAR CYVR 110100Z 17006KT 30SM FEW043 FEW160 SCT220 15/02 A3018 RMK CF1AC1CI1 TR CF SLP221
2001 05 11 02 METAR CYVR 110200Z 16006KT 30SM FEW043 FEW160 BKN220 15/M02 A3017 RMK CF1AC2CI2 TR CF LYR THIN NO CIG SLP217
2001 05 11 03 METAR CYVR 110300Z 18003KT 30SM FEW160 SCT220 BKN300 14/04 A3016 RMK AC2CI1CI1 LYR THIN NO CIG SLP213
2001 05 11 04 METAR CYVR 110400Z 23002KT 30SM FEW140 SCT220 BKN300 12/05 A3016 RMK AC2CI1CI1 LYR THIN NO CIG SLP214
2001 05 11 05 METAR CYVR 110500Z 35003KT 20SM SCT120 BKN220 BKN300 12/06 A3015 RMK AC4CI1CI1 SLP209
2001 05 11 06 METAR CYVR 110600Z 01005KT 20SM SCT120 BKN220 BKN300 11/05 A3013 RMK AC3CI1CI1 SLP203
2001 05 11 07 METAR CYVR 110700Z 01004KT 20SM SCT120 OVC180 11/04 A3012 RMK AC3CI2 SLP199
2001 05 11 08 METAR CYVR 110800Z 36002KT 20SM BKN120 OVC180 12/03 A3011 RMK AC5CI2 SLP195
2001 05 11 09 METAR CYVR 110900Z 28002KT 20SM BKN120 OVC180 12/03 A3011 RMK AC5CI2 SLP195
2001 05 11 10 METAR CYVR 111000Z 10005KT 20SM BKN120 OVC180 11/04 A3009 RMK AC6CI2 SLP190
2001 05 11 11 METAR CYVR 111100Z CCA 18002KT 20SM BKN110 OVC180 12/03 A3010 RMK AC6CI2 SLP192
2001 05 11 12 METAR CYVR 111200Z 13002KT 20SM BKN090 OVC180 11/05 A3007 RMK AC6CI2 SLP182
2001 05 11 13 METAR CYVR 111300Z 30007KT 30SM BKN088 OVC120 11/07 A3008 RMK AC6AC2 SLP184
2001 05 11 14 METAR CYVR 111400Z 36004KT 30SM BKN090 BKN120 BKN250 11/05 A3007 RMK AC5AC2CI0 SLP183
2001 05 11 15 METAR CYVR 111500Z 31009KT 30SM FEW080 BKN110 12/09 A3007 RMK AC2AC5 SLP183
2001 05 11 16 METAR CYVR 111600Z 30006KT 30SM FEW080 FEW110 BKN250 13/08 A3006 RMK AC2AC1CI1 SLP179
2001 05 11 17 METAR CYVR 111700Z 31010KT 30SM FEW080 FEW150 BKN230 14/08 A3005 RMK AC2AC1CI2 SLP176
2001 05 11 18 METAR CYVR 111800Z 29011KT 30SM SCT080 SCT150 BKN230 13/09 A3005 RMK AC2AC1CI2 SLP177
2001 05 11 19 METAR CYVR 111900Z 30010KT 30SM FEW040 FEW100 BKN230 14/09 A3004 RMK CF1AC2CI2 SLP173
2001 05 11 20 METAR CYVR 112000Z 29011KT 30SM FEW040 FEW100 BKN230 15/09 A3003 RMK CF1AC1CI2 SLP168
2001 05 11 21 METAR CYVR 112100Z 30011KT 30SM FEW045 FEW100 BKN230 15/09 A3002 RMK CF1AC1CI2 SLP166
2001 05 11 22 METAR CYVR 112200Z 30009KT 30SM SCT200 BKN250 16/09 A3000 RMK CI3CI0 SLP157
2001 05 11 23 METAR CYVR 112300Z 31007KT 30SM SCT200 BKN250 16/08 A2995 RMK CI4CI1 SLP141
2001 05 12 00 METAR CYVR 120000Z 30007KT 30SM SCT190 BKN250 16/08 A2995 RMK CI3CI3 SLP142
2001 05 12 01 METAR CYVR 120100Z 30008KT 30SM FEW190 BKN250 16/08 A2992 RMK CI2CI1 SLP133
2001 05 12 02 METAR CYVR 120200Z 31009KT 30SM BKN250 15/08 A2990 RMK CI3 SLP124
2001 05 12 03 METAR CYVR 120300Z 30004KT 30SM FEW190 BKN250 13/09 A2989 RMK CI2CI1 SLP121
2001 05 12 04 METAR CYVR 120400Z 32006KT 30SM BKN180 OVC250 13/08 A2984 RMK AC6CI2 SLP106
2001 05 12 05 METAR CYVR 120500Z 31005KT 30SM SCT180 BKN240 18/08 A2986 RMK AC3CI3 SLP112
2001 05 12 06 METAR CYVR 120600Z 35004KT 30SM FEW170 BKN240 13/09 A2984 RMK AC2CI3 SLP106
2001 05 12 07 METAR CYVR 120700Z 30005KT 30SM FEW170 SCT240 13/09 A2983 RMK AC2CI1 SLP102
2001 05 12 08 METAR CYVR 120800Z 00000KT 30SM FEW170 SCT220 13/10 A2982 RMK AC2CI1 SLP098
2001 05 12 09 METAR CYVR 120900Z 05002KT 30SM FEW170 SCT220 12/09 A2981 RMK AC2CI0 SLP093
2001 05 12 10 METAR CYVR 121000Z 36003KT 30SM FEW220 11/08 A2980 RMK CI1 SLP092
2001 05 12 11 METAR CYVR 121100Z 01002KT 30SM FEW220 11/06 A2979 RMK CI0 SLP087
2001 05 12 12 METAR CYVR 121200Z 00000KT 30SM FEW170 BKN240 10/06 A2979 RMK AC1CI1 SLP088
2001 05 12 13 METAR CYVR 121300Z 09003KT 30SM FEW170 BKN240 10/07 A2979 RMK AC1CS2 SLP087
2001 05 12 14 METAR CYVR 121400Z 00000KT 30SM FEW180 BKN240 12/08 A2979 RMK AC2CS2 SLP087
2001 05 12 15 METAR CYVR 121500Z 12004KT 30SM FEW120 FEW190 BKN240 14/08 A2979 RMK AC1AC2CS5 TR LWR AC. SLP089
2001 05 12 16 METAR CYVR 121600Z 15006KT 30SM FEW120 FEW190 BKN240 15/08 A2980 RMK AC1AC2CS5 SLP091
2001 05 12 17 METAR CYVR 121700Z 14005KT 30SM FEW120 FEW190 BKN240 15/09 A2980 RMK AC1AC2CS5 SLP090
2001 05 12 18 METAR CYVR 121800Z 12007KT 30SM FEW120 SCT190 OVC240 16/09 A2979 RMK ACC2AC2CS4 SLP087
2001 05 12 19 METAR CYVR 121900Z 14006KT 20SM FEW100 OVC240 16/08 A2979 RMK ACC2CS6 HZ SLP087
2001 05 12 20 METAR CYVR 122000Z 14005KT 20SM BKN100 OVC240 17/07 A2979 RMK AC6CS2 ACC ASOCTD HZ SLP087
2001 05 12 21 METAR CYVR 122100Z 14005KT 30SM BKN100 OVC220 18/07 A2979 RMK AC6CS2 ACC ASOCTD SLP089
2001 05 12 22 METAR CYVR 122200Z 13004KT 30SM FEW045 BKN100 OVC170 18/09 A2980 RMK CU1AC6AS2 ACC ASOCTD SLP091
2001 05 12 23 METAR CYVR 122300Z 09004KT 30SM FEW045 BKN110 OVC170 18/10 A2980 RMK CU1AC5AS3 TR CU SLP092
2001 05 13 00 METAR CYVR 130000Z 11005KT 30SM FEW045 BKN110 OVC170 19/10 A2981 RMK CU1ACC6AS2 TR CU VIRGA W SLP095
2001 05 13 01 METAR CYVR 130100Z 27007KT 30SM FEW050 FEW100 BKN130 OVC170 19/10 A2982 RMK CU1ACC2ACC3AS2 VIRGA W QUAD SLP096
2001 05 13 02 METAR CYVR 130200Z 29012G17KT 30SM FEW050 SCT090 BKN120 OVC170 16/09 A2984 RMK CU1ACC3AC2AS2 VIRGA S-NW SLP103
2001 05 13 03 METAR CYVR 130300Z 29017KT 30SM FEW050 SCT078 BKN120 OVC170 14/10 A2986 RMK CU1ACC3AC3AS2 VIRGA OVHD SHWRS DSNT ALQDS SLP110
2001 05 13 04 METAR CYVR 130400Z 30008KT 30SM FEW050 BKN087 BKN120 14/10 A2988 RMK CU1ACC6AC2 SHWRS N-E-S CB TOP DSNT S SLP119
2001 05 13 05 METAR CYVR 130500Z 29009KT 30SM FEW080 SCT120 13/09 A2991 RMK AC2AC2 SLP129
2001 05 13 06 METAR CYVR 130600Z 30009KT 30SM FEW060 BKN078 BKN110 13/09 A2992 RMK SC2AC3AC2 SLP133
2001 05 13 07 METAR CYVR 130700Z 30009KT 30SM FEW060 BKN075 BKN120 13/09 A2993 RMK SC2AC3AC2 SLP136
2001 05 13 08 METAR CYVR 130800Z 30009KT 30SM BKN055 BKN080 OVC110 13/09 A2995 RMK SC5AC2AC2 SLP140
2001 05 13 09 METAR CYVR 130900Z 30009KT 30SM BKN045 OVC080 12/08 A2995 RMK SC5AC3 SLP143
2001 05 13 10 METAR CYVR 131000Z 28007KT 25SM BKN045 OVC080 12/09 A2996 RMK SC6AC2 SLP146
2001 05 13 11 METAR CYVR 131100Z 25006KT 20SM BKN041 OVC080 12/07 A2998 RMK SC6AC2 SLP152
2001 05 13 12 METAR CYVR 131200Z 30006KT 20SM BKN042 BKN080 11/08 A2998 RMK SC6AC1 SLP152
2001 05 13 13 METAR CYVR 131300Z 29010KT 30SM FEW020 FEW041 SCT080 BKN250 11/08 A2999 RMK CF1SC2AC2CI1 SLP156
2001 05 13 14 METAR CYVR 131400Z 29009KT 30SM SCT013 BKN043 BKN080 BKN250 11/09 A3000 RMK CF4SC2AC1CI0 SLP159
2001 05 13 15 METAR CYVR 131500Z 28003KT 30SM FEW017 BKN043 BKN080 BKN250 12/09 A3002 RMK CF2SC2AC2CI1 CU EMBDD SLP164
2001 05 13 16 METAR CYVR 131600Z 27007KT 30SM FEW019 BKN048 BKN080 BKN250 12/09 A3003 RMK CF2CU2AC2CI0 SLP168
2001 05 13 17 METAR CYVR 131700Z 25005KT 30SM FEW020 FEW044 SCT080 BKN230 13/09 A3003 RMK CF1CU2AC1CI1 TCU E LYR THIN NO CIG SLP170
2001 05 13 18 METAR CYVR 131800Z 26002KT 30SM FEW020 FEW039 FEW080 BKN230 13/09 A3004 RMK CF1CU2AC1CI2 TCU EMBDD TR CF+AC SLP171
2001 05 13 19 METAR CYVR 131900Z 23006KT 30SM FEW041 FEW090 OVC220 15/08 A3003 RMK CU1AC2CI4 BINOVC SLP168
2001 05 13 20 METAR CYVR 132000Z 16006KT 30SM FEW041 SCT059 BKN090 OVC220 15/06 A3001 RMK CU1SC2AC2CI2 SLP162
2001 05 13 21 METAR CYVR 132100Z 18010KT 30SM FEW041 BKN062 BKN090 OVC220 15/07 A3001 RMK CF2SC3AC2CI2 SLP162
2001 05 13 22 METAR CYVR 132200Z 16007KT 30SM FEW040 FEW065 FEW090 BKN200 15/07 A2999 RMK SC1SC2AC1CS4 SLP156
2001 05 13 23 METAR CYVR 132300Z 16006KT 30SM FEW040 FEW065 SCT090 BKN200 16/06 A2998 RMK SC1SC2AC1CS3 SLP153
2001 05 14 00 METAR CYVR 140000Z 16005KT 30SM FEW040 BKN070 BKN170 OVC200 15/07 A2997 RMK SC1AC5AC2CI1 VIRGA W-NW SLP149
2001 05 14 01 METAR CYVR 140100Z 15006KT 30SM FEW040 BKN070 BKN170 OVC200 15/08 A2996 RMK SC1AC5AC2CI1 VIRGA SW-NW SLP145
2001 05 14 02 METAR CYVR 140200Z 10007KT 30SM FEW040 FEW070 BKN120 OVC200 14/09 A2993 RMK SC1AC2AC5CI1 VIRGA SLP134
2001 05 14 03 METAR CYVR 140300Z 14008KT 30SM FEW040 FEW070 SCT120 OVC200 14/09 A2990 RMK SC1AC2AC2CI2 SLP126
2001 05 14 04 METAR CYVR 140400Z 17006KT 30SM FEW040 SCT070 BKN130 OVC200 13/09 A2989 RMK SC1AC2AC4CI1 SLP123
2001 05 14 05 METAR CYVR 140500Z 14006KT 20SM FEW040 FEW070 FEW130 OVC200 13/08 A2987 RMK SC1AC1AC1CI1 SLP116
2001 05 14 06 METAR CYVR 140600Z 16005KT 20SM BKN032 OVC070 12/08 A2986 RMK SC6AC2 SLP111
2001 05 14 07 METAR CYVR 140700Z 16005KT 15SM -RA BKN035 OVC046 12/08 A2984 RMK SC6SC2 PCPN VRY LGT SLP105
2001 05 14 08 METAR CYVR 140800Z 14005KT 15SM -RA BKN032 BKN045 OVC070 12/09 A2983 RMK SC6SC2AC1 SLP100
2001 05 14 09 METAR CYVR 140900Z 08005KT 12SM -RA BKN030 OVC060 11/09 A2982 RMK SC6SC2 SLP096
2001 05 14 10 METAR CYVR 141000Z 11007KT 10SM -RA FEW015 BKN030 OVC060 11/10 A2979 RMK SF1SC5SC2 SLP089
2001 05 14 11 METAR CYVR 141100Z 13010KT 8SM -RA FEW008 FEW022 BKN034 OVC050 11/09 A2978 RMK SF1SC1SC3SC3 SLP085
2001 05 14 12 METAR CYVR 141200Z 13014KT 10SM -RA FEW009 SCT028 OVC050 10/08 A2978 RMK SF1SC2SC5 SLP083
2001 05 14 13 METAR CYVR 141300Z 12014KT 10SM -RA FEW009 SCT028 OVC047 10/08 A2977 RMK SF2SC2SC4 BR PTCHS ALQDS SLP082
2001 05 14 14 METAR CYVR 141400Z 12012KT 8SM -RA FEW009 SCT040 OVC053 10/08 A2977 RMK SF2SC2SC4 SLP080
2001 05 14 15 METAR CYVR 141500Z 12009KT 6SM -RA BR SCT012 OVC040 10/09 A2977 RMK SF4SC4 SLP080
2001 05 14 16 METAR CYVR 141600Z 13013KT 6SM -RA BR SCT012 BKN020 OVC040 11/09 A2977 RMK SF3SC3SC2 SLP080
2001 05 14 17 METAR CYVR 141700Z 13014G20KT 6SM -RA BR BKN015 OVC047 11/09 A2976 RMK SF3SC5 SLP078
2001 05 14 16 METAR CYVR 141600Z 13013KT 6SM -RA BR SCT012 BKN020 OVC040 11/09 A2977 RMK SF3SC3SC2 SLP080
2001 05 14 19 METAR CYVR 141900Z 13015G24KT 8SM -RA FEW012 SCT025 OVC050 11/08 A2977 RMK SF2SC2SC5 SLP082
2001 05 14 20 METAR CYVR 142000Z 14018KT 8SM -RA FEW015 SCT025 OVC050 11/08 A2976 RMK SF2SC2SC5 SLP079
2001 05 14 21 METAR CYVR 142100Z 13013G21KT 8SM -RA FEW015 SCT025 OVC044 11/09 A2976 RMK SF2SC1SC6 SLP076
2001 05 14 22 METAR CYVR 142200Z 13011G16KT 4SM -RA BR SCT012 SCT025 OVC044 11/09 A2976 RMK SF3SF1SC4 SLP076
2001 05 14 23 METAR CYVR 142300Z 13011G16KT 6SM -RA SCT012 BKN025 OVC042 11/09 A2975 RMK SF3SC2SC3 SLP074
2001 05 15 00 METAR CYVR 150000Z 14012KT 6SM -RA BR BKN012 BKN022 OVC042 11/09 A2975 RMK SF5SC2SC2 SLP074
2001 05 15 01 METAR CYVR 150100Z 14009KT 8SM -RA SCT007 BKN011 OVC015 11/10 A2974 RMK SF3SF3SC2 CIG RGD SLP072
2001 05 15 02 METAR CYVR 150200Z 16012KT 20SM SCT008 BKN012 BKN028 11/10 A2974 RMK SF4SF2SC1 SLP072
2001 05 15 03 METAR CYVR 150300Z 14005KT 20SM FEW005 BKN025 BKN080 11/10 A2974 RMK SF2SC2AC2 VIRGA W VSBY LWR N-SE SLP071
2001 05 15 04 METAR CYVR 150400Z 11005KT 20SM FEW005 FEW025 SCT080 BKN100 11/09 A2976 RMK SF1SC2AC1AC4 VIRGA OVHD SLP077
2001 05 15 05 METAR CYVR 150500Z 12005KT 20SM FEW005 FEW025 SCT080 BKN100 10/09 A2978 RMK SF1SC2AC2AC2 TR SF SLP083
2001 05 15 06 METAR CYVR 150600Z 16004KT 20SM FEW005 FEW025 BKN050 11/07 A2980 RMK SF1SC2SC4 TR SF SLP092
2001 05 15 07 METAR CYVR 150700Z 19005KT 20SM FEW012 FEW020 BKN045 10/06 A2982 RMK SF1SC2SC4 SLP099
2001 05 15 08 METAR CYVR 150800Z 21007KT 20SM FEW020 BKN036 BKN060 10/06 A2985 RMK SC2SC3SC2 SLP108
2001 05 15 09 METAR CYVR 150900Z 09004KT 20SM FEW020 BKN040 BKN120 09/07 A2987 RMK SC1SC4AC2 SLP114
2001 05 15 10 METAR CYVR 151000Z 11007KT 20SM FEW020 BKN050 BKN120 09/06 A2988 RMK SC1SC4AC2 SLP119
2001 05 15 11 METAR CYVR 151100Z 13005KT 20SM FEW020 SCT050 BKN100 08/06 A2991 RMK SC1SC2AC4 SLP127
2001 05 15 12 METAR CYVR 151200Z 10009KT 20SM FEW020 SCT050 BKN100 07/05 A2992 RMK SC1SC2AC2 SLP130
2001 05 15 13 METAR CYVR 151300Z 10008KT 20SM FEW025 BKN055 BKN100 08/06 A2993 RMK SC2SC3AC1 SLP134
2001 05 15 14 METAR CYVR 151400Z 10009KT 20SM FEW025 BKN058 BKN080 BKN100 09/07 A2993 RMK SC2SC3AC2AC1 SLP135
2001 05 15 15 METAR CYVR 151500Z 11007KT 20SM FEW012 SCT025 BKN058 BKN090 10/08 A2995 RMK SC2SC2SC2AC2 SLP140
2001 05 15 16 METAR CYVR 151600Z 16006KT 20SM FEW012 SCT025 BKN053 BKN090 11/07 A2995 RMK SC2SC2SC2AC2 SLP143
2001 05 15 17 METAR CYVR 151700Z 13010KT 20SM FEW012 SCT025 BKN050 BKN090 11/07 A2995 RMK CF1SC2SC2AC2 TCU ASOCTD SLP140
2001 05 15 18 METAR CYVR 151800Z 13012KT 20SM SCT020 BKN040 BKN090 12/07 A2994 RMK SC3SC2AC2 TCU ASOCTD SLP138
2001 05 15 19 METAR CYVR 151900Z 13007KT 20SM SCT023 BKN040 BKN090 12/07 A2993 RMK SC3SC2AC2 TCU ASOCTD SLP135
2001 05 15 20 METAR CYVR 152000Z 14009G17KT 20SM FEW023 SCT040 BKN082 BKN200 14/06 A2991 RMK SC2SC2AC2CI0 TCU ASOCTD SLP127
2001 05 15 21 METAR CYVR 152100Z 14009KT 20SM FEW020 SCT038 BKN080 OVC180 14/04 A2987 RMK SC2SC2AC2CI2 TCU ASOCTD SLP114
2001 05 15 22 METAR CYVR 152200Z 12013G19KT 20SM FEW020 SCT035 BKN080 BKN180 14/07 A2983 RMK CU2CU2AC2CI1 TCU ASOCTD SLP101
2001 05 15 23 METAR CYVR 152300Z 11013G18KT 20SM FEW020 SCT040 BKN080 BKN140 14/05 A2980 RMK CU1CU2AC2AS2 TCU ASOCTD SLP092
2001 05 16 00 METAR CYVR 160000Z 09013G19KT 20SM FEW040 SCT140 BKN220 15/07 A2976 RMK CU2AS2CI2 SLP079
2001 05 16 01 METAR CYVR 160100Z 09010KT 20SM FEW040 SCT090 BKN140 14/06 A2972 RMK CU1AC2AS5 SLP064
2001 05 16 02 METAR CYVR 160200Z 10010G16KT 20SM FEW040 FEW080 OVC120 14/06 A2968 RMK CU1AC2AS5 SLP050
2001 05 16 03 METAR CYVR 160300Z 11012KT 5SM RA BR FEW020 OVC048 11/08 A2968 RMK SF2NS6 SLP050
2001 05 16 04 METAR CYVR 160400Z 10016KT 5SM -RA BR FEW015 SCT025 OVC045 10/09 A2966 RMK SF2SF2NS5 SLP045
2001 05 16 05 METAR CYVR 160500Z 18007KT 5SM RA BR SCT011 OVC022 10/08 A2967 RMK SF3NS5 RERA LGTIC E SLP048
2001 05 16 06 METAR CYVR 160600Z 18009KT 10SM -SHRA FEW022 OVC060 10/07 A2971 RMK SF2SC6 SLP060
2001 05 16 07 METAR CYVR 160700Z 17010KT 15SM FEW020 BKN044 OVC060 10/07 A2975 RMK SC2SC4SC2 SLP073
2001 05 16 08 METAR CYVR 160800Z 18010KT 10SM -SHRA FEW020 SCT030 OVC038 10/06 A2976 RMK SC2SC2SC5 SLP078
2001 05 16 09 METAR CYVR 160900Z 27008G15KT 8SM -SHRA SCT015 BKN028 OVC040 09/08 A2979 RMK SF3SC3SC2 SLP086
2001 05 16 10 METAR CYVR 161000Z 29018KT 12SM -SHRA FEW008 SCT016 BKN025 OVC090 09/07 A2984 RMK SF1SF3SC2AC2 PCPN VRY LGT SLP105
2001 05 16 11 METAR CYVR 161100Z 30010G17KT 12SM FEW007 SCT020 BKN046 OVC090 09/06 A2989 RMK SF1SC2SC3AC2 OCNL RW- SLP122
2001 05 16 12 METAR CYVR 161200Z 27009KT 15SM -SHRA FEW009 FEW020 BKN047 BKN090 09/06 A2993 RMK SF1SC2SC3AC1 VSBY S-W 30 SLP136
2001 05 16 13 METAR CYVR 161300Z 27004KT 30SM FEW015 SCT040 BKN080 BKN100 08/05 A2998 RMK SF1SC3AC1AC1 SLP151
2001 05 16 14 METAR CYVR 161400Z 15004KT 30SM FEW010 FEW040 SCT080 BKN100 09/06 A3002 RMK SF1SC2AC2AC1 SLP164
2001 05 16 14 METAR CYVR 161400Z 15004KT 30SM FEW010 FEW040 SCT080 BKN100 09/06 A3002 RMK SF1SC2AC2AC1 SLP164
2001 05 16 16 METAR CYVR 161600Z 21010KT 30SM FEW010 FEW045 SCT080 SCT100 BKN280 12/05 A3008 RMK SF1SC2AC1AC1CI2 SLP186
2001 05 16 17 METAR CYVR 161700Z 20011KT 30SM SCT035 SCT060 BKN080 BKN220 12/05 A3010 RMK CU3CF1AC1CI1 TCU TOPS NW SLP194
2001 05 16 18 METAR CYVR 161800Z 20009KT 30SM FEW035 SCT060TCU BKN090 BKN210 13/05 A3012 RMK CU2TCU2AC2CI1 SLP198
2001 05 16 19 METAR CYVR 161900Z 19011G17KT 30SM FEW030 SCT060TCU BKN090 BKN210 BKN250 13/05 A3014 RMK SC2TCU2AC2CI1CI0 ASOCTD CB SLP205
2001 05 16 20 METAR CYVR 162000Z 16013G20KT 30SM FEW040 SCT060 BKN090 BKN210 13/06 A3014 RMK SC2CU2AC2CI1 SLP205
2001 05 16 21 METAR CYVR 162100Z 17012G17KT 30SM SCT036TCU BKN090 BKN210 OVC250 14/05 A3014 RMK TCU3AC2CI0CS2 SLP206
2001 05 16 22 METAR CYVR 162200Z 19008KT 30SM FEW035 FEW090 FEW210 BKN240 14/06 A3015 RMK CU2AC1CI1CS2 SLP208
2001 05 16 23 METAR CYVR 162300Z 20009KT 30SM FEW035 FEW090 FEW200 OVC240 15/05 A3015 RMK CU2AC1CI1CS2 SLP211
2001 05 17 00 METAR CYVR 170000Z 22012G19KT 30SM FEW040 FEW090 FEW200 BKN240 15/04 A3016 RMK CU2AC1CI1CI2 SLP213
2001 05 17 01 METAR CYVR 170100Z 23014KT 30SM FEW040 FEW090 FEW200 BKN240 14/04 A3016 RMK CU2AC1CI1CI2 SLP214
2001 05 17 02 METAR CYVR 170200Z 23012KT 30SM FEW040 FEW090 FEW200 SCT240 13/04 A3017 RMK CU1AC1CI1CI1 SLP215
2001 05 17 03 METAR CYVR 170300Z 23013KT 30SM FEW040 FEW120 BKN240 12/04 A3017 RMK SC1AC1CI1 SLP216
2001 05 17 04 METAR CYVR 170400Z 24012KT 30SM FEW040 FEW120 BKN240 11/05 A3018 RMK SC1AC1CI2 SLP220
2001 05 17 02 METAR CYVR 170200Z 23012KT 30SM FEW040 FEW090 FEW200 SCT240 13/04 A3017 RMK CU1AC1CI1CI1 SLP215
2001 05 17 06 METAR CYVR 170600Z 23010KT 30SM FEW040 FEW120 FEW240 10/04 A3020 RMK SC1AC1CI0 SLP225
2001 05 17 07 METAR CYVR 170700Z 20005KT 30SM FEW045 FEW120 10/04 A3019 RMK SC1AC1 SLP223
2001 05 17 08 METAR CYVR 170800Z 16002KT 30SM FEW045 FEW120 SCT240 06/03 A3019 RMK SC1AC2CI0 SLP223
2001 05 17 09 METAR CYVR 170900Z 10006KT 30SM FEW045 FEW100 SCT240 07/03 A3018 RMK SC1AC2CI0 SLP221
2001 05 17 10 METAR CYVR 171000Z 10006KT 30SM FEW040 FEW100 SCT240 06/03 A3018 RMK SC1AC2CI0 SLP218
2001 05 17 11 METAR CYVR 171100Z 08005KT 30SM FEW040 FEW100 BKN150 07/04 A3017 RMK SC1AC1AC2 SLP217
2001 05 17 12 METAR CYVR 171200Z 09007KT 30SM FEW040 BKN120 BKN150 07/04 A3017 RMK SC1AC5AC1 SLP216
2001 05 17 13 METAR CYVR 171300Z 10005KT 20SM FEW025 FEW040 BKN100 OVC140 08/05 A3016 RMK SF1SF1AC4AC2 SLP214
2001 05 17 14 METAR CYVR 171400Z 10005KT 20SM FEW030 FEW040 BKN110 OVC150 08/06 A3015 RMK SF1SF1AC3AC3 SLP211
2001 05 17 15 METAR CYVR 171500Z 11008KT 20SM FEW030 BKN100 BKN210 10/06 A3015 RMK SF2AC3CI1 SLP210
2001 05 17 16 METAR CYVR 171600Z 12007KT 20SM SCT035 BKN060 BKN100 OVC210 10/06 A3015 RMK SC3SC2AC2CI1 SLP209
2001 05 17 17 METAR CYVR 171700Z 13006KT 20SM SCT025 BKN056 OVC120 11/05 A3015 RMK SC3SC2AC2 SLP209
2001 05 17 18 METAR CYVR 171800Z 12006KT 20SM FEW025 SCT040 BKN055 BKN098 OVC120 11/05 A3015 RMK SF2SC2SC2AC2AC2 SLP209
2001 05 17 19 METAR CYVR 171900Z 16005KT 20SM FEW025 FEW045 BKN068 OVC120 12/04 A3015 RMK SC2SC1AC4AC2 SLP208
2001 05 17 20 METAR CYVR 172000Z 14006KT 20SM FEW025 SCT045 BKN065 OVC092 12/04 A3014 RMK CF2CU2SC2AC2 SLP206
2001 05 17 21 METAR CYVR 172100Z 18007KT 20SM FEW045 SCT060 OVC094 13/04 A3014 RMK SC2SC2AC4 SLP205
2001 05 17 22 METAR CYVR 172200Z 19007KT 20SM SCT035 OVC082 12/05 A3014 RMK CU3AC5 SLP206
2001 05 17 23 METAR CYVR 172300Z 19008KT 20SM SCT035 BKN085 OVC120 13/05 A3013 RMK CU3AC3AC2 TCU ASOCTD SLP203
2001 05 18 00 METAR CYVR 180000Z 19008KT 20SM FEW035 BKN081 OVC120 12/05 A3013 RMK CU2AC3AC2 TCU ASOCTD SLP202
2001 05 18 01 METAR CYVR 180100Z 18006KT 20SM FEW035 BKN080 OVC120 12/05 A3013 RMK SC2AC3AC2 SLP201
2001 05 18 02 METAR CYVR 180200Z 16004KT 20SM FEW035 BKN060 BKN100 12/05 A3012 RMK SC2SC3AC2 SLP200
2001 05 18 03 METAR CYVR 180300Z 15004KT 20SM FEW035 SCT060 BKN080 OVC120 12/06 A3013 RMK SC2SC2AC2AC2 SLP202
2001 05 18 04 METAR CYVR 180400Z 16004KT 20SM FEW035 BKN054 OVC110 12/06 A3014 RMK SC2SC4AC2 SLP206
2001 05 18 05 METAR CYVR 180500Z 15004KT 20SM FEW030 BKN052 OVC110 11/06 A3015 RMK SC2SC4AC2 SLP208
2001 05 18 06 METAR CYVR 180600Z 18002KT 20SM FEW030 BKN052 OVC110 11/06 A3016 RMK SC2SC4AC2 SLP212
2001 05 18 07 METAR CYVR 180700Z 00000KT 15SM BKN050 OVC090 11/06 A3017 RMK SC6AC2 SLP215
2001 05 18 08 METAR CYVR 180800Z 16002KT 15SM FEW030 SCT052 BKN080 11/06 A3017 RMK SC1SC2AC4 SLP216
2001 05 18 09 METAR CYVR 180900Z 10004KT 15SM FEW050 OVC080 09/06 A3018 RMK SC2AC6 SLP218
2001 05 18 10 METAR CYVR 181000Z 10003KT 15SM FEW050 OVC095 09/07 A3019 RMK SC2AC6 SLP224
2001 05 18 11 METAR CYVR 181100Z 10006KT 15SM FEW050 BKN085 09/06 A3019 RMK SC2AC6 SLP224
2001 05 18 12 METAR CYVR 181200Z 09005KT 20SM FEW025 BKN056 BKN100 08/06 A3021 RMK SC1SC5AC2 SLP228
2001 05 18 13 METAR CYVR 181300Z 10005KT 20SM FEW025 BKN052 OVC096 09/07 A3022 RMK SC1SC6AC2 BINOVC W SLP232
2001 05 18 14 METAR CYVR 181400Z 11004KT 20SM FEW025 SCT055 BKN096 BKN210 10/07 A3024 RMK SC1SC3AC1CI0 CU ASOCTD SLP239
2001 05 18 15 METAR CYVR 181500Z 14004KT 20SM FEW025 BKN053 BKN096 BKN210 11/07 A3025 RMK CF1SC4AC1CI0 CU ASOCTD CIG+VSBY LWR N-NE SLP242
2001 05 18 16 METAR CYVR 181600Z 10004KT 30SM FEW028 SCT051 BKN096 BKN210 12/07 A3026 RMK CF1SC2AC2CI1 TCU NW SLP248
2001 05 18 17 METAR CYVR 181700Z 00000KT 30SM FEW030 SCT051 BKN096 BKN210 13/07 A3028 RMK CU2SC2AC1CI0 TCU ASOCTD SLP252
2001 05 18 18 METAR CYVR 181800Z 24006KT 30SM FEW035 SCT095 BKN210 14/08 A3028 RMK CU2AC1CI0 TCU ASOCTD LYR THIN NO CIG SLP254
2001 05 18 19 METAR CYVR 181900Z 25007KT 30SM SCT038 SCT095 BKN210 13/07 A3028 RMK CU3AC1CI1 TCU ASOCTD TR AC SLP255
2001 05 18 20 METAR CYVR 182000Z 24006KT 30SM FEW038TCU FEW095 SCT210 15/07 A3028 RMK TCU2AC1CI1 SHRA DSTNT NE TR AC SLP254
2001 05 18 21 METAR CYVR 182100Z 23009G15KT 30SM SCT040TCU SCT095 BKN210 16/08 A3028 RMK TCU3AC1CI1 CIG LWR NE SLP252
2001 05 18 22 METAR CYVR 182200Z 23007G16KT 30SM FEW035TCU SCT060 BKN095 OVC210 16/07 A3027 RMK TCU2SC2AC2CS1 LWR CLD NE SLP251
2001 05 18 23 METAR CYVR 182300Z 22007KT 30SM FEW035TCU SCT060 BKN095 OVC210 16/06 A3027 RMK TCU2SC2AC1CS2 LWR CLD NE SLP249
2001 05 19 00 METAR CYVR 190000Z 18007KT 30SM FEW035TCU BKN057 OVC210 15/07 A3027 RMK TCU1SC5CS2 SLP249
2001 05 19 01 METAR CYVR 190100Z 14008KT 30SM FEW035 BKN050 BKN065 BKN210 15/06 A3026 RMK CU1SC5SC1CS1 SLP247
2001 05 19 02 METAR CYVR 190200Z 16009KT 30SM FEW035 BKN050 BKN065 OVC210 14/05 A3025 RMK CU1SC5SC1CS1 SLP243
2001 05 19 03 METAR CYVR 190300Z 15010KT 30SM FEW035 BKN055 OVC210 13/06 A3023 RMK CU1SC5CS2 SLP237
2001 05 19 04 METAR CYVR 190400Z 13007KT 30SM FEW035 SCT053 BKN140 OVC210 12/06 A3022 RMK CF1SC4AC2CS1 SLP233
2001 05 19 05 METAR CYVR 190500Z 11008KT 30SM FEW053 BKN087 OVC140 12/07 A3021 RMK SC2AC4AC1 SLP228
2001 05 19 06 METAR CYVR 190600Z 10005KT 30SM FEW050 BKN080 OVC140 11/07 A3021 RMK SC2AC4AC2 SLP228
2001 05 19 07 METAR CYVR 190700Z 10007KT 20SM FEW050 BKN095 OVC140 11/07 A3019 RMK SC1AC5AC2 SLP222
2001 05 19 08 METAR CYVR 190800Z 11007KT 20SM FEW050 SCT080 OVC140 11/07 A3018 RMK SC1AC2AC5 SLP219
2001 05 19 09 METAR CYVR 190900Z 17005KT 20SM BKN070 OVC120 12/04 A3018 RMK AC6AC2 SLP219
2001 05 19 10 METAR CYVR 191000Z 09006KT 20SM BKN065 OVC120 11/05 A3017 RMK SC6AC2 SLP217
2001 05 19 11 METAR CYVR 191100Z 12002KT 20SM SCT060 OVC100 11/05 A3016 RMK SC3AC5 SLP213
2001 05 19 12 METAR CYVR 191200Z 20003KT 20SM BKN062 BKN090 11/05 A3016 RMK SC6AC2 SLP212
2001 05 19 13 METAR CYVR 191300Z 23012KT 20SM FEW020 BKN055 OVC092 11/06 A3015 RMK ST1SC6AC2 ST+SHRA N+E SLP211
2001 05 19 14 METAR CYVR 191400Z 18007G15KT 20SM -RA FEW020 BKN046 OVC092 11/06 A3016 RMK CF2SC5AC2 BR PTCHS N-NE SLP214
2001 05 19 15 METAR CYVR 191500Z 22008KT 15SM -RA FEW009 SCT020 BKN036 OVC087 11/07 A3018 RMK SF2CF2SC2AC2 CU EMBDD CIG+VSBY LWR NW-NE SLP221
2001 05 19 16 METAR CYVR 191600Z 27016G22KT 15SM -RA FEW009 FEW020 BKN040 OVC087 10/08 A3019 RMK SF1CF2SC4AC2 CU EMBDD VSBY E 8BR RA VRY LGT SLP224
2001 05 19 17 METAR CYVR 191700Z 29021G27KT 20SM FEW014 FEW028 BKN041 BKN055 BKN090 10/07 A3021 RMK CF1CU2CU3SC2AC1 TCU EMBDD TR CF SLP231
2001 05 19 18 METAR CYVR 191800Z 28023G28KT 20SM FEW028 FEW042 FEW061 FEW095 SCT250 11/07 A3023 RMK CF1CU2SC1ACC1CI0 TCU ASOCTD TR CF+ACC SLP236
2001 05 19 19 METAR CYVR 191900Z 28021G27KT 30SM FEW032 FEW095 FEW250 11/07 A3024 RMK CU1AC1CI1 TR AC+CI SLP241
2001 05 19 20 METAR CYVR 192000Z 28020G26KT 30SM FEW035 FEW095 FEW250 12/06 A3025 RMK CU1AC1CI1 TR AC+CI SLP242
2001 05 19 21 METAR CYVR 192100Z 27017KT 30SM FEW038 FEW100 FEW250 13/07 A3025 RMK CU1AC1CI1 TR AC+CI SLP242
2001 05 19 22 METAR CYVR 192200Z 27019G26KT 30SM FEW045 FEW100 FEW250 14/05 A3023 RMK SC1AC1CI0 SLP238
2001 05 19 23 METAR CYVR 192300Z 29016KT 30SM FEW050 FEW250 15/05 A3024 RMK SC2CI0 CU ASOCTD SLP241
2001 05 20 00 METAR CYVR 200000Z 30019G24KT 30SM FEW050 SCT250 15/04 A3023 RMK SC2CI0 SLP238
2001 05 20 01 METAR CYVR 200100Z 27020G25KT 30SM FEW050 FEW080 SCT250 15/05 A3024 RMK SC2AC1CI0 SLP240
2001 05 20 02 METAR CYVR 200200Z 26016KT 30SM FEW050 SCT075 BKN250 14/07 A3024 RMK SC2AC2CI0 SLP241
2001 05 20 03 METAR CYVR 200300Z 27018G23KT 30SM FEW070 SCT100 BKN250 13/06 A3025 RMK AC2AC1CI0 SLP243
2001 05 20 04 METAR CYVR 200400Z 28019KT 30SM FEW065 SCT100 BKN250 12/05 A3026 RMK SC2AC1CI0 SLP246
2001 05 20 05 METAR CYVR 200500Z 28017KT 30SM BKN062 BKN250 12/05 A3027 RMK SC5CI0 SLP251
2001 05 20 06 METAR CYVR 200600Z 28017G22KT 30SM BKN065 BKN250 12/05 A3029 RMK SC5CI0 SLP257
2001 05 20 07 METAR CYVR 200700Z 27019G24KT 20SM BKN064 11/06 A3030 RMK SC5 SLP260
2001 05 20 08 METAR CYVR 200800Z 28021G27KT 30SM FEW065 11/04 A3030 RMK SC2 SLP259
2001 05 20 09 METAR CYVR 200900Z 29021G28KT 20SM FEW065 10/05 A3031 RMK SC2 SLP265
2001 05 20 10 METAR CYVR 201000Z 28021G26KT 30SM FEW065 10/05 A3033 RMK SC2 SLP271
2001 05 20 11 METAR CYVR 201100Z 30016KT 30SM SKC 09/05 A3035 RMK SLP276
2001 05 20 12 METAR CYVR 201200Z 31016KT 30SM FEW065 09/05 A3036 RMK SC2 SLP281
2001 05 20 13 METAR CYVR 201300Z 34007KT 30SM FEW025 FEW060 FEW100 07/04 A3038 RMK SC1SC1AC1 SLP286
2001 05 20 14 METAR CYVR 201400Z 01005KT 30SM FEW025 FEW060 FEW100 09/04 A3041 RMK SC1SC1AC1 SLP298
2001 05 20 15 METAR CYVR 201500Z 07002KT 30SM FEW025 FEW100 10/05 A3041 RMK SC1AC1 SLP299
2001 05 20 16 METAR CYVR 201600Z 10003KT 30SM FEW025 FEW045 FEW100 12/05 A3042 RMK SC2SC1AC1 SLP302
2001 05 20 17 METAR CYVR 201700Z 09004KT 30SM FEW029 SCT045 SCT100 13/06 A3042 RMK SC2SC1AC1 SLP302
2001 05 20 18 METAR CYVR 201800Z 29008KT 30SM FEW030 BKN140 13/09 A3043 RMK CU2AC4 SLP304
2001 05 20 19 METAR CYVR 201900Z 26008KT 30SM FEW040 BKN140 13/08 A3043 RMK CU2AC5 SLP305
2001 05 20 20 METAR CYVR 202000Z 26008KT 30SM FEW040 FEW140 FEW220 14/09 A3042 RMK CU2AC1CI1 SLP302
2001 05 20 21 METAR CYVR 202100Z 26007KT 30SM FEW040 FEW140 FEW220 14/08 A3042 RMK CU1AC1CI1 TCU ASOCTD E SLP300
2001 05 20 22 METAR CYVR 202200Z 26006KT 30SM FEW045 FEW120 SCT220 14/05 A3041 RMK SC1AC1CI0 SLP298
2001 05 20 23 METAR CYVR 202300Z 25007G15KT 30SM FEW060 FEW120 FEW220 14/07 A3040 RMK SC1AC1CI0 SLP294
2001 05 21 00 METAR CYVR 210000Z 25006KT 30SM FEW060 FEW220 15/04 A3039 RMK SC1CI0 SLP292
2001 05 21 01 METAR CYVR 210100Z 25006KT 30SM FEW060 FEW140 FEW220 15/05 A3039 RMK SC1AC1CI0 SLP289
2001 05 21 02 METAR CYVR 210200Z 24004KT 30SM FEW070 SCT110 SCT220 14/04 A3038 RMK AC2AC2CI0 SLP288
2001 05 21 03 METAR CYVR 210300Z 26002KT 30SM SCT085 BKN110 14/04 A3037 RMK AC4AC2 SLP285
2001 05 21 04 METAR CYVR 210400Z 00000KT 30SM BKN085 BKN110 14/03 A3037 RMK AC5AC1 SLP284
2001 05 21 05 METAR CYVR 210500Z 27002KT 30SM BKN080 BKN100 14/04 A3037 RMK AC5AC1 SLP285
2001 05 21 06 METAR CYVR 210600Z 00000KT 25SM SCT070 BKN095 BKN180 13/05 A3037 RMK AC3AC2AC1 SLP284
2001 05 21 07 METAR CYVR 210700Z 00000KT 30SM SCT090 13/05 A3036 RMK AC4 SLP282
2001 05 21 08 METAR CYVR 210800Z 00000KT 30SM BKN080 12/05 A3036 RMK AC5 SLP282
2001 05 21 09 METAR CYVR 210900Z 02002KT 30SM BKN075 13/05 A3036 RMK AC6 SLP282
2001 05 21 10 METAR CYVR 211000Z 00000KT 30SM BKN070 12/05 A3036 RMK AC5 SLP279
2001 05 21 11 METAR CYVR 211100Z 10004KT 30SM BKN065 11/05 A3036 RMK SC4 SLP280
2001 05 21 12 METAR CYVR 211200Z 11006KT 30SM BKN057 BKN220 10/06 A3036 RMK SC5CI2 SLP281
2001 05 21 13 METAR CYVR 211300Z 11006KT 30SM BKN057 BKN220 11/07 A3036 RMK SC5CI1 SLP281
2001 05 21 14 METAR CYVR 211400Z 09007KT 30SM SCT055 BKN220 11/05 A3035 RMK SC2CI2 220 LYR THN SLP278
2001 05 21 14 METAR CYVR 211400Z 09007KT 30SM SCT055 BKN220 11/05 A3035 RMK SC2CI2 220 LYR THN SLP278
2001 05 21 16 METAR CYVR 211600Z 11004KT 30SM FEW240 14/06 A3034 RMK CI1 SLP274
2001 05 21 17 METAR CYVR 211700Z 16003KT 30SM FEW240 15/06 A3033 RMK CI1 SLP269
2001 05 21 18 METAR CYVR 211800Z 25008KT 30SM FEW240 17/07 A3030 RMK CI1 SLP261
2001 05 21 19 METAR CYVR 211900Z 23008KT 30SM FEW220 SCT250 16/09 A3028 RMK CI1CC0 SLP255
2001 05 21 20 METAR CYVR 212000Z 26008KT 30SM SCT210 16/08 A3028 RMK CI1 SLP252
2001 05 21 21 METAR CYVR 212100Z 26006KT 30SM BKN220 16/08 A3026 RMK CI1 220 LYR THN SLP247
2001 05 21 22 METAR CYVR 212200Z 27006KT 30SM BKN210 17/07 A3024 RMK CI1 220 LYR THN SLP241
2001 05 21 23 METAR CYVR 212300Z 27005KT 30SM BKN210 17/07 A3022 RMK CI1 SLP233
2001 05 22 00 METAR CYVR 220000Z 27005KT 30SM OVC210 17/08 A3020 RMK CI2 SLP226
2001 05 22 01 METAR CYVR 220100Z 29005KT 30SM BKN240 17/08 A3017 RMK CI2 SLP217
2001 05 22 02 METAR CYVR 220200Z 28006KT 30SM BKN240 17/07 A3015 RMK CI3 SLP211
2001 05 22 03 METAR CYVR 220300Z 29004KT 30SM BKN200 16/07 A3013 RMK CI2 SLP204
2001 05 22 04 METAR CYVR 220400Z 31003KT 30SM BKN200 14/07 A3011 RMK CI2 SLP197
2001 05 22 05 METAR CYVR 220500Z 31004KT 30SM SCT200 14/08 A3012 RMK CI1 SLP198
2001 05 22 06 METAR CYVR 220600Z 00000KT 30SM SCT200 14/08 A3011 RMK CI1 SLP196
2001 05 22 07 METAR CYVR 220700Z 36002KT 20SM FEW220 14/08 A3009 RMK CI0 SLP190
2001 05 22 08 METAR CYVR 220800Z 36003KT 20SM FEW220 14/08 A3009 RMK CI0 SLP188
2001 05 22 09 METAR CYVR 220900Z 00000KT 20SM FEW220 12/07 A3008 RMK CI0 SLP186
2001 05 22 10 METAR CYVR 221000Z 32003KT 20SM FEW220 13/08 A3008 RMK CI0 SLP185
2001 05 22 11 METAR CYVR 221100Z 00000KT 20SM FEW220 12/08 A3006 RMK CI0 SLP180
2001 05 22 12 METAR CYVR 221200Z 34003KT 30SM FEW110 FEW220 10/07 A3006 RMK AC1CI1 TR CLDS DSTNT E SLP179
2001 05 22 13 METAR CYVR 221300Z 00000KT 30SM FEW150 FEW250 11/08 A3005 RMK AC1CI0 TR AC SLP176
2001 05 22 14 METAR CYVR 221400Z CCA 00000KT 30SM SCT250 14/10 A3005 RMK CI1 SLP176
2001 05 22 15 METAR CYVR 221500Z 34004KT 30SM SCT250 15/10 A3005 RMK CI2 CC ASOCTD SLP174
2001 05 22 16 METAR CYVR 221600Z 32009KT 30SM SCT250 17/10 A3004 RMK CI2 COTRA SLP172
2001 05 22 17 METAR CYVR 221700Z 31012KT 30SM SCT250 18/11 A3002 RMK CI1 SLP166
2001 05 22 18 METAR CYVR 221800Z 30011KT 30SM BKN250 18/12 A3001 RMK CI1 COTRA SLP161
2001 05 22 19 METAR CYVR 221900Z 30012KT 30SM SCT250 19/13 A3000 RMK CI2 COTRA SLP160
2001 05 22 20 METAR CYVR 222000Z 30012KT 30SM SCT250 19/14 A2999 RMK CI1 COTRA SLP156
2001 05 22 21 METAR CYVR 222100Z 31014KT 30SM SCT250 20/14 A2997 RMK CI2 SLP150
2001 05 22 22 METAR CYVR 222200Z 31013KT 30SM FEW180 SCT250 20/14 A2995 RMK AC1CI0 SLP143
2001 05 22 23 METAR CYVR 222300Z 30012KT 30SM SCT250 20/14 A2994 RMK CI0 SLP137
2001 05 23 00 METAR CYVR 230000Z 31010G15KT 30SM SCT250 21/14 A2992 RMK CI0 SLP131
2001 05 23 01 METAR CYVR 230100Z 30007KT 30SM FEW180 SCT250 19/13 A2990 RMK AC1CI1 SLP126
2001 05 23 02 METAR CYVR 230200Z 29004KT 30SM FEW080 FEW180 SCT250 20/13 A2989 RMK AC1AC1CI0 SLP120
2001 05 23 03 METAR CYVR 230300Z 25003KT 30SM FEW180 SCT250 19/13 A2988 RMK AC1CI1 SLP117
2001 05 23 04 METAR CYVR 230400Z 27004KT 30SM FEW180 SCT250 17/13 A2988 RMK AC1CI1 SLP119
2001 05 23 05 METAR CYVR 230500Z 19004KT 30SM FEW180 SCT250 18/13 A2990 RMK AC1CI1 SLP125
2001 05 23 06 METAR CYVR 230600Z 18005KT 30SM FEW180 SCT250 17/13 A2991 RMK AC1CI1 SLP127
2001 05 23 07 METAR CYVR 230700Z 00000KT 30SM FEW180 16/12 A2992 RMK AC2 SLP130
2001 05 23 08 METAR CYVR 230800Z 00000KT 20SM FEW180 15/12 A2993 RMK AC2 SLP135
2001 05 23 09 METAR CYVR 230900Z 33002KT 20SM FEW180 15/12 A2994 RMK AC2 SLP137
2001 05 23 10 METAR CYVR 231000Z 32009KT 20SM FEW180 14/13 A2994 RMK AC2 SLP139
2001 05 23 11 METAR CYVR 231100Z 36004KT 30SM FEW200 14/12 A2995 RMK CI1 OBS TKN +10 MIN SLP142
2001 05 23 12 METAR CYVR 231200Z 32009KT 30SM FEW160 FEW220 14/12 A2995 RMK AC1CI0 SLP142
2001 05 23 13 METAR CYVR 231300Z 32008KT 30SM FEW100 FEW160 SCT250 14/12 A2995 RMK AC1AC1CI1 SLP142
2001 05 23 14 METAR CYVR 231400Z 30009KT 30SM FEW140 BKN250 15/13 A2997 RMK AC1CI1 SLP148
2001 05 23 15 METAR CYVR 231500Z 30012KT 30SM FEW140 BKN250 15/13 A2997 RMK AC1CI1 SLP150
2001 05 23 16 METAR CYVR 231600Z 30013KT 30SM FEW140 FEW200 BKN250 16/13 A2997 RMK AC1CI2CI1 SLP150
2001 05 23 15 METAR CYVR 231500Z 30012KT 30SM FEW140 BKN250 15/13 A2997 RMK AC1CI1 SLP150
2001 05 23 18 METAR CYVR 231800Z 30013KT 30SM SCT200 BKN250 17/13 A2997 RMK CI2CI1 SLP150
2001 05 23 19 METAR CYVR 231900Z 30013KT 30SM FEW200 SCT250 18/14 A2997 RMK CI2CI0 SLP149
2001 05 23 20 METAR CYVR 232000Z 31009KT 30SM FEW150 FEW200 BKN250 19/14 A2996 RMK AC1CI2CI0 TR AC SLP145
2001 05 23 21 METAR CYVR 232100Z 30010KT 30SM FEW150 FEW200 BKN250 19/15 A2995 RMK AC1CI2CI2 SLP142
2001 05 23 22 METAR CYVR 232200Z 31011KT 30SM FEW150 BKN200 19/14 A2995 RMK AC1CI2 SLP140
2001 05 23 23 METAR CYVR 232300Z 29008KT 30SM FEW040 FEW150 FEW200 20/13 A2993 RMK CU1AC1CI1 SLP135
2001 05 24 00 METAR CYVR 240000Z 30008KT 30SM FEW040 FEW150 FEW200 19/13 A2993 RMK CU1ACC1CI1 SLP136
2001 05 24 01 METAR CYVR 240100Z 29005KT 30SM FEW050 FEW150 FEW220 20/13 A2992 RMK CU1AC1CI1 SLP131
2001 05 24 02 METAR CYVR 240200Z 27004KT 30SM FEW100 FEW150 FEW220 19/13 A2992 RMK AC1AC1CI1 SLP131
2001 05 24 03 METAR CYVR 240300Z 25005KT 30SM FEW100 FEW220 18/12 A2992 RMK AC2CI0 SLP132
2001 05 24 04 METAR CYVR 240400Z 25004KT 30SM FEW100 FEW220 17/12 A2993 RMK AC2CI0 SLP136
2001 05 24 05 METAR CYVR 240500Z 30006KT 30SM FEW100 FEW220 16/12 A2996 RMK AC2CI0 SLP146
2001 05 24 06 METAR CYVR 240600Z 29007KT 30SM BKN110 16/13 A2998 RMK AC6 SLP153
2001 05 24 07 METAR CYVR 240700Z 26011KT 30SM SCT090 15/12 A3000 RMK AC4 SLP157
2001 05 24 08 METAR CYVR 240800Z 29012KT 30SM SCT090 15/11 A3001 RMK AC4 SLP162
2001 05 24 09 METAR CYVR 240900Z 30012KT 30SM SCT090 14/11 A3002 RMK AC3 SLP165
2001 05 24 10 METAR CYVR 241000Z 30015KT 30SM BKN090 14/10 A3004 RMK AC5 SLP172
2001 05 24 11 METAR CYVR 241100Z 30011G19KT 30SM SCT090 12/09 A3005 RMK AC2 SLP177
2001 05 24 12 METAR CYVR 241200Z 30012KT 30SM FEW090 12/10 A3007 RMK AC1 SLP183
2001 05 24 13 METAR CYVR 241300Z 30015KT 30SM FEW030 FEW090 FEW250 12/09 A3009 RMK SC1AC1CI1 TR CI SLP188
2001 05 24 14 METAR CYVR 241400Z 31013KT 30SM FEW030 FEW090 FEW250 13/10 A3010 RMK SC1AC1CI1 SLP192
2001 05 24 15 METAR CYVR 241500Z 31012KT 30SM FEW030 FEW090 FEW250 14/10 A3011 RMK SC1AC1CI1 TR SC SLP197
2001 05 24 16 METAR CYVR 241600Z 30012KT 30SM FEW160 SCT200 BKN250 13/10 A3013 RMK AC2CC2CI1 SLP201
2001 05 24 17 METAR CYVR 241700Z 30013KT 30SM FEW160 SCT200 BKN250 14/10 A3014 RMK AC2CI2CI3 SLP205
2001 05 24 17 METAR CYVR 241700Z 30013KT 30SM FEW160 SCT200 BKN250 14/10 A3014 RMK AC2CI2CI3 SLP205
2001 05 24 19 METAR CYVR 241900Z 31009KT 30SM FEW040 SCT160 BKN200 14/11 A3015 RMK CU1AC3CI3 TR CU VSBY LWR E SLP209
2001 05 24 20 METAR CYVR 242000Z 29004KT 30SM FEW040 FEW160 BKN200 15/11 A3016 RMK CU1AC2CI2 200 LYR THN SLP212
2001 05 24 21 METAR CYVR 242100Z 31003KT 30SM FEW040 FEW180 16/11 A3015 RMK CU1CI2 TR CU SLP208
2001 05 24 22 METAR CYVR 242200Z 27009KT 30SM FEW040 FEW120 FEW200 16/12 A3014 RMK CU1AC1CI0 TR CU SLP207
2001 05 24 23 METAR CYVR 242300Z 29007KT 30SM FEW045 FEW120 FEW200 18/12 A3013 RMK CU1AC1CI1 TR CU AND AC SLP202
2001 05 25 00 METAR CYVR 250000Z 28007KT 30SM FEW045 FEW120 FEW200 17/11 A3012 RMK CU1AC1CI1 TR CLD SLP199
2001 05 25 01 METAR CYVR 250100Z 29005KT 30SM FEW045 FEW200 16/11 A3011 RMK CU1CI1 TR CLD SLP195
2001 05 25 02 METAR CYVR 250200Z 25006KT 30SM FEW045 FEW200 16/10 A3010 RMK CU1CI1 TR CLD SLP194
2001 05 25 03 METAR CYVR 250300Z 22003KT 30SM FEW200 16/10 A3011 RMK CI1 SLP195
2001 05 25 04 METAR CYVR 250400Z 26003KT 30SM FEW200 15/09 A3011 RMK CI1 SLP196
2001 05 25 05 METAR CYVR 250500Z 33004KT 30SM FEW200 14/09 A3013 RMK CI1 TR CI SLP201
2001 05 25 06 METAR CYVR 250600Z 30006KT 30SM SKC 13/09 A3013 RMK SLP204
2001 05 25 07 METAR CYVR 250700Z 24009KT 30SM SKC 15/10 A3014 RMK SLP206
2001 05 25 08 METAR CYVR 250800Z 21005KT 30SM SKC 14/10 A3014 RMK SLP207
2001 05 25 09 METAR CYVR 250900Z 15006KT 30SM SKC 13/09 A3015 RMK SLP208
2001 05 25 10 METAR CYVR 251000Z 05006KT 30SM SKC 12/09 A3015 RMK SLP208
2001 05 25 11 METAR CYVR 251100Z 09001KT 30SM FEW250 11/09 A3015 RMK CI1 SLP209
2001 05 25 12 METAR CYVR 251200Z 30008KT 30SM BKN250 12/10 A3016 RMK CI2 SLP214
2001 05 25 13 METAR CYVR 251300Z 31007KT 30SM FEW140 SCT250 11/10 A3015 RMK AC1CI2 SLP211
2001 05 25 14 METAR CYVR 251400Z 30011G16KT 30SM FEW140 SCT250 12/10 A3016 RMK AC1CI1 SLP213
2001 05 25 15 METAR CYVR 251500Z 33007KT 30SM FEW250 14/11 A3014 RMK CI1 SLP205
2001 05 25 16 METAR CYVR 251600Z 30011KT 30SM FEW050 FEW250 14/11 A3015 RMK SC1CI1 SLP209
2001 05 25 17 METAR CYVR 251700Z 30011KT 30SM FEW050 FEW250 15/11 A3015 RMK SC1CI1 SLP208
2001 05 25 18 METAR CYVR 251800Z 31010KT 30SM FEW190 FEW250 16/12 A3014 RMK CI2CI0 SLP206
2001 05 25 19 METAR CYVR 251900Z 29007KT 30SM SCT190 BKN250 16/12 A3012 RMK CI3CI2 SLP200
2001 05 25 20 METAR CYVR 252000Z 30008KT 30SM BKN200 17/12 A3011 RMK CI5 SLP196
2001 05 25 21 METAR CYVR 252100Z 30009KT 30SM BKN200 16/12 A3011 RMK CI5 SLP196
2001 05 25 22 METAR CYVR 252200Z 26005KT 30SM FEW190 SCT260 18/13 A3009 RMK CI2CI0 SLP188
2001 05 25 23 METAR CYVR 252300Z 26007KT 30SM FEW190 FEW260 18/13 A3007 RMK CI2CI0 SLP182
2001 05 26 00 METAR CYVR 260000Z 30005KT 30SM FEW190 FEW260 19/13 A3005 RMK CI1CI0 SLP177
2001 05 26 01 METAR CYVR 260100Z 29004KT 30SM FEW190 SCT260 18/12 A3004 RMK CI2CI0 SLP171
2001 05 26 02 METAR CYVR 260200Z 29005KT 30SM FEW190 BKN260 17/11 A3003 RMK CI2CI2 SLP168
2001 05 26 03 METAR CYVR 260300Z 22002KT 30SM FEW160 BKN260 16/12 A3002 RMK AC2CI2 SLP165
2001 05 26 04 METAR CYVR 260400Z 00000KT 30SM FEW190 SCT260 16/10 A3001 RMK CI2CI0 SLP162
2001 05 26 05 METAR CYVR 260500Z 29002KT 30SM FEW190 SCT260 16/10 A3001 RMK CI2CI1 SLP162
2001 05 26 06 METAR CYVR 260600Z 27002KT 30SM FEW250 15/12 A3001 RMK CI0 SLP161
2001 05 26 07 METAR CYVR 260700Z 36002KT 30SM FEW250 14/11 A3001 RMK CI1 SLP162
2001 05 26 08 METAR CYVR 260800Z 00000KT 30SM SCT250 14/11 A3000 RMK CI1 SLP159
2001 05 26 09 METAR CYVR 260900Z 00000KT 30SM FEW230 14/11 A3000 RMK CI1 SLP159
2001 05 26 10 METAR CYVR 261000Z 00000KT 30SM FEW230 12/10 A2998 RMK CI0 SLP153
2001 05 26 11 METAR CYVR 261100Z 10003KT 30SM FEW120 FEW230 11/10 A2998 RMK AC1CI1 SLP151
2001 05 26 12 METAR CYVR 261200Z 04002KT 30SM FEW120 FEW230 11/10 A2997 RMK AC1CI0 SLP147
2001 05 26 13 METAR CYVR 261300Z 12004KT 20SM FEW050 FEW140 SCT230 11/09 A2997 RMK SC1AC1CI1 HZ VSBY LWR E TR SC + AC SLP147
2001 05 26 14 METAR CYVR 261400Z 09004KT 20SM FEW050 FEW140 BKN230 13/10 A2996 RMK SC1AC1CI1 HZ VSBY LWR E TR SC+AC SLP146
2001 05 26 15 METAR CYVR 261500Z 11004KT 20SM BKN230 14/10 A2996 RMK CI1 HZ VSBY LWR E SLP146
2001 05 26 16 METAR CYVR 261600Z 11003KT 20SM BKN230 16/11 A2995 RMK CI1 HX VSBY LWR E SLP143
2001 05 26 17 METAR CYVR 261700Z 25006KT 20SM BKN230 16/12 A2994 RMK CI1 HZ VSBY LWR E SLP137
2001 05 26 18 METAR CYVR 261800Z 28007KT 20SM FEW050 BKN230 16/13 A2992 RMK CU1CI1 TR CU SLP132
2001 05 26 19 METAR CYVR 261900Z 28005KT 30SM FEW050 BKN230 16/13 A2991 RMK CU1CI1 TR CU SLP128
2001 05 26 20 METAR CYVR 262000Z 23006KT 30SM FEW210 SCT250 18/14 A2988 RMK CI1CI1 HZ SLP118
2001 05 26 21 METAR CYVR 262100Z 27007KT 30SM FEW050 FEW150 FEW210 SCT250 18/13 A2987 RMK CU1AC0CI1CI1 HZ TR CU SLP114
2001 05 26 22 METAR CYVR 262200Z 25008KT 30SM FEW050 FEW150 BKN250 19/14 A2985 RMK CU1AC1CI2 TR CU AND AC SLP107
2001 05 26 23 METAR CYVR 262300Z 24006KT 30SM FEW050 FEW150 BKN250 19/13 A2982 RMK CU1AC1CI2 TR CU AND AC SLP098
2001 05 27 00 METAR CYVR 270000Z 29006KT 30SM FEW150 BKN250 18/13 A2981 RMK AC1CI3 SLP093
2001 05 27 01 METAR CYVR 270100Z 30010KT 30SM FEW150 BKN220 17/12 A2980 RMK AC1CI5 SLP090
2001 05 27 02 METAR CYVR 270200Z 28005KT 30SM FEW150 BKN180 BKN220 17/12 A2977 RMK AC1AS5CI2 SLP081
2001 05 27 03 METAR CYVR 270300Z 29002KT 30SM FEW150 SCT180 BKN220 16/12 A2977 RMK AC1AS3CI3 SLP080
2001 05 27 04 METAR CYVR 270400Z 28008KT 30SM FEW150 BKN180 OVC220 16/12 A2977 RMK AC1AS6CI2 SLP080
2001 05 27 05 METAR CYVR 270500Z 27004KT 30SM FEW140 BKN180 OVC210 16/12 A2976 RMK AC1AS4CI2 SLP079
2001 05 27 06 METAR CYVR 270600Z 26007KT 30SM FEW140 OVC170 15/11 A2976 RMK AC1AS6 SLP079
2001 05 27 07 METAR CYVR 270700Z 20004KT 30SM FEW100 BKN140 15/11 A2978 RMK AC2AC5 SLP083
2001 05 27 08 METAR CYVR 270800Z 26006KT 30SM FEW100 OVC140 15/12 A2978 RMK AC2AC6 SLP083
2001 05 27 09 METAR CYVR 270900Z 23004KT 30SM FEW090 OVC150 15/11 A2978 RMK AC2AC6 SLP085
2001 05 27 10 METAR CYVR 271000Z 12006KT 20SM SCT090 OVC130 14/11 A2978 RMK AC3AC5 SLP083
2001 05 27 11 METAR CYVR 271100Z 14005KT 20SM FEW090 OVC130 13/10 A2976 RMK AC2AC6 SLP079
2001 05 27 12 METAR CYVR 271200Z 15003KT 20SM FEW090 BKN140 OVC200 13/10 A2977 RMK AC2AC5CI1 SLP080
2001 05 27 13 METAR CYVR 271300Z 11004KT 30SM FEW090 BKN150 OVC200 13/10 A2976 RMK AC2AC5CI1 SLP077
2001 05 27 14 METAR CYVR 271400Z 13004KT 30SM BKN150 OVC240 14/10 A2976 RMK AC5CI2 VIRGA SLP076
2001 05 27 15 METAR CYVR 271500Z 12005KT 20SM FEW090 BKN150 OVC200 15/10 A2975 RMK AC1AS4CS2 VIRGA SLP075
2001 05 27 16 METAR CYVR 271600Z 09006KT 20SM FEW090 BKN150 OVC200 15/11 A2974 RMK AC2AS3CS2 VIRGA HZ SLP072
2001 05 27 17 METAR CYVR 271700Z 18003KT 20SM FEW090 BKN160 OVC200 16/10 A2974 RMK AC2AS3CS2 HZ SLP071
2001 05 27 18 METAR CYVR 271800Z 23004KT 20SM FEW020 FEW090 SCT160 OVC220 17/11 A2974 RMK CF1AC2AS2CS2 HZ TR CF SLP071
2001 05 27 19 METAR CYVR 271900Z 22003KT 20SM FEW025 FEW090 OVC220 17/11 A2974 RMK CF1AC2CS3 HZ TR CF SLP071
2001 05 27 20 METAR CYVR 272000Z 23006KT 20SM FEW030 SCT100 BKN160 OVC230 17/11 A2974 RMK CU1AC2AS2CS2 HZ SLP072
2001 05 27 21 METAR CYVR 272100Z 23004KT 20SM FEW030 FEW100 BKN160 OVC230 17/09 A2976 RMK CU1AC2AS2CS2 HZ SLP076
2001 05 27 22 METAR CYVR 272200Z 23004KT 30SM FEW035 FEW100 BKN140 OVC230 18/10 A2976 RMK CU1AC1AS4CS2 SLP078
2001 05 27 23 METAR CYVR 272300Z 22007KT 30SM FEW035 FEW085 BKN140 OVC230 18/10 A2977 RMK CU1AC2AS2CS2 VIRGA W-NW SLP081
2001 05 28 00 METAR CYVR 280000Z 22006KT 30SM FEW035 SCT085 BKN140 BKN230 18/09 A2977 RMK CU1AC3AC2CS2 SHWR NW AND TCU NE OVR MTN SLP081
2001 05 28 01 METAR CYVR 280100Z 20002KT 30SM FEW035 SCT085 BKN120 BKN230 18/08 A2977 RMK CU1AC2AC3CI1 VIRGA SW-W AND SHWR NW SLP082
2001 05 28 02 METAR CYVR 280200Z 00000KT 30SM -SHRA FEW035 BKN078 BKN120 BKN230 17/08 A2977 RMK CU1AC5AC2CI1 SLP080
2001 05 28 03 METAR CYVR 280300Z 09002KT 30SM -SHRA FEW035 BKN074 BKN120 BKN230 16/08 A2976 RMK CU1AC6AC1CI1 SLP077
2001 05 28 04 METAR CYVR 280400Z 09006KT 30SM FEW035 BKN078 BKN120 15/09 A2976 RMK CU1AC6AC1 INTMT RW- SLP078
2001 05 28 05 METAR CYVR 280500Z 14005KT 30SM -SHRA FEW035 BKN075 BKN120 15/10 A2977 RMK SC1AC6AC1 SLP082
2001 05 28 06 METAR CYVR 280600Z 03002KT 30SM FEW058 OVC075 15/11 A2976 RMK SC2AC6 SLP078
2001 05 28 07 METAR CYVR 280700Z 09005KT 20SM FEW055 SCT075 BKN090 14/10 A2975 RMK SC1AC2AC4 SLP074
2001 05 28 08 METAR CYVR 280800Z 11005KT 20SM BKN058 BKN080 14/10 A2975 RMK SC5AC2 SLP075
2001 05 28 09 METAR CYVR 280900Z 11008KT 20SM SCT058 BKN080 BKN100 12/10 A2976 RMK SC3AC2AC1 SLP076
2001 05 28 10 METAR CYVR 281000Z 12011KT 20SM BKN057 BKN090 13/08 A2975 RMK SC5AC2 SLP074
2001 05 28 11 METAR CYVR 281100Z 16010KT 20SM SCT044 BKN060 BKN090 13/08 A2975 RMK SC3SC2AC2 SLP075
2001 05 28 12 METAR CYVR 281200Z 15010KT 20SM FEW025 BKN044 BKN090 12/08 A2975 RMK SC2SC5AC1 SHWRS DSNT NW-NE SLP073
2001 05 28 13 METAR CYVR 281300Z 15009KT 30SM FEW020 BKN043 BKN080 13/09 A2974 RMK CF1SC6AC1 TCU EMBDD SHWRS DSNT ALQDS SLP070
2001 05 28 14 METAR CYVR 281400Z 13013KT 30SM FEW020 FEW040 SCT090 BKN120 12/08 A2972 RMK CF1SC2AC1AC2 SHWRS DSNT W-NE SLP065
2001 05 28 15 METAR CYVR 281500Z 14013G18KT 30SM FEW022 BKN041 BKN095 BKN120 13/08 A2972 RMK CU2SC3AC2AC1 SHWRS ALQDS SLP063
2001 05 28 16 METAR CYVR 281600Z 16017KT 20SM FEW020 SCT040TCU BKN060 BKN100 13/07 A2972 RMK CU2TCU2SC2AC2 OCNL -SHRA SLP065
2001 05 28 17 METAR CYVR 281700Z 20012KT 4SM -SHRA BR FEW015 BKN042CB OVC060 09/07 A2977 RMK CU2CB4SC2 RERA PRESRR PST HR SLP082
2001 05 28 18 METAR CYVR 281800Z 21010KT 10SM -SHRA FEW015 BKN045CB BKN060 10/06 A2979 RMK CU2CB3SC2 XTNSV MAMMA HVYR SHWRS N-E-S BRKS W SLP087
2001 05 28 19 METAR CYVR 281900Z 20008G15KT 15SM FEW015 SCT045CB BKN110 11/05 A2983 RMK CF1CB4AC2 SHWRS NE-SE MAMMA SE SLP100
2001 05 28 20 METAR CYVR 282000Z 18009KT 30SM FEW015 FEW045CB SCT120 13/05 A2985 RMK CF1CB2AC2 CB DSNT NW-NE-SE SLP107
2001 05 28 21 METAR CYVR 282100Z 22009G17KT 30SM FEW015 FEW045TCU SCT080 SCT120 14/04 A2988 RMK CF1TCU2AC1AC1 SHWRS DSNT NE-SE SLP117
2001 05 28 22 METAR CYVR 282200Z 26014KT 30SM FEW015 SCT055TCU SCT080 BKN120 14/05 A2990 RMK CF1TCU2AC1AC1 SHWRS NW-NE ASOCTD CB SLP125
2001 05 28 23 METAR CYVR 282300Z 21014G20KT 20SM FEW020 SCT060TCU SCT100 BKN190 12/03 A2992 RMK CF1TCU2AC1CI2 SHWRS W-NE EMBDD CB SLP132
2001 05 29 00 METAR CYVR 290000Z 22016G22KT 20SM FEW025 SCT055TCU BKN110 BKN190 13/04 A2993 RMK CU2TCU2AC1CI1 SHWRS W-N CB EMBDD SLP136
2001 05 29 01 METAR CYVR 290100Z 23014KT 20SM FEW025 SCT055TCU SCT110 BKN190 13/03 A2996 RMK CF1TCU2AC1CI2 SLP144
2001 05 29 02 METAR CYVR 290200Z 21013KT 20SM FEW025 SCT055TCU SCT110 BKN190 13/04 A2998 RMK CF1TCU2AC1CI2 SLP152
2001 05 29 03 METAR CYVR 290300Z 22013KT 20SM FEW045 SCT060 SCT160 12/04 A3000 RMK CF1CU2AC1 CU+ SLP158
2001 05 29 04 METAR CYVR 290400Z 23014KT 30SM FEW040 SCT065 SCT140 BKN200 12/04 A3002 RMK CF1CU2AC1CI1 SLP166
2001 05 29 05 METAR CYVR 290500Z 22014KT 20SM FEW040 FEW060 SCT120 SCT200 11/04 A3006 RMK CF1CU2AC1CI1 TCU N SLP178
2001 05 29 06 METAR CYVR 290600Z 23014KT 20SM FEW050 SCT100 SCT190 11/04 A3008 RMK CU2AC2CI1 SLP187
2001 05 29 07 METAR CYVR 290700Z 23014KT 30SM FEW035 FEW060 FEW110 10/04 A3011 RMK SC1SC1AC1 SLP197
2001 05 29 08 METAR CYVR 290800Z 23014KT 30SM FEW040 FEW070 10/04 A3013 RMK SC1AC2 SLP204
2001 05 29 09 METAR CYVR 290900Z 24014KT 30SM FEW040 SCT070 10/04 A3016 RMK SC1AC3 SLP213
2001 05 29 10 METAR CYVR 291000Z 24011KT 30SM FEW070 10/04 A3018 RMK AC2 SLP219
2001 05 29 11 METAR CYVR 291100Z 23009KT 30SM FEW040TCU SCT070 BKN120 10/04 A3020 RMK TCU1AC2AC2 SLP226
2001 05 29 12 METAR CYVR 291200Z 24010KT 30SM FEW040 FEW070 SCT150 BKN270 10/04 A3022 RMK SC1AC1AC3CI0 SLP233
2001 05 29 13 METAR CYVR 291300Z 24012KT 30SM FEW030 FEW070 SCT150 BKN240 10/03 A3025 RMK SC1AC1AC1CI0 TCU ASOCTD SLP242
2001 05 29 14 METAR CYVR 291400Z 23010KT 30SM FEW030 FEW070 SCT130 BKN240 10/03 A3027 RMK SC1AC1AC2CI0 SLP251
2001 05 29 15 METAR CYVR 291500Z 23007KT 30SM FEW030 FEW120 SCT240 11/04 A3028 RMK CU1AC2CI0 SLP255
2001 05 29 16 METAR CYVR 291600Z 22006KT 30SM FEW030 FEW120 FEW240 11/03 A3030 RMK CU1AC1CI1 TR AC SLP261
2001 05 29 17 METAR CYVR 291700Z 22006KT 30SM FEW035 FEW220 12/03 A3031 RMK CU2CI0 TCU ASOCTD SLP264
2001 05 29 18 METAR CYVR 291800Z 23008KT 30SM FEW030 FEW120 SCT220 13/04 A3032 RMK CU2AC1CI0 TCU ASOCTD SLP266
2001 05 29 19 METAR CYVR 291900Z 23009KT 30SM FEW035 FEW120 FEW220 13/03 A3033 RMK SC2AC1CI0 TCU ASOCTD TR AC SLP271
2001 05 29 20 METAR CYVR 292000Z 22009G18KT 30SM FEW035 SCT220 14/01 A3034 RMK SC2CI1 TCU ASOCTD SLP273
2001 05 29 21 METAR CYVR 292100Z 24008KT 30SM FEW040 FEW220 15/02 A3034 RMK CU2CI1 SLP273
2001 05 29 22 METAR CYVR 292200Z 25007KT 30SM FEW040 SCT220 15/02 A3034 RMK CU2CI0 SLP272
2001 05 29 23 METAR CYVR 292300Z 23006KT 30SM FEW040 BKN220 16/03 A3034 RMK CU2CI0 SLP272
2001 05 30 00 METAR CYVR 300000Z 19006KT 30SM FEW040 BKN220 16/02 A3033 RMK CU2CI0 SLP270
2001 05 30 01 METAR CYVR 300100Z 18007KT 30SM FEW040 BKN220 16/03 A3033 RMK CU2CI0 SLP270
2001 05 30 02 METAR CYVR 300200Z 14007KT 30SM FEW040 BKN200 15/02 A3033 RMK CU1CI2 SLP269
2001 05 30 03 METAR CYVR 300300Z 15008KT 30SM FEW060 BKN190 14/03 A3032 RMK SC1CI2 SLP268
2001 05 30 04 METAR CYVR 300400Z 15006KT 30SM FEW060 FEW130 SCT200 13/04 A3032 RMK SC1AC1CI1 SLP268
2001 05 30 05 METAR CYVR 300500Z 13006KT 30SM FEW060 FEW110 SCT190 12/04 A3033 RMK SC1AC1CI1 SLP270
2001 05 30 06 METAR CYVR 300600Z 10005KT 30SM FEW060 BKN250 11/04 A3033 RMK SC2CI3 SLP271
2001 05 30 07 METAR CYVR 300700Z 08006KT 30SM FEW080 SCT250 11/05 A3034 RMK AC2CI2 SLP275
2001 05 30 08 METAR CYVR 300800Z 07008KT 30SM FEW080 SCT250 10/05 A3034 RMK AC1CI2 SLP275
2001 05 30 09 METAR CYVR 300900Z 07006KT 30SM FEW100 BKN250 10/05 A3034 RMK AC2CI2 SLP272
2001 05 30 L METAR CYVR NIL
2001 05 30 13 METAR CYVR 301300Z 10004KT 20SM -RA BKN055 OVC080 10/05 A3035 RMK SC6AC2 VSBY LWR S-W SLP278
2001 05 30 14 METAR CYVR 301400Z 34003KT 15SM -RA FEW025 BKN054 OVC075 10/06 A3037 RMK SF1SC5AC3 TR SF SLP283
2001 05 30 15 METAR CYVR 301500Z 10003KT 15SM -RA FEW020 BKN054 OVC070 11/07 A3038 RMK SF1SC5AC3 TR SF SLP288
2001 05 30 16 METAR CYVR 301600Z 08005KT 15SM -RA FEW015 BKN040 OVC055 11/07 A3040 RMK CU1SC6SC2 TR CU SLP293
2001 05 30 16 METAR CYVR 301600Z 08005KT 15SM -RA FEW015 BKN040 OVC055 11/07 A3040 RMK CU1SC6SC2 TR CU SLP293
2001 05 30 18 METAR CYVR 301800Z 09006KT 15SM -RA FEW015 SCT035 BKN053 OVC060 13/07 A3041 RMK CF2SC2SC3SC2 -RA INTMT SLP298
2001 05 30 19 METAR CYVR 301900Z 10005KT 20SM FEW020 BKN030 BKN040 OVC055 13/06 A3042 RMK CF1SC5SC2SC2 SLP300
2001 05 30 20 METAR CYVR 302000Z 14007KT 20SM FEW020 BKN032 OVC040 14/06 A3042 RMK SF1SC6SC2 SLP301
2001 05 30 21 METAR CYVR 302100Z 15008KT 20SM FEW025 BKN032 OVC040 14/07 A3043 RMK SF1SC6SC2 SLP303
2001 05 30 22 METAR CYVR 302200Z 10009KT 20SM BKN032 OVC050 14/07 A3042 RMK SC6SC2 SHWRS + LWR CIG MTNS N SLP302
2001 05 30 23 METAR CYVR 302300Z 11006KT 20SM BKN034 OVC050 15/08 A3041 RMK SC6SC2 SHWRS N SLP299
2001 05 31 00 METAR CYVR 310000Z 12003KT 20SM SCT034 BKN056 OVC070 15/08 A3041 RMK SC3SC3AC2 SHWRS N SLP298
2001 05 31 01 METAR CYVR 310100Z 33003KT 25SM FEW030 SCT049 OVC063 15/08 A3040 RMK SF2SC2SC4 SLP294
2001 05 31 02 METAR CYVR 310200Z 30006KT 30SM FEW035 SCT055 OVC074 14/09 A3039 RMK SF2SC2AC5 SHWRS DSNT NW SLP292
2001 05 31 03 METAR CYVR 310300Z 29005KT 20SM FEW035 FEW053 OVC070 13/10 A3039 RMK SF1SF2AC6 HZ SLP289
2001 05 31 04 METAR CYVR 310400Z 33004KT 20SM SCT048 OVC070 13/09 A3038 RMK SC3AC5 SHWRS NW + NE SLP287
2001 05 31 05 METAR CYVR 310500Z 02005KT 20SM SCT045 BKN065 14/09 A3038 RMK SC3SC4 SLP286
2001 05 31 06 METAR CYVR 310600Z 04006KT 20SM SCT040 BKN060 14/08 A3036 RMK SC3SC4 SLP282
2001 05 31 07 METAR CYVR 310700Z 05006KT 30SM SCT050 BKN060 14/08 A3035 RMK SC3SC3 SLP278
2001 05 31 08 METAR CYVR 310800Z 00000KT 30SM SCT050 BKN060 13/08 A3032 RMK SC4SC2 SLP268
2001 05 31 09 METAR CYVR 310900Z 07003KT 30SM SCT050 BKN060 12/08 A3031 RMK SC4SC1 SLP264
2001 05 31 10 METAR CYVR 311000Z 08003KT 30SM FEW054 12/08 A3030 RMK SC2 SLP259
2001 05 31 12 METAR CYVR 311200Z 32002KT 30SM FEW060 11/08 A3025 RMK SC2 SLP242
2001 05 31 13 METAR CYVR 311300Z 35004KT 30SM FEW080 FEW270 11/08 A3024 RMK AC1CI1 SLP239
2001 05 31 14 METAR CYVR 311400Z 18002KT 30SM FEW078 FEW270 13/09 A3022 RMK AC1CI1 TR CLD SLP233
2001 05 31 15 METAR CYVR 311500Z 12002KT 30SM FEW078 FEW270 15/09 A3020 RMK AC1CI1 TR AC SLP227
2001 05 31 16 METAR CYVR 311600Z 24004KT 30SM BKN270 15/10 A3018 RMK CI1 SLP218
2001 05 31 17 METAR CYVR 311700Z 24004KT 30SM FEW200 BKN270 16/10 A3015 RMK CI1CI2 SLP209
2001 05 31 18 METAR CYVR 311800Z 24006KT 30SM FEW200 BKN270 17/11 A3011 RMK CI2CI0 SLP197
2001 05 31 19 METAR CYVR 311900Z 24006KT 30SM FEW200 BKN250 16/11 A3008 RMK CI2CI0 SLP184
2001 05 31 20 METAR CYVR 312000Z 26008KT 30SM SCT200 OVC250 17/11 A3006 RMK CI3CI3 SLP179
2001 05 31 21 METAR CYVR 312100Z 29006KT 30SM FEW070 BKN200 OVC240 17/11 A3002 RMK AC1CI5CI3 SLP167
2001 05 31 22 METAR CYVR 312200Z 29005KT 30SM FEW045 FEW120 SCT160 BKN240 18/12 A2998 RMK CU1AC1AC2CI2 SLP153
2001 05 31 23 METAR CYVR 312300Z 30007KT 30SM FEW045 FEW120 SCT160 BKN240 19/12 A2994 RMK CU1AC1AC2CI2 SLP139
2001 06 01 00 METAR CYVR 010000Z 27007KT 30SM FEW045 FEW120 SCT160 BKN220 18/12 A2992 RMK CU1AC1AC2CI2 SLP130
2001 06 01 01 METAR CYVR 010100Z 29007KT 30SM FEW045 FEW120 SCT160 BKN220 20/12 A2987 RMK CU1AC1AC2CI2 HALO SLP114
2001 06 01 02 METAR CYVR 010200Z 28006KT 30SM FEW045 FEW120 SCT160 BKN220 19/14 A2982 RMK CU1AC1AC2CI2 SLP099
2001 06 01 03 METAR CYVR 010300Z 29004KT 30SM FEW045 FEW120 SCT160 BKN220 18/13 A2980 RMK CU1AC1AC2CI1 SLP091
2001 06 01 04 METAR CYVR 010400Z 28012KT 30SM FEW045 FEW120 SCT160 BKN220 17/12 A2978 RMK SC1AC1AC2CI1 COTRA SLP085
2001 06 01 05 METAR CYVR 010500Z 31013KT 30SM FEW045 SCT120 SCT160 BKN220 15/13 A2977 RMK SC2AC2AC1CI2 SLP080
2001 06 01 06 METAR CYVR 010600Z 31013KT 30SM FEW045 FEW120 SCT160 OVC220 15/13 A2976 RMK SC2AC1AC2CI2 SLP078
2001 06 01 07 METAR CYVR 010700Z 30015KT 30SM FEW120 OVC230 14/13 A2975 RMK AC1CI4 SLP073
2001 06 01 08 METAR CYVR 010800Z 29014KT 30SM FEW120 OVC220 14/12 A2974 RMK AC1CI5 SLP070
2001 06 01 09 METAR CYVR 010900Z 29015KT 30SM SCT120 OVC220 14/12 A2973 RMK AC3CI4 SLP066
2001 06 01 10 METAR CYVR 011000Z 31011KT 30SM BKN130 OVC210 14/12 A2972 RMK AC6CI2 SLP064
2001 06 01 11 METAR CYVR 011100Z 31009KT 30SM FEW030 BKN110 OVC210 14/12 A2971 RMK SC1AC6CI2 SLP060
2001 06 01 12 METAR CYVR 011200Z 31006KT 30SM FEW030CB BKN084 BKN110 OVC210 14/12 A2971 RMK CB2AC3AC2CI0 LTGCG NE-SE SLP059
2001 06 01 13 METAR CYVR 011300Z 23007KT 20SM FEW015 FEW030CB BKN085 OVC110 14/12 A2973 RMK CF1CB2AC4AC2 SLP066
2001 06 01 14 METAR CYVR 011400Z 27008KT 20SM FEW018 BKN028 BKN081 OVC110 14/11 A2976 RMK CF2SC3AC2AC1 SLP078
2001 06 01 15 METAR CYVR 011500Z 30018G25KT 10SM -RA FEW018 BKN029 OVC082 13/11 A2977 RMK SF2SC3AC2 SLP080
2001 06 01 16 METAR CYVR 011600Z 36006KT 12SM -RA FEW019 BKN040 OVC095 13/11 A2977 RMK SF2SC5AC2 SLP081
2001 06 01 17 METAR CYVR 011700Z 04005KT 12SM -RA FEW018 SCT030 OVC068 14/11 A2976 RMK SF2SC2AC5 SLP077
2001 06 01 18 METAR CYVR 011800Z 15007KT 6SM SHRA BKN005 OVC012 13/12 A2978 RMK SF6SF2 SLP083
2001 06 01 19 METAR CYVR 011900Z 15009G16KT 10SM -SHRA FEW007 SCT019 OVC053 12/11 A2979 RMK SF2SC2SC3 SLP087
2001 06 01 20 METAR CYVR 012000Z 18010KT 20SM FEW019 FEW029 BKN068 BKN140 13/10 A2980 RMK CF1SC2AC3AC1 SLP091
2001 06 01 21 METAR CYVR 012100Z 16006KT 20SM FEW023 SCT045 BKN130 13/07 A2980 RMK CF1SC2AC4 SLP091
2001 06 01 22 METAR CYVR 012200Z 14009KT 20SM FEW015 SCT050 BKN140 14/07 A2981 RMK CF2SC2AC3 SLP095
2001 06 01 23 METAR CYVR 012300Z 15010KT 20SM FEW015 SCT050 BKN140 BKN180 14/08 A2981 RMK CF2SC2AC2AS2 SLP094
2001 06 02 00 METAR CYVR 020000Z 15011KT 30SM FEW020 FEW047 BKN140 BKN230 14/08 A2981 RMK CF1SC2AC2CI1 SLP094
2001 06 02 01 METAR CYVR 020100Z 14012KT 30SM FEW020 BKN060 BKN230 13/09 A2981 RMK CF2SC4CI1 SLP093
2001 06 02 02 METAR CYVR 020200Z 15008KT 30SM FEW020 BKN053 BKN140 13/09 A2981 RMK CF2SC5AC1 SLP094
2001 06 02 03 METAR CYVR 020300Z 18004KT 30SM FEW020 BKN053 BKN140 14/07 A2981 RMK CF2SC5AC1 SLP095
2001 06 02 04 METAR CYVR 020400Z 24013G20KT 30SM FEW020 BKN053 BKN140 13/05 A2981 RMK CF2SC5AC1 SLP094
2001 06 02 05 METAR CYVR 020500Z 25014KT 30SM FEW020 BKN053 BKN140 12/04 A2986 RMK CF2SC5AC1 SLP112
2001 06 02 06 METAR CYVR 020600Z 25014KT 30SM FEW020 BKN053 BKN140 12/04 A2988 RMK CF2SC5AC1 SLP119
2001 06 02 07 METAR CYVR 020700Z 22011KT 30SM FEW020 SCT058 BKN080 11/05 A2990 RMK CF1SC3AC2 SLP125
2001 06 02 08 METAR CYVR 020800Z 23008KT 30SM FEW030 BKN068 11/05 A2990 RMK SC2AC3 SLP126
2001 06 02 09 METAR CYVR 020900Z 20006KT 30SM FEW030 BKN068 10/04 A2991 RMK SC1AC5 SLP128
2001 06 02 10 METAR CYVR 021000Z 15006KT 30SM FEW030 SCT057 BKN075 10/05 A2992 RMK SC1SC3AC2 SLP130
2001 06 02 11 METAR CYVR 021100Z 13006KT 30SM FEW030 BKN055 09/05 A2992 RMK SC1SC4 SLP130
2001 06 02 12 METAR CYVR 021200Z 09005KT 30SM FEW025 BKN053 BKN080 08/05 A2991 RMK SC1SC4AC2 TCU DSNT NE SLP128
2001 06 02 13 METAR CYVR 021300Z 16011KT 20SM -SHRA FEW020 BKN045 BKN095 10/07 A2991 RMK CU2SC3AC2 TCU ASOCTD SLP129
2001 06 02 14 METAR CYVR 021400Z 14008KT 20SM FEW020 BKN044 BKN085 09/07 A2991 RMK CU2SC5AC1 TCU ASOCTD SHWRS DSNT NE-SE SLP129
2001 06 02 15 METAR CYVR 021500Z 11007KT 20SM FEW011 FEW020 BKN033 BKN080 10/07 A2991 RMK CF2CU1SC4AC1 SHWRS DSNT E SLP128
2001 06 02 16 METAR CYVR 021600Z 10007KT 20SM FEW013 SCT024 BKN038 BKN080 11/07 A2991 RMK CF2CU2SC3AC1 SHWRS DSNT E SLP127
2001 06 02 17 METAR CYVR 021700Z 11011KT 20SM FEW013 BKN020 BKN030 BKN060 10/07 A2991 RMK CF2CU3SC2SC1 SHWRS N-E TCU ASOCTD SLP127
2001 06 02 18 METAR CYVR 021800Z 10009KT 20SM FEW014 SCT022 BKN051 BKN080 10/07 A2991 RMK CF1CU3SC2AC1 TCU ASOCTD SLP129
2001 06 02 19 METAR CYVR 021900Z 10011KT 15SM -SHRA FEW013 BKN022 BKN057 BKN080 12/07 A2991 RMK CF1SC4SC2AC1 TCU ASOCTD SHWRS VRY LGT SLP128
2001 06 02 20 METAR CYVR 022000Z 14008KT 20SM -SHRA FEW015 SCT025 BKN049 BKN080 12/08 A2991 RMK CF1SC2SC3AC1 TCU ASOCTD SHWRS VRY LGT SLP127
2001 06 02 21 METAR CYVR 022100Z 12006KT 15SM -SHRA FEW015 SCT025 OVC046 11/08 A2991 RMK CF1SC3SC4 TCU ASOCTD SLP128
2001 06 02 22 METAR CYVR 022200Z 04010KT 10SM -TSRA FEW013 BKN020CB BKN035TCU 10/06 A2991 RMK CF2CB3TCU2 VSBY NW-NNE 3 SLP127
2001 06 02 23 METAR CYVR 022300Z 24005KT 20SM FEW015 SCT021TCU BKN061 13/09 A2990 RMK CF1TCU2SC3 CB ASOCTD N VSBY LWR N SLP124
2001 06 03 00 METAR CYVR 030000Z 25003KT 20SM FEW015 FEW026CB SCT035TCU BKN060 13/08 A2989 RMK CF1CB2TCU2SC1 SLP123
2001 06 03 01 METAR CYVR 030100Z 16005KT 30SM FEW022CB SCT035 BKN071 13/05 A2989 RMK CB1SC2AC2 SLP122
2001 06 03 02 METAR CYVR 030200Z 15004KT 30SM FEW020 FEW035TCU BKN075 13/05 A2989 RMK SC1TCU2AC4 CB ASOCTD SLP121
2001 06 03 03 METAR CYVR 030300Z 19005KT 30SM FEW028TCU BKN075 BKN250 13/07 A2989 RMK TCU2AC2CI1 SLP122
2001 06 03 04 METAR CYVR 030400Z 13006KT 30SM FEW030TCU SCT075 BKN250 12/08 A2991 RMK TCU2AC2CI1 SLP128
2001 06 03 05 METAR CYVR 030500Z 10007KT 30SM FEW015 SCT025TCU BKN068 10/07 A2992 RMK CF1TCU2AC2 CB ASOCTD NW CIG AND VSBY LWR NW SLP133
2001 06 03 06 METAR CYVR 030600Z 09003KT 30SM FEW015 SCT025TCU BKN068 10/07 A2993 RMK CF1TCU2AC2 CB ASOCTD NW SLP134
2001 06 03 07 METAR CYVR 030700Z 03004KT 20SM SCT020 BKN045 OVC160 10/08 A2994 RMK CU3SC4AC1 SLP139
2001 06 03 08 METAR CYVR 030800Z 07005KT 20SM FEW023 BKN045 OVC160 10/07 A2995 RMK CF1SC6AC1 SLP141
2001 06 03 09 METAR CYVR 030900Z 11003KT 15SM -SHRA FEW015 SCT023 BKN030 OVC050 10/08 A2996 RMK CF1SC2SC3SC2 SLP144
2001 06 03 10 METAR CYVR 031000Z 09003KT 15SM FEW008 FEW035 BKN060 09/08 A2997 RMK SF1SC2SC5 SLP147
2001 06 03 11 METAR CYVR 031100Z 09003KT 15SM FEW008 BKN030 BKN050 BKN068 10/08 A2997 RMK CF1SC4SC2AC1 SLP150
2001 06 03 12 METAR CYVR 031200Z 10009KT 12SM FEW008 SCT035 BKN050 OVC070 09/08 A2999 RMK CU1SC3SC2AC2 VSBY LWR N SLP156
2001 06 03 13 METAR CYVR 031300Z 09007KT 10SM FEW009 SCT035 BKN050 OVC070 09/08 A3001 RMK CF1SC3SC2AC2 VSBY SW 20 SLP163
2001 06 03 14 METAR CYVR 031400Z 08008KT 10SM FEW009 FEW035TCU SCT045 BKN065 09/08 A3003 RMK CF1TCU2SC2SC2 SLP170
2001 06 03 15 METAR CYVR 031500Z 10007KT 10SM SCT009 BKN035TCU BKN065 10/08 A3005 RMK CF4TCU2SC1 SLP176
2001 06 03 16 METAR CYVR 031600Z 13006KT 15SM FEW009 SCT025TCU BKN050 12/09 A3007 RMK CF2TCU2SC3 SLP181
2001 06 03 17 METAR CYVR 031700Z 13002KT 15SM FEW012 BKN025TCU BKN060 13/08 A3007 RMK CF1TCU4SC2 SLP182
2001 06 03 18 METAR CYVR 031800Z 27006KT 15SM FEW012 BKN025TCU BKN040 12/08 A3008 RMK CF1TCU4SC2 SLP185
2001 06 03 19 METAR CYVR 031900Z 27007KT 20SM FEW015 BKN025TCU BKN063 12/09 A3008 RMK CF1TCU5SC2 SLP187
2001 06 03 20 METAR CYVR 032000Z 24006KT 20SM SCT025TCU BKN063 13/08 A3009 RMK TCU3SC3 VIRGA E SLP190
2001 06 03 21 METAR CYVR 032100Z 25005KT 20SM FEW025TCU BKN068 15/09 A3010 RMK TCU2AC4 SLP193
2001 06 03 22 METAR CYVR 032200Z 26007KT 20SM FEW030 BKN070 14/08 A3012 RMK CU2AC3 FEW TCU SLP199
2001 06 03 23 METAR CYVR 032300Z 24007KT 30SM FEW030 FEW070 14/09 A3011 RMK CU1AC2 TCU E SLP197
2001 06 04 00 METAR CYVR 040000Z 23007KT 30SM FEW030 FEW070 15/09 A3011 RMK CU1AC1 SLP197
2001 06 04 01 METAR CYVR 040100Z 22007KT 30SM FEW035 FEW070 FEW250 15/07 A3010 RMK CU1AC1CI0 SLP193
2001 06 04 02 METAR CYVR 040200Z 21005KT 30SM FEW035 FEW250 15/07 A3010 RMK CU1CI1 SLP192
2001 06 04 03 METAR CYVR 040300Z 19003KT 30SM FEW035 FEW250 15/07 A3010 RMK CU1CI0 SLP191
2001 06 04 04 METAR CYVR 040400Z 14004KT 30SM FEW035 FEW070 FEW250 14/07 A3009 RMK CU1AC1CI1 COTRA SLP189
2001 06 04 05 METAR CYVR 040500Z 12005KT 30SM FEW035 FEW070 FEW250 12/08 A3008 RMK SC1AC1CI0 SLP187
2001 06 04 06 METAR CYVR 040600Z 08006KT 30SM FEW070 FEW250 10/07 A3008 RMK AC1CI0 SLP186
2001 06 04 07 METAR CYVR 040700Z 09005KT 30SM FEW270 10/07 A3007 RMK CI0 SLP183
2001 06 04 08 METAR CYVR 040800Z 08005KT 30SM FEW140 FEW270 09/06 A3005 RMK AC1CI0 SLP174
2001 06 04 09 METAR CYVR 040900Z 08005KT 30SM FEW140 FEW270 09/06 A3003 RMK AC1CI1 SLP168
2001 06 04 10 METAR CYVR 041000Z 09004KT 30SM FEW160 FEW270 08/06 A3002 RMK AC2CI0 SLP167
2001 06 04 11 METAR CYVR 041100Z 10005KT 30SM FEW160 SCT270 08/06 A3002 RMK AC2CI0 SLP166
2001 06 04 12 METAR CYVR 041200Z 09004KT 30SM FEW010 FEW120 FEW270 07/06 A3000 RMK SC1AC2CI0 TR SC DSNT SW SLP159
2001 06 04 13 METAR CYVR 041300Z 09004KT 30SM FEW010 FEW070 FEW120 BKN270 08/06 A2998 RMK CF1AC2AC1CI1 SLP153
2001 06 04 14 METAR CYVR 041400Z 10008KT 30SM FEW010 FEW070 SCT120 BKN270 11/08 A2997 RMK SC1AC2AC2CI1 SLP150
2001 06 04 15 METAR CYVR 041500Z 10007KT 30SM FEW015 SCT060 SCT120 BKN270 12/09 A2997 RMK SC1CU1AC2CI1 SLP147
2001 06 04 16 METAR CYVR 041600Z 13009KT 30SM FEW015 FEW055 SCT140 BKN270 13/08 A2995 RMK CF1SC1AC2CI2 CC ASOCTD SLP143
2001 06 04 17 METAR CYVR 041700Z 13009KT 30SM FEW015 BKN059 OVC270 13/08 A2995 RMK CU1SC6CI1 SLP141
2001 06 04 18 METAR CYVR 041800Z 13007KT 20SM FEW025 BKN058 OVC270 13/08 A2993 RMK CU1SC6CI1 SLP135
2001 06 04 19 METAR CYVR 041900Z 15006KT 30SM FEW025 BKN059 BKN270 14/08 A2992 RMK CU1SC6CI1 SLP132
2001 06 04 20 METAR CYVR 042000Z 14006KT 30SM FEW025 BKN059 BKN180 BKN270 15/09 A2991 RMK CU1SC4AC2CI0 SLP127
2001 06 04 21 METAR CYVR 042100Z 17005KT 30SM FEW030 SCT059 BKN240 16/08 A2990 RMK CU2SC2CI2 SLP124
2001 06 04 22 METAR CYVR 042200Z 21008KT 30SM FEW030 FEW060 BKN220 16/07 A2989 RMK CU2SC1CI4 SLP120
2001 06 04 23 METAR CYVR 042300Z 15004KT 30SM FEW030 FEW060 FEW150 BKN220 17/07 A2987 RMK CU1SC1AC1CI5 SLP116
2001 06 05 00 METAR CYVR 050000Z 17010KT 30SM FEW030 FEW060 FEW150 BKN200 16/08 A2987 RMK SC1SC1AC1CI5 SLP114
2001 06 05 01 METAR CYVR 050100Z 15012KT 30SM FEW030 BKN160 OVC220 16/07 A2987 RMK SC1AC5CI2 SLP113
2001 06 05 02 METAR CYVR 050200Z 15010KT 30SM FEW030 FEW062 BKN150 BKN200 15/06 A2987 RMK SC1SC2AS3CI2 SLP114
2001 06 05 03 METAR CYVR 050300Z 12008KT 30SM FEW030 FEW060 BKN140 OVC200 14/08 A2988 RMK SC1SC2AS5CI1 SLP117
2001 06 05 04 METAR CYVR 050400Z 11007KT 30SM FEW030 FEW060 BKN140 BKN200 13/08 A2988 RMK SC1SC2AS4CI1 TR SC SLP118
2001 06 05 05 METAR CYVR 050500Z 10009KT 30SM FEW030 SCT072 BKN120 OVC200 13/08 A2989 RMK SC1AC3AS3CI2 SLP122
2001 06 05 06 METAR CYVR 050600Z 12008KT 30SM SCT070 BKN120 OVC200 13/07 A2989 RMK AC3AS3CI1 SLP123
2001 06 05 07 METAR CYVR 050700Z 13007KT 20SM BKN120 BKN230 12/08 A2989 RMK AC4CI1 SLP122
2001 06 05 08 METAR CYVR 050800Z 10008KT 20SM FEW060 SCT087 BKN120 10/08 A2988 RMK SC1AC2AC2 SLP119
2001 06 05 09 METAR CYVR 050900Z 10008KT 20SM BKN063 BKN090 BKN120 11/08 A2988 RMK SC5AC1AC2 SLP119
2001 06 05 10 METAR CYVR 051000Z 10006KT 20SM SCT057 BKN090 BKN120 11/07 A2989 RMK SC3AC2AC2 SLP121
2001 06 05 11 METAR CYVR 051100Z 09007KT 20SM BKN058 BKN110 BKN230 11/08 A2988 RMK SC5AC2CI0 SLP119
2001 06 05 12 METAR CYVR 051200Z 10004KT 20SM BKN053 OVC085 11/08 A2989 RMK SC6AC2 SLP120
2001 06 05 13 METAR CYVR 051300Z 11005KT 20SM BKN054 BKN090 OVC230 11/08 A2989 RMK SC5AC2CI1 SLP122
2001 06 05 14 METAR CYVR 051400Z 11005KT 20SM BKN052 BKN090 OVC230 12/08 A2990 RMK SC5AC2CI1 SLP124
2001 06 05 15 METAR CYVR 051500Z 13005KT 30SM BKN051 BKN090 OVC230 12/08 A2991 RMK SC5AC2CI1 SLP129
2001 06 05 16 METAR CYVR 051600Z 11005KT 30SM SCT050 BKN100 OVC230 14/08 A2992 RMK SC4AC2CI1 SLP131
2001 06 05 17 METAR CYVR 051700Z 18004KT 30SM SCT050 BKN095 OVC230 14/08 A2992 RMK SC3AC2CI2 SLP133
2001 06 05 18 METAR CYVR 051800Z 22007KT 30SM FEW037 SCT052 BKN095 OVC230 14/08 A2994 RMK SC2SC2AC2CI2 SLP137
2001 06 05 19 METAR CYVR 051900Z 22007KT 30SM FEW035 SCT050 BKN090 OVC230 15/08 A2995 RMK SC2SC2AC3CI2 SLP141
2001 06 05 20 METAR CYVR 052000Z 22006KT 30SM FEW035 SCT050 BKN080 OVC230 15/08 A2996 RMK SC2SC2AC3CI2 SLP144
2001 06 05 21 METAR CYVR 052100Z 17008KT 30SM FEW035 SCT060 BKN085 OVC230 15/08 A2997 RMK SC2SC2AC3CI2 SLP148
2001 06 05 22 METAR CYVR 052200Z 17008KT 15SM -SHRA SCT025 BKN060 OVC084 15/09 A2998 RMK SC3SC3AC2 SLP151
2001 06 05 23 METAR CYVR 052300Z 12007KT 15SM -SHRA SCT021 BKN049 OVC080 14/10 A2999 RMK SC3SC3AC2 SLP154
2001 06 06 00 METAR CYVR 060000Z 13007KT 15SM -SHRA SCT021 BKN049 OVC080 15/09 A3000 RMK SC3SC3AC2 SHWRS VRY LGT SLP157
2001 06 06 01 METAR CYVR 060100Z 11006KT 20SM SCT030 BKN049 BKN080 15/09 A3000 RMK SC3SC2AC2 SLP159
2001 06 06 02 METAR CYVR 060200Z 14007KT 20SM FEW030 BKN055 BKN230 14/08 A3001 RMK SC2SC2CI1 SLP162
2001 06 06 03 METAR CYVR 060300Z 14006KT 20SM FEW025 SCT058 BKN110 BKN230 14/08 A3002 RMK CF1SC2AC2CI1 SLP164
2001 06 06 04 METAR CYVR 060400Z 15005KT 20SM BKN049 BKN110 BKN230 14/08 A3003 RMK SC5AC1CI1 SLP169
2001 06 06 05 METAR CYVR 060500Z 11006KT 20SM BKN042 BKN110 14/09 A3005 RMK SC5AC1 SLP175
2001 06 06 06 METAR CYVR 060600Z 11006KT 30SM BKN039 BKN110 13/09 A3006 RMK SC5AC2 SLP180
2001 06 06 05 METAR CYVR 060500Z 11006KT 20SM BKN042 BKN110 14/09 A3005 RMK SC5AC1 SLP175
2001 06 06 08 METAR CYVR 060800Z 09006KT 20SM FEW031 SCT056 BKN100 12/10 A3008 RMK SC2SC2AC3 SLP185
2001 06 06 09 METAR CYVR 060900Z 09007KT 20SM FEW033 BKN064 12/10 A3009 RMK SC2SC6 SLP189
2001 06 06 10 METAR CYVR 061000Z 10008KT 20SM FEW035 FEW060 BKN180 12/10 A3010 RMK SC1SC2AC3 SLP192
2001 06 06 11 METAR CYVR 061100Z 10007KT 20SM FEW038 BKN140 11/09 A3010 RMK SC2AC4 SLP194
2001 06 06 12 METAR CYVR 061200Z 11006KT 20SM BKN018 OVC060 11/09 A3012 RMK SC6SC2 SLP199
2001 06 06 13 METAR CYVR 061300Z 10006KT 20SM SCT014 BKN066 BKN120 11/09 A3013 RMK SF3SC2AC2 SLP204
2001 06 06 14 METAR CYVR 061400Z 11007KT 20SM SCT014 BKN072 OVC120 12/10 A3015 RMK SF3AC2AC2 SLP210
2001 06 06 15 METAR CYVR 061500Z 11007KT 12SM -SHRA FEW009 SCT015 BKN038 OVC070 12/11 A3017 RMK SF2SF2SC2AC2 SLP215
2001 06 06 16 METAR CYVR 061600Z 13007KT 12SM -SHRA FEW008 SCT014 BKN027 OVC070 12/10 A3018 RMK SF2SF2SC3AC2 SHWRS VRY LGT SLP221
2001 06 06 17 METAR CYVR 061700Z 13006KT 12SM -SHRA FEW008 SCT015 BKN028 OVC070 12/10 A3020 RMK SF2SF2SC2AC2 SLP226
2001 06 06 18 METAR CYVR 061800Z 10005KT 15SM FEW008 FEW015 SCT028 BKN060 OVC100 13/10 A3021 RMK SF1SF2SC2SC2AC2 SLP229
2001 06 06 19 METAR CYVR 061900Z 14004KT 20SM -SHRA FEW008 SCT024 BKN050 OVC100 14/11 A3022 RMK SF2SC2SC2AC2 SLP234
2001 06 06 20 METAR CYVR 062000Z 16005KT 20SM -SHRA FEW008 SCT016 BKN025 BKN050 OVC100 15/11 A3023 RMK SF2SF2SC2SC2AC1 SHWRS VRY LGT SLP236
2001 06 06 21 METAR CYVR 062100Z 13003KT 20SM FEW010 FEW020 BKN035 OVC080 15/10 A3023 RMK SF1SC2CU3AC2 SLP236
2001 06 06 22 METAR CYVR 062200Z 00000KT 20SM FEW010 FEW020 BKN038 BKN050 BKN090 16/09 A3023 RMK SF1SC1CU3SC1AC2 SLP237
2001 06 06 23 METAR CYVR 062300Z 15004KT 20SM FEW020 SCT040 BKN072 BKN160 16/10 A3023 RMK SC1CU2AC2AC1 SLP237
2001 06 07 00 METAR CYVR 070000Z 11005KT 20SM SCT040 BKN075 BKN160 17/10 A3023 RMK CU3AC2AC1 SLP235
2001 06 07 01 METAR CYVR 070100Z 14006KT 20SM FEW035 SCT075 SCT160 17/09 A3022 RMK CU2AC1AC1 SLP232
2001 06 07 02 METAR CYVR 070200Z 16004KT 20SM FEW035 FEW075 FEW160 17/10 A3021 RMK CU2AC1AC1 TR AC SLP228
2001 06 07 03 METAR CYVR 070300Z 15005KT 30SM FEW035 FEW075 16/09 A3021 RMK CU2AC1 TR AC SLP231
2001 06 07 04 METAR CYVR 070400Z 16004KT 30SM FEW040 FEW090 FEW200 15/09 A3022 RMK SC1AC1CI1 SLP232
2001 06 07 05 METAR CYVR 070500Z 09005KT 30SM FEW040 FEW090 FEW200 12/08 A3022 RMK SC1AC1CI1 TR AC SLP234
2001 06 07 06 METAR CYVR 070600Z 09003KT 30SM FEW040 FEW200 12/08 A3023 RMK SC1CI1 SLP235
2001 06 07 07 METAR CYVR 070700Z 09005KT 30SM FEW080 FEW220 11/09 A3023 RMK AC1CI0 SLP236
2001 06 07 05 METAR CYVR 070500Z 09005KT 30SM FEW040 FEW090 FEW200 12/08 A3022 RMK SC1AC1CI1 TR AC SLP234
2001 06 07 09 METAR CYVR 070900Z 00000KT 30SM -SHRA BKN120 11/09 A3021 RMK AC6 VRY LGT PCPN SLP230
2001 06 07 10 METAR CYVR 071000Z 08004KT 30SM SCT100 BKN130 11/08 A3020 RMK AC3AC3 SLP227
2001 06 07 11 METAR CYVR 071100Z 09003KT 30SM SCT100 BKN130 11/08 A3020 RMK AC3AC4 SLP226
2001 06 07 12 METAR CYVR 071200Z 14002KT 30SM FEW100 BKN130 12/08 A3020 RMK AC2AC5 VIRGA DSNT N SLP227
2001 06 07 13 METAR CYVR 071300Z 18002KT 30SM FEW057 BKN100 BKN150 12/09 A3021 RMK SC2AC3AC2 SLP229
2001 06 07 14 METAR CYVR 071400Z 18002KT 30SM SCT055 BKN120 12/09 A3021 RMK SC4AC3 SLP230
2001 06 07 15 METAR CYVR 071500Z 21002KT 30SM BKN058 BKN120 13/09 A3021 RMK SC6AC2 SLP231
2001 06 07 16 METAR CYVR 071600Z 22003KT 30SM BKN060 BKN120 14/10 A3022 RMK SC5AC2 SLP233
2001 06 07 17 METAR CYVR 071700Z 23005KT 30SM FEW040 BKN060 BKN120 14/10 A3022 RMK SC2SC4AC2 SLP232
2001 06 07 18 METAR CYVR 071800Z 25004KT 25SM FEW040 BKN065 BKN120 15/11 A3021 RMK SC2SC4AC1 SLP230
2001 06 07 19 METAR CYVR 071900Z 26005KT 30SM FEW040 SCT065 BKN220 16/11 A3020 RMK SC2SC2CI0 SLP227
2001 06 07 20 METAR CYVR 072000Z 29007KT 30SM FEW040TCU SCT090 17/12 A3019 RMK TCU2AC2 SLP224
2001 06 07 21 METAR CYVR 072100Z 29007KT 30SM FEW050 FEW090 SCT220 18/13 A3018 RMK CU2AC1CI0 TCU ASOCTD SLP220
2001 06 07 22 METAR CYVR 072200Z 28007KT 30SM FEW050 FEW220 18/11 A3016 RMK CU1CI0 SLP214
2001 06 07 23 METAR CYVR 072300Z 29009KT 30SM FEW050 FEW220 19/13 A3015 RMK CU1CI0 SLP209
2001 06 08 00 METAR CYVR 080000Z 30009KT 30SM FEW050 FEW220 18/11 A3014 RMK CU1CI0 SLP205
2001 06 08 01 METAR CYVR 080100Z 29007KT 30SM FEW050 FEW220 19/11 A3011 RMK CU1CI0 SLP197
2001 06 08 02 METAR CYVR 080200Z 28007KT 30SM FEW050 BKN220 17/12 A3011 RMK CU1CI2 TR CU SLP195
2001 06 08 03 METAR CYVR 080300Z 32005KT 30SM FEW050 BKN220 16/12 A3008 RMK CU1CI2 TR CU SLP187
2001 06 08 04 METAR CYVR 080400Z 31007KT 30SM FEW050 FEW150 BKN220 15/10 A3007 RMK CU1AC1CI2 TR CU AC SLP181
2001 06 08 05 METAR CYVR 080500Z 31005KT 30SM FEW150 BKN220 14/10 A3006 RMK AC1CI4 SLP179
2001 06 08 06 METAR CYVR 080600Z 00000KT 30SM FEW150 BKN220 15/08 A3004 RMK AC1CI3 SLP173
2001 06 08 07 METAR CYVR 080700Z 07002KT 30SM BKN250 16/08 A3002 RMK CI5 SLP167
2001 06 08 08 METAR CYVR 080800Z 36003KT 30SM BKN250 15/08 A3001 RMK CI4 SLP163
2001 06 08 09 METAR CYVR 080900Z 01003KT 30SM BKN250 14/09 A3000 RMK CI4 SLP158
2001 06 08 10 METAR CYVR 081000Z 12002KT 30SM BKN250 14/07 A2999 RMK CI4 SLP156
2001 06 08 11 METAR CYVR 081100Z 36003KT 30SM BKN250 12/07 A2999 RMK CI3 SLP155
2001 06 08 12 METAR CYVR 081200Z 34002KT 30SM FEW090 BKN250 12/07 A2998 RMK AC1CI3 SLP153
2001 06 08 13 METAR CYVR 081300Z 13003KT 30SM SCT095 BKN250 13/07 A2998 RMK AC3CI2 SLP153
2001 06 08 14 METAR CYVR 081400Z 09002KT 30SM SCT095 BKN210 14/09 A2998 RMK AC3CI2 SLP153
2001 06 08 16 METAR CYVR 081600Z 01002KT 30SM FEW085 SCT170 BKN220 17/09 A2999 RMK AC2AC2CS2 SLP154
2001 06 08 17 METAR CYVR 081700Z 14008KT 30SM FEW085 SCT140 OVC220 18/09 A2999 RMK AC2AC2CS3 SLP154
2001 06 08 18 METAR CYVR 081800Z 14010G15KT 30SM SCT082 OVC140 17/11 A2999 RMK AC3AC5 SLP156
2001 06 08 19 METAR CYVR 081900Z 14009KT 15SM FEW040 SCT070 OVC140 18/11 A2999 RMK SC1AC2AC5 SLP155
2001 06 08 20 METAR CYVR 082000Z 14013KT 15SM FEW040 SCT070 OVC140 19/10 A2999 RMK SC2AC2AC3 SLP156
2001 06 08 21 METAR CYVR 082100Z 16006KT 15SM FEW045 SCT080 OVC120 18/11 A2998 RMK SC2AC2AC3 SLP153
2001 06 08 22 METAR CYVR 082200Z 11008KT 25SM FEW045 SCT068 BKN081 BKN120 19/11 A2997 RMK CU1AC2AC2AC2 SLP148
2001 06 08 23 METAR CYVR 082300Z 16004KT 25SM FEW045 FEW070 BKN091 BKN120 21/12 A2995 RMK CU1AC2AC2AC1 SLP140
2001 06 09 00 METAR CYVR 090000Z 14006KT 20SM FEW045 BKN077 BKN090 20/10 A2994 RMK CU1AC5AC2 VIRGA SW SLP137
2001 06 09 01 METAR CYVR 090100Z 19003KT 15SM -SHRA FEW045 BKN077 OVC094 19/12 A2993 RMK CU2AC4AC2 SLP134
2001 06 09 02 METAR CYVR 090200Z 19005KT 20SM -SHRA FEW045 SCT062 BKN083 18/12 A2993 RMK CU1SC2AC4 SHWR VRY LGT SLP134
2001 06 09 03 METAR CYVR 090300Z 14005KT 20SM -SHRA FEW035 BKN062 BKN080 16/12 A2992 RMK CU1SC5AC2 HVYR SHWRS NE-SE SLP131
2001 06 09 04 METAR CYVR 090400Z 20002KT 20SM FEW035 BKN061 BKN080 16/13 A2990 RMK CU1SC6AC2 SHWRS DSNT ALQDS SLP126
2001 06 09 05 METAR CYVR 090500Z 17006KT 20SM -SHRA FEW035 BKN046 OVC070 17/13 A2991 RMK CU1SC5AC3 SLP129
2001 06 09 06 METAR CYVR 090600Z 13006KT 20SM -SHRA FEW040 SCT052 OVC080 16/12 A2990 RMK SC1SC3AC4 SLP126
2001 06 09 07 METAR CYVR 090700Z 10006KT 15SM -SHRA FEW040 SCT050 OVC078 14/12 A2990 RMK SC2SC2AC4 SHWRS VRY LGT SLP124
2001 06 09 08 METAR CYVR 090800Z 10007KT 15SM -SHRA BKN038 OVC080 14/12 A2988 RMK SC5AC3 SHWRS VRY LGT SLP119
2001 06 09 09 METAR CYVR 090900Z 19009G17KT 8SM +SHRA SCT012 BKN025 OVC038 14/12 A2988 RMK SF3SC2SC2 SLP119
2001 06 09 10 METAR CYVR 091000Z CCA 11007KT 10SM FEW012 SCT025 BKN040CB OVC070 13/11 A2988 RMK SF2SC2CB2AC3 RERA SLP119
2001 06 09 11 METAR CYVR 091100Z 09005KT 10SM -SHRA FEW012 SCT025 BKN044TCU OVC075 13/11 A2988 RMK SF2SC2TCU3AC2 SLP118
2001 06 09 12 METAR CYVR 091200Z 11008KT 10SM -SHRA SCT010 BKN016 BKN030TCU OVC075 13/12 A2989 RMK SF3SF2TCU2AC2 SHWRS VRY LGT SLP120
2001 06 09 13 METAR CYVR 091300Z 16005KT 15SM FEW007 FEW012 SCT030 BKN120 BKN250 12/11 A2990 RMK SF2CF1SC1AC2CI1 TCU ASOCTD SLP124
2001 06 09 14 METAR CYVR 091400Z 24016KT 15SM FEW008 SCT030 BKN080 13/09 A2993 RMK CF2SC2AC1 TCU ASOCTD N-NE SLP135
2001 06 09 15 METAR CYVR 091500Z 22014KT 20SM FEW015 FEW035 SCT070 14/08 A2996 RMK CF1SC2AC1 SLP146
2001 06 09 16 METAR CYVR 091600Z 22016KT 20SM FEW020 FEW035 SCT060 14/08 A3000 RMK CU1SC1SC2 TCU ASOCTD NE-SE SLP157
2001 06 09 17 METAR CYVR 091700Z 22013KT 25SM FEW020 FEW030 SCT062 15/07 A3002 RMK CU1CU2SC2 TCU ASOCTD SLP167
2001 06 09 18 METAR CYVR 091800Z 22015G20KT 25SM FEW025 SCT040 SCT080 SCT150 16/06 A3004 RMK CF1CU2AC1AC1 TCU ASOCTD SLP173
2001 06 09 19 METAR CYVR 091900Z 21017KT 25SM FEW025 SCT042 SCT080 16/06 A3005 RMK CF1CU3AC1 SLP177
2001 06 09 20 METAR CYVR 092000Z 21013G21KT 30SM FEW045 SCT080 SCT230 17/07 A3007 RMK CU2AC1CI0 SLP183
2001 06 09 21 METAR CYVR 092100Z 20013KT 30SM FEW045 FEW080 BKN230 16/05 A3008 RMK CU2AC1CI2 TCU ASOCTD SLP185
2001 06 09 22 METAR CYVR 092200Z 21009G16KT 30SM SCT045 SCT080 BKN230 17/05 A3008 RMK CU3AC1CI1 SLP186
2001 06 09 23 METAR CYVR 092300Z 19008G18KT 30SM SCT045 SCT080 BKN200 17/05 A3007 RMK CU3AC1CI3 SLP183
2001 06 10 00 METAR CYVR 100000Z 16010KT 30SM FEW045 SCT080 BKN170 16/07 A3007 RMK CU2AC1CI4 SLP183
2001 06 10 01 METAR CYVR 100100Z 21012KT 30SM FEW045 OVC150 15/05 A3006 RMK CU2AC6 SLP179
2001 06 10 02 METAR CYVR 100200Z 20010KT 30SM FEW045 FEW070 OVC130 15/06 A3005 RMK SC2AC1AC6 SLP177
2001 06 10 03 METAR CYVR 100300Z 22008KT 30SM FEW045 SCT074 BKN120 14/06 A3005 RMK SC2AC2AC4 SLP174
2001 06 10 04 METAR CYVR 100400Z 19013KT 30SM -SHRA FEW045 BKN070 OVC120 13/05 A3005 RMK SC2AC4AC2 SLP175
2001 06 10 05 METAR CYVR 100500Z 21010KT 25SM -SHRA FEW045 BKN062 OVC120 13/06 A3005 RMK SC2SC4AC2 SLP175
2001 06 10 06 METAR CYVR 100600Z 20013KT 20SM -SHRA SCT045 OVC060 12/06 A3005 RMK SC3SC5 SLP175
2001 06 10 07 METAR CYVR 100700Z 17005KT 15SM -SHRA FEW030 BKN048 OVC075 11/07 A3004 RMK SC2SC4AC2 SLP172
2001 06 10 08 METAR CYVR 100800Z 14007KT 15SM -SHRA FEW030 SCT050 OVC075 10/08 A3003 RMK SC2SC2AC4 SLP169
2001 06 10 09 METAR CYVR 100900Z 14006KT 10SM -SHRA SCT020 BKN030 OVC050 10/08 A3003 RMK SF3SC2SC2 SLP169
2001 06 10 10 METAR CYVR 101000Z 14007KT 10SM -SHRA FEW020 SCT035 BKN055 OVC085 10/07 A3002 RMK SF2SC2SC2AC2 SLP167
2001 06 10 11 METAR CYVR 101100Z 15006KT 10SM -SHRA FEW010 SCT028 BKN062 OVC085 10/08 A3002 RMK SF2SC2SC2AC2 SLP167
2001 06 10 12 METAR CYVR 101200Z 14006KT 10SM -SHRA FEW010 SCT024 BKN052 OVC085 10/08 A3003 RMK SF2SC2SC2AC2 SLP169
2001 06 10 13 METAR CYVR 101300Z 15007KT 12SM -SHRA FEW009 FEW020 BKN053 OVC090 10/08 A3004 RMK SF1SC2SC4AC2 SLP171
2001 06 10 14 METAR CYVR 101400Z 14008KT 12SM -SHRA FEW008 FEW022 BKN040 OVC090 10/08 A3005 RMK SF1SC2SC5AC1 SLP174
2001 06 10 15 METAR CYVR 101500Z 14007KT 10SM -SHRA FEW008 SCT022 BKN040 OVC060 10/08 A3005 RMK SF2SC2SC2SC2 CIG LWR N-SE SLP175
2001 06 10 16 METAR CYVR 101600Z 15006KT 8SM -SHRA FEW005 SCT008 BKN022 OVC045 10/09 A3006 RMK SF1CF2SC2SC3 SLP179
2001 06 10 17 METAR CYVR 101700Z 16007KT 8SM -SHRA SCT009 BKN024 OVC040 10/08 A3006 RMK CF3SC2SC3 CIG LWR N-E SLP180
2001 06 10 18 METAR CYVR 101800Z 09008KT 10SM -SHRA FEW008 BKN015 BKN025 OVC050 11/09 A3006 RMK CF1CU4SC2SC2 SHWRS VRY LGT SLP180
2001 06 10 16 METAR CYVR 101600Z 15006KT 8SM -SHRA FEW005 SCT008 BKN022 OVC045 10/09 A3006 RMK SF1CF2SC2SC3 SLP179
2001 06 10 20 METAR CYVR 102000Z 07009KT 15SM FEW010 BKN020 BKN057 12/09 A3007 RMK CF2CU4SC2 SLP183
2001 06 10 21 METAR CYVR 102100Z 10010KT 20SM FEW018 SCT025 SCT060 BKN080 13/09 A3007 RMK CF2CU2SC1AC3 TCU ASOCTD SLP181
2001 06 10 22 METAR CYVR 102200Z 13008KT 15SM -SHRA SCT022TCU BKN045 BKN060 13/08 A3006 RMK TCU4SC3SC1 SLP180
2001 06 10 23 METAR CYVR 102300Z 06005KT 15SM -SHRA FEW020 SCT028TCU BKN045 OVC060 13/10 A3006 RMK CF1TCU3SC3SC1 VSBY N4 SML BINOVC NW SLP179
2001 06 11 00 METAR CYVR 110000Z 14010KT 20SM -SHRA FEW020 SCT028TCU BKN055 14/11 A3005 RMK CF2TCU2SC4 VSBY LWR NE-E SLP174
2001 06 11 01 METAR CYVR 110100Z 13008KT 20SM FEW009 FEW022 BKN060 OVC240 14/11 A3003 RMK CF1CU1SC6CI1 OCNL -SHRA SLP170
2001 06 11 02 METAR CYVR 110200Z 14008KT 30SM FEW009 FEW022TCU BKN060 OVC200 13/09 A3003 RMK CF1TCU2SC2CI3 VSBY LWR NE-SE SHWRS DSNT NE-SW SLP169
2001 06 11 03 METAR CYVR 110300Z 13007KT 30SM FEW022 SCT060 BKN160 13/09 A3002 RMK CU2SC2AC3 SLP166
2001 06 11 04 METAR CYVR 110400Z 11008KT 30SM FEW022 FEW060 BKN120 12/10 A3001 RMK CU1SC2AC5 SLP163
2001 06 11 05 METAR CYVR 110500Z 10007KT 30SM FEW020 FEW060 BKN120 11/10 A3001 RMK SC1SC1AC7 SLP161
2001 06 11 06 METAR CYVR 110600Z 11008KT 20SM FEW020 FEW060 OVC140 11/09 A3000 RMK SC1SC1AC8 SLP159
2001 06 11 07 METAR CYVR 110700Z 11006KT 15SM SCT020 SCT060 OVC120 11/09 A3000 RMK SC3SC1AC4 SLP157
2001 06 11 08 METAR CYVR 110800Z 10006KT 15SM FEW018 BKN150 10/09 A2998 RMK SC2AC4 SLP153
2001 06 11 09 METAR CYVR 110900Z 11008KT 15SM FEW020 BKN140 10/09 A2997 RMK SC2AC2 SLP149
2001 06 11 10 METAR CYVR 111000Z 11006KT 20SM FEW020 SCT140 BKN230 10/09 A2996 RMK SC2AC2CI0 SLP145
2001 06 11 11 METAR CYVR 111100Z 10005KT 20SM FEW020 SCT160 BKN230 09/08 A2994 RMK SC1AC2CI0 SLP138
2001 06 11 12 METAR CYVR 111200Z 10006KT 15SM FEW010 BKN050 BKN110 10/09 A2993 RMK SC1SC4AC2 SLP134
2001 06 11 13 METAR CYVR 111300Z CCA 10005KT 7SM FEW020 FEW035 BKN050 OVC110 10/09 A2992 RMK CF1SC1SC4AC2 VSBY 30 SW VIRGA SLP130
2001 06 11 14 METAR CYVR 111400Z 11006KT 30SM FEW020 FEW050 SCT110 BKN230 10/09 A2991 RMK CF1SC2AC2CI3 VSBY LWR N-E SLP127
2001 06 11 15 METAR CYVR 111500Z 14004KT 30SM FEW015 FEW050 SCT110 BKN230 12/08 A2991 RMK CF1SC2AC1CI4 VSBY LWR N-E SLP128
2001 06 11 16 METAR CYVR 111600Z 18003KT 30SM FEW010 SCT020 BKN058 OVC110 12/07 A2991 RMK CF1CU2SC2AC2 VSBY LWR N-E SHWRS AND TCU NW SLP129
2001 06 11 17 METAR CYVR 111700Z 31011KT 12SM -SHRA FEW010 BKN023TCU BKN044 OVC060 10/08 A2991 RMK CF1TCU6SC2SC1 SLP128
2001 06 11 18 METAR CYVR 111800Z 33006KT 15SM FEW023TCU SCT045 BKN060 OVC110 11/08 A2991 RMK TCU2SC1SC2AC2 SHWRS ALL QUADS SLP128
2001 06 11 19 METAR CYVR 111900Z 31008KT 15SM -SHRA FEW008 FEW025TCU BKN050 OVC090 11/08 A2992 RMK CF1TCU2SC5AC2 SLP130
2001 06 11 20 METAR CYVR 112000Z 28005KT 15SM -SHRA FEW008 FEW025TCU BKN050 OVC090 11/08 A2992 RMK CF1TCU2SC5AC2 SLP131
2001 06 11 21 METAR CYVR 112100Z 24005KT 15SM -SHRA FEW008 FEW025TCU BKN050 OVC090 13/08 A2992 RMK CF1TCU2SC4AC2 SLP130
2001 06 11 22 METAR CYVR 112200Z 25007KT 15SM FEW008 FEW025TCU BKN067 OVC090 13/08 A2992 RMK CF1TCU2AC4AC2 SHWRS DSNT W + NE-E CIG LWR E SLP130
2001 06 11 23 METAR CYVR 112300Z 24008KT 15SM FEW008 SCT024TCU BKN070 OVC100 12/07 A2992 RMK CF1TCU4AC2AC2 SHWRS DSNT N-SE SLP132
2001 06 12 00 METAR CYVR 120000Z 24008KT 20SM FEW008 FEW024TCU SCT050 BKN070 OVC100 12/07 A2992 RMK CF1TCU2SC2AC2AC2 SHWRS DSNT N-SE SLP132
2001 06 12 01 METAR CYVR 120100Z 22008KT 20SM -RA FEW008 FEW025TCU SCT045 BKN068 OVC080 12/08 A2992 RMK CF1TCU2SC2AC2AC2 SLP131
2001 06 12 02 METAR CYVR 120200Z 22008KT 15SM -RA FEW008 FEW025TCU BKN050 BKN070 OVC090 11/07 A2992 RMK CF1TCU2SC3AC2AC1 VSBY NE-E 7 W 30 SLP133
2001 06 12 03 METAR CYVR 120300Z 23006KT 15SM -RA FEW008 FEW025CB BKN054 BKN070 OVC100 11/08 A2992 RMK CF1CB2SC4AC1AC2 VSBY W 30 CB NE SLP131
2001 06 12 04 METAR CYVR 120400Z 18003KT 15SM FEW008 FEW025TCU SCT055 SCT070 BKN110 11/07 A2991 RMK CF1TCU1SC2AC1AC2 SLP129
2001 06 12 05 METAR CYVR 120500Z 10008KT 15SM FEW025 BKN046 BKN068 10/08 A2992 RMK SC2SC3AC2 SLP133
2001 06 12 06 METAR CYVR 120600Z 11006KT 15SM -RA FEW025 BKN047 OVC070 10/08 A2993 RMK SC2SC4AC2 SLP134
2001 06 12 07 METAR CYVR 120700Z 12006KT 12SM -RA FEW020 BKN036 OVC070 10/08 A2993 RMK SC2SC4AC2 SLP134
2001 06 12 08 METAR CYVR 120800Z 14007KT 12SM -RA FEW025 BKN040 OVC070 10/08 A2992 RMK SC2SC4AC2 SLP130
2001 06 12 09 METAR CYVR 120900Z 06008KT 10SM -RA FEW007 SCT022 OVC040 10/08 A2992 RMK CF2SC2SC4 SLP131
2001 06 12 10 METAR CYVR 121000Z 09011KT 10SM -RA FEW005 SCT030 OVC042 09/08 A2992 RMK CF2SC2SC4 SLP133
2001 06 12 11 METAR CYVR 121100Z 08006KT 10SM -RA FEW005 BKN032 OVC050 09/08 A2993 RMK CF2SC3SC2 SLP134
2001 06 12 12 METAR CYVR 121200Z 07007KT 12SM FEW005 BKN030 OVC070 09/08 A2993 RMK CF2SC5AC2 SLP135
2001 06 12 13 METAR CYVR 121300Z 08008KT 10SM FEW005 OVC022 09/08 A2995 RMK CF2SC6 SLP142
2001 06 12 14 METAR CYVR 121400Z 09010KT 10SM FEW008 OVC024 09/08 A2998 RMK CF1SC7 VSBY HIER W SLP151
2001 06 12 L METAR CYVR NIL
2001 06 12 16 METAR CYVR 121600Z 11011KT 10SM -SHRA FEW008 BKN028 OVC080 09/08 A3002 RMK SF2SC6AC1 VSBY HIER W SLP167
2001 06 12 17 METAR CYVR 121700Z 11007KT 15SM FEW008 BKN028 OVC080 10/07 A3005 RMK SF2SC6AC1 VSBY HIER W SLP174
2001 06 12 18 METAR CYVR 121800Z 12006KT 15SM FEW012 BKN028 OVC080 11/08 A3005 RMK SF2SC6AC1 SLP177
2001 06 12 19 METAR CYVR 121900Z 16009KT 15SM FEW013 BKN032 OVC080 13/09 A3008 RMK SF2SC6AC1 SLP186
2001 06 12 20 METAR CYVR 122000Z 16009KT 15SM FEW015 SCT032 BKN090 14/09 A3010 RMK SF1SC3AC2 SLP191
2001 06 12 21 METAR CYVR 122100Z 13004KT 20SM FEW020 SCT028 BKN090 15/09 A3009 RMK SF1SC3AC1 SLP190
2001 06 12 22 METAR CYVR 122200Z 11004KT 20SM FEW030 16/10 A3009 RMK SC2 TCU ASOCTD W SLP190
2001 06 12 23 METAR CYVR 122300Z CCA 17008KT 20SM FEW030 16/09 A3010 RMK SC1 TCU TPS W MTN TPS OBSCD N SLP192
2001 06 13 00 METAR CYVR 130000Z 16009KT 20SM FEW030 16/08 A3011 RMK SC1 CU ASOCTD TCU TPS SW SLP195
2001 06 13 01 METAR CYVR 130100Z 17008KT 20SM FEW030 16/09 A3013 RMK SC1 TCU TPS SW SLP201
2001 06 13 02 METAR CYVR 130200Z 14006KT 20SM FEW030 16/09 A3014 RMK SC2 SLP206
2001 06 13 03 METAR CYVR 130300Z 14007KT 20SM FEW030 15/09 A3014 RMK SC1 SLP207
2001 06 13 04 METAR CYVR 130400Z 11006KT 20SM FEW030 14/09 A3014 RMK SC1 SLP206
2001 06 13 05 METAR CYVR 130500Z 10008KT 20SM FEW030 12/09 A3016 RMK SC1 SC TR SLP213
2001 06 13 06 METAR CYVR 130600Z 13005KT 20SM SKC 13/08 A3017 RMK SLP216
2001 06 13 07 METAR CYVR 130700Z 10010KT 20SM SKC 11/08 A3018 RMK SLP220
2001 06 13 08 METAR CYVR 130800Z 09006KT 20SM SKC 09/07 A3018 RMK SLP220
2001 06 13 09 METAR CYVR 130900Z 09008KT 20SM SKC 09/07 A3018 RMK SLP221
2001 06 13 10 METAR CYVR 131000Z 09009KT 20SM FEW050 09/07 A3019 RMK SC1 SLP222
2001 06 13 11 METAR CYVR 131100Z 10008KT 30SM FEW042 09/07 A3019 RMK SC2 SLP222
2001 06 13 12 METAR CYVR 131200Z 09008KT 30SM FEW020 FEW044 FEW100 FEW220 09/07 A3019 RMK SC1SC2AC1CI0 TR AC SLP223
2001 06 13 13 METAR CYVR 131300Z 11006KT 30SM FEW020 FEW042 SCT100 SCT200 10/07 A3021 RMK SC1SC2AC1CI0 SLP228
2001 06 13 13 METAR CYVR 131300Z 11006KT 30SM FEW020 FEW042 SCT100 SCT200 10/07 A3021 RMK SC1SC2AC1CI0 SLP228
2001 06 13 15 METAR CYVR 131500Z 11011KT 30SM FEW028 FEW042 SCT100 12/08 A3021 RMK SF1SC2AC1 TR SF SLP228
2001 06 13 16 METAR CYVR 131600Z 12010KT 30SM FEW040 SCT200 14/09 A3020 RMK SC2CI0 SLP227
2001 06 13 17 METAR CYVR 131700Z 13011KT 30SM FEW040 BKN170 14/08 A3020 RMK SC2AS3 SLP225
2001 06 13 18 METAR CYVR 131800Z 14012KT 30SM FEW023 SCT040 BKN170 14/08 A3020 RMK CF2SC2AC2 SLP226
2001 06 13 19 METAR CYVR 131900Z 16011KT 30SM FEW023 SCT048 BKN160 BKN230 16/09 A3020 RMK CF2SC2AS2CI1 HALO SLP226
2001 06 13 20 METAR CYVR 132000Z 12011KT 30SM FEW025 FEW058 SCT200 BKN230 16/09 A3019 RMK SC2SC1CI1CI0 SLP222
2001 06 13 21 METAR CYVR 132100Z 12010G15KT 30SM FEW025 FEW060 BKN180 16/09 A3016 RMK SC1SC2CI1 SLP214
2001 06 13 22 METAR CYVR 132200Z 14011KT 30SM FEW040 FEW060 SCT180 BKN230 16/09 A3016 RMK CU1SC1AC1CI1 SLP213
2001 06 13 23 METAR CYVR 132300Z 13009KT 30SM FEW040 FEW060 BKN160 BKN230 17/09 A3014 RMK CU2SC1AC2CI1 SLP207
2001 06 14 00 METAR CYVR 140000Z 16009KT 30SM FEW040 FEW100 BKN160 BKN230 17/09 A3013 RMK CU2AC1AC3CI1 FEW ACC SLP203
2001 06 14 01 METAR CYVR 140100Z 15009KT 30SM FEW040 FEW100 BKN160 17/09 A3012 RMK CU1AC1AC3 TCU DSNT E SLP200
2001 06 14 02 METAR CYVR 140200Z 17006KT 30SM FEW040 FEW095 BKN160 16/08 A3011 RMK CU1AC1AC3 TCU DSNT E SLP197
2001 06 14 03 METAR CYVR 140300Z 14004KT 30SM FEW040 SCT086 BKN160 16/08 A3010 RMK CU1AC3AC2 SLP191
2001 06 14 04 METAR CYVR 140400Z 10008KT 30SM FEW040 SCT086 BKN160 14/09 A3009 RMK CU1AC2AC2 SLP190
2001 06 14 05 METAR CYVR 140500Z 10007KT 30SM FEW040 SCT090 BKN160 14/09 A3008 RMK CU1AC3AC2 TR CU SLP187
2001 06 14 06 METAR CYVR 140600Z 11009KT 30SM SCT090 13/09 A3008 RMK AC3 SLP185
2001 06 14 07 METAR CYVR 140700Z 13005KT 30SM BKN085 14/08 A3008 RMK AC6 SLP184
2001 06 14 08 METAR CYVR 140800Z 11006KT 30SM BKN082 12/07 A3007 RMK AC5 SLP181
2001 06 14 09 METAR CYVR 140900Z 10005KT 30SM FEW062 SCT080 BKN200 11/07 A3006 RMK SC1AC3CI1 SLP179
2001 06 14 10 METAR CYVR 141000Z 07005KT 30SM FEW060 BKN075 BKN200 12/08 A3006 RMK SC2AC5CI1 SLP178
2001 06 14 11 METAR CYVR 141100Z 08007KT 30SM BKN070 BKN100 BKN200 11/07 A3005 RMK AC5AC1CI1 SLP175
2001 06 14 12 METAR CYVR 141200Z 08006KT 30SM FEW040 BKN068 BKN100 OVC200 11/07 A3005 RMK SC1AC4AC2CI1 SLP177
2001 06 14 13 METAR CYVR 141300Z 03004KT 30SM FEW035 SCT064 BKN079 BKN200 12/07 A3007 RMK SC2SC2AC2CI1 SLP181
2001 06 14 14 METAR CYVR 141400Z 00000KT 30SM FEW035 FEW062 SCT076 BKN200 13/07 A3007 RMK SF1SC2AC2CI1 SLP183
2001 06 14 15 METAR CYVR 141500Z 00000KT 30SM FEW035 SCT065 BKN200 14/07 A3007 RMK SF1SC2CI1 SLP183
2001 06 14 16 METAR CYVR 141600Z 25005KT 30SM FEW015 FEW030 SCT070 BKN200 14/09 A3008 RMK ST2SF1AC2CI1 LOW ST LYR W OVR GEORGIA STRT SLP185
2001 06 14 17 METAR CYVR 141700Z 25004KT 20SM FEW018 FEW030 SCT060 BKN080 BKN200 15/11 A3008 RMK SC1SC2SC2AC1CI1 SLP185
2001 06 14 18 METAR CYVR 141800Z 30008KT 30SM FEW018 FEW030 SCT060 SCT080 BKN200 15/11 A3008 RMK SF1SC1CU2AC1CI1 SLP185
2001 06 14 19 METAR CYVR 141900Z 31008KT 30SM FEW018 FEW030 SCT064 BKN080 BKN200 16/12 A3009 RMK SF1SC1CU2AC1CI1 SLP189
2001 06 14 20 METAR CYVR 142000Z 23006KT 30SM FEW030 SCT060 SCT080 BKN190 16/10 A3009 RMK SF2CU2AC1CI1 SLP188
2001 06 14 21 METAR CYVR 142100Z 22008KT 30SM FEW035 SCT060 SCT080 BKN220 17/10 A3010 RMK SF2CU2AC1CI0 SLP191
2001 06 14 22 METAR CYVR 142200Z 20009KT 30SM FEW020 FEW055 FEW090 18/10 A3010 RMK SC1SC1AC1 TCU ASOCTD SLP193
2001 06 14 23 METAR CYVR 142300Z 19010KT 30SM FEW030 FEW055 FEW080 19/10 A3009 RMK SC1SC1AC1 SLP190
2001 06 15 00 METAR CYVR 150000Z CCA 18009G15KT 30SM FEW030 FEW060 FEW085 19/09 A3009 RMK SC1SC1AC1 TCU ASOCTD SLP188
2001 06 15 01 METAR CYVR 150100Z 18006KT 30SM FEW035 FEW070 SCT085 19/09 A3008 RMK SC2AC1AC1 TCU ASOCTD SLP187
2001 06 15 02 METAR CYVR 150200Z 17007KT 30SM FEW030 FEW085 18/09 A3008 RMK SC2AC1 SLP186
2001 06 15 03 METAR CYVR 150300Z 17008KT 30SM FEW030 SCT085 17/09 A3009 RMK SC2AC1 SLP188
2001 06 15 04 METAR CYVR 150400Z 11005KT 30SM FEW030 SCT085 BKN110 15/09 A3009 RMK SC2AC2AC0 SLP190
2001 06 15 05 METAR CYVR 150500Z 11006KT 30SM FEW030 SCT075 BKN110 14/09 A3011 RMK SC2AC2AC0 SLP196
2001 06 15 06 METAR CYVR 150600Z 10008KT 30SM FEW030 SCT070 BKN110 13/09 A3013 RMK SC2AC2AC1 SLP201
2001 06 15 07 METAR CYVR 150700Z 12008KT 30SM FEW040 SCT065 BKN110 13/08 A3013 RMK SC2SC2AC2 SLP204
2001 06 15 08 METAR CYVR 150800Z 11007KT 30SM FEW040 SCT065 BKN110 13/08 A3014 RMK SC2SC2AC2 SLP206
2001 06 15 09 METAR CYVR 150900Z 11007KT 30SM FEW040 BKN060 OVC110 12/08 A3015 RMK SC2SC4AC2 SLP209
2001 06 15 10 METAR CYVR 151000Z 11008KT 30SM FEW035 BKN060 OVC110 12/08 A3015 RMK SC2SC4AC2 SLP211
2001 06 15 11 METAR CYVR 151100Z 09006KT 20SM SCT025 BKN060 OVC100 12/08 A3017 RMK SC3SC3AC2 SLP215
2001 06 15 12 METAR CYVR 151200Z 09007KT 20SM SCT025 BKN070 OVC100 11/08 A3017 RMK SC4AC2AC2 SLP217
2001 06 15 13 METAR CYVR 151300Z 09010KT 20SM -SHRA SCT030 BKN072 BKN110 11/09 A3019 RMK SC3AC2AC2 SLP222
2001 06 15 14 METAR CYVR 151400Z 09008KT 20SM SCT035 BKN075 BKN110 11/09 A3020 RMK SC3AC2AC2 SLP226
2001 06 15 15 METAR CYVR 151500Z 11007KT 15SM FEW009 BKN032 BKN075 12/10 A3021 RMK SF2SC4AC2 SLP230
2001 06 15 16 METAR CYVR 151600Z 10007KT 15SM FEW008 SCT013 BKN030 OVC075 13/10 A3022 RMK SF2SF2SC3AC2 SLP233
2001 06 15 17 METAR CYVR 151700Z 09003KT 15SM FEW009 BKN017 BKN030 BKN075 13/10 A3023 RMK SF2SC3SC2AC1 SLP236
2001 06 15 18 METAR CYVR 151800Z 00000KT 15SM FEW009 BKN016 BKN030 BKN075 13/10 A3023 RMK SF1SC4SC2AC1 TCU ASOCTD SLP237
2001 06 15 19 METAR CYVR 151900Z 12006KT 15SM FEW010 SCT017 BKN030 BKN075 13/10 A3024 RMK CF1SC3SC2AC1 TCU ASOCTD SLP241
2001 06 15 20 METAR CYVR 152000Z 12006KT 30SM SCT017 SCT030 BKN075 16/11 A3024 RMK CU3SC1AC1 TCU ASCTD SLP241
2001 06 15 21 METAR CYVR 152100Z 24003KT 20SM FEW017 BKN035 BKN080 16/10 A3024 RMK CF1CU4AC1 TCU ASCTD SLP241
2001 06 15 22 METAR CYVR 152200Z 22007KT 20SM BKN035 BKN080 16/08 A3024 RMK CU5AC1 TCU SLP240
2001 06 15 23 METAR CYVR 152300Z 23010KT 30SM FEW020 FEW035 SCT080 SCT220 18/10 A3023 RMK CF1CU2AC1CI1 TR CF.CI. TCU ASOCTD. SLP236
2001 06 16 00 METAR CYVR 160000Z 20010KT 30SM FEW020 FEW035 FEW080 FEW220 17/08 A3022 RMK CF1CU2AC1CI1 TR CF.CI. TCU ASOCTD. SLP233
2001 06 16 01 METAR CYVR 160100Z CCA 22009KT 30SM FEW020 FEW035TCU FEW080 FEW220 17/08 A3021 RMK CF1TCU1AC1CI1 TR CF.CI. SHWRS NE. SLP231
2001 06 16 02 METAR CYVR 160200Z 18006KT 30SM FEW035 FEW080 FEW220 17/08 A3020 RMK CU1AC1CI1 TR CI. TCU ASOCTD. SLP226
2001 06 16 03 METAR CYVR 160300Z 16004KT 30SM FEW035 FEW080 FEW220 17/08 A3020 RMK CU1AC1CI1 TR CI. SLP225
2001 06 16 04 METAR CYVR 160400Z 19004KT 30SM FEW035 FEW080 16/08 A3019 RMK SC1AC1 SLP222
2001 06 16 05 METAR CYVR 160500Z 17002KT 30SM FEW035 FEW080 15/08 A3019 RMK SC1AC1 TR SC. SLP222
2001 06 16 06 METAR CYVR 160600Z 13002KT 30SM FEW080 13/08 A3019 RMK AC1 SLP222
2001 06 16 07 METAR CYVR 160700Z 02002KT 30SM SKC 13/08 A3019 RMK SLP222
2001 06 16 08 METAR CYVR 160800Z 08005KT 30SM SKC 12/08 A3018 RMK SLP221
2001 06 16 09 METAR CYVR 160900Z 07006KT 30SM FEW095 10/07 A3018 RMK AC2 SLP219
2001 06 16 10 METAR CYVR 161000Z 11005KT 30SM SCT056 BKN078 11/09 A3018 RMK SC3AC3 SLP220
2001 06 16 11 METAR CYVR 161100Z 12005KT 30SM FEW035 BKN060 11/09 A3019 RMK SC2SC3 SLP222
2001 06 16 12 METAR CYVR 161200Z 10006KT 20SM FEW020 BKN063 BKN085 10/08 A3019 RMK SC2SC3AC1 SHWRS + CIG LWR W SLP223
2001 06 16 13 METAR CYVR 161300Z 11007KT 20SM FEW015 BKN035 BKN060 BKN090 11/09 A3020 RMK CF2SC3SC2AC1 SLP226
2001 06 16 14 METAR CYVR 161400Z 09007KT 15SM -SHRA FEW012 BKN020 BKN035TCU BKN060 11/09 A3021 RMK CF2SC3TCU2SC1 SHWRS VRY LGT SLP229
2001 06 16 15 METAR CYVR 161500Z 11009KT 20SM FEW012 FEW020 BKN035 BKN060 BKN090 12/10 A3021 RMK CF1SC2SC2SC1AC1 TCU ASOCTD SLP231
2001 06 16 16 METAR CYVR 161600Z 13006KT 20SM FEW015 BKN035 BKN060 BKN090 13/10 A3022 RMK CF2SC3SC1AC1 TCU ASOCTD SLP233
2001 06 16 17 METAR CYVR 161700Z 19004KT 20SM SCT017 BKN032TCU BKN060 14/10 A3023 RMK CF3TCU2SC1 SLP235
2001 06 16 18 METAR CYVR 161800Z 23006KT 20SM FEW018 BKN035TCU 15/11 A3023 RMK CF2TCU3 SLP235
2001 06 16 19 METAR CYVR 161900Z 24006KT 20SM FEW018 SCT035TCU SCT080 16/10 A3023 RMK CF1TCU2AC1 SLP237
2001 06 16 20 METAR CYVR 162000Z 25009KT 20SM FEW020 FEW038TCU SCT080 16/10 A3023 RMK CF1TCU2AC1 SLP237
2001 06 16 21 METAR CYVR 162100Z 24008KT 20SM FEW020 FEW038TCU SCT080 17/11 A3024 RMK CF1TCU2AC1 SLP240
2001 06 16 22 METAR CYVR 162200Z 24009G15KT 20SM FEW020 FEW040TCU FEW080 17/09 A3025 RMK CF1TCU1AC1 CB TOPS W AND NW SHWRS ENE SLP242
2001 06 16 23 METAR CYVR 162300Z 22009KT 20SM FEW020 FEW040TCU FEW080 17/08 A3024 RMK CF1TCU1AC1 SHWRS NW AND ENE SLP241
2001 06 17 00 METAR CYVR 170000Z 22008KT 30SM FEW020 FEW040 SCT120 18/09 A3024 RMK CF1CU2AC2 TCU ASOCTD SLP239
2001 06 17 01 METAR CYVR 170100Z 23007KT 30SM FEW040 FEW120 18/10 A3024 RMK CU2AC1 TCU ASOCTD SLP239
2001 06 17 02 METAR CYVR 170200Z 22006KT 30SM FEW040 FEW120 17/08 A3023 RMK CU1AC1 TCU ASOCTD SLP238
2001 06 17 03 METAR CYVR 170300Z 24005KT 30SM FEW040 FEW120 17/08 A3023 RMK CU1AC1 TCU ASOCTD SLP238
2001 06 17 04 METAR CYVR 170400Z 29004KT 30SM FEW040 SCT110 15/09 A3023 RMK SC1AC2 TCU TOPS E SLP238
2001 06 17 05 METAR CYVR 170500Z 27003KT 30SM FEW040 SCT110 15/08 A3023 RMK SC1AC1 SLP238
2001 06 17 06 METAR CYVR 170600Z 05003KT 30SM FEW040 FEW110 14/08 A3024 RMK SC1AC1 SLP239
2001 06 17 07 METAR CYVR 170700Z 09004KT 30SM SKC 12/08 A3024 RMK SLP240
2001 06 17 08 METAR CYVR 170800Z 10005KT 30SM SKC 12/08 A3025 RMK SLP242
2001 06 17 09 METAR CYVR 170900Z 09006KT 30SM SKC 10/08 A3024 RMK SLP241
2001 06 17 10 METAR CYVR 171000Z 10007KT 30SM FEW030 BKN043 10/08 A3025 RMK SC1SC4 SLP244
2001 06 17 11 METAR CYVR 171100Z 09006KT 30SM FEW030 BKN043 10/07 A3025 RMK SC1SC5 SLP242
2001 06 17 12 METAR CYVR 171200Z 09006KT 30SM FEW027 BKN043 10/08 A3024 RMK SC2SC3 SLP240
2001 06 17 13 METAR CYVR 171300Z 09007KT 30SM FEW026 BKN042 BKN085 BKN220 11/08 A3024 RMK CF2SC5AC1CI1 CU EMBDD TR CI SLP241
2001 06 17 14 METAR CYVR 171400Z 10006KT 30SM FEW026 BKN047 BKN085 OVC220 11/09 A3025 RMK CF2SC5AC1CI1 CU EMBDD SLP244
2001 06 17 15 METAR CYVR 171500Z 10004KT 30SM FEW026 BKN051 BKN085 12/09 A3026 RMK CF1SC6AC1 CU EMBDD SLP246
2001 06 17 16 METAR CYVR 171600Z 07004KT 30SM FEW026 FEW032 FEW050 SCT090 SCT220 13/10 A3025 RMK CF1SC1CU2AC1CI0 TR CF TCU N CIG+VSBY LWR N-E SLP243
2001 06 17 17 METAR CYVR 171700Z 28002KT 30SM FEW026 FEW035 SCT090 SCT220 15/09 A3024 RMK CF1CU1AC1CI1 TR CF CI. TCU ASOCTD. SLP241
2001 06 17 18 METAR CYVR 171800Z 26005KT 30SM FEW035 FEW050 SCT220 16/10 A3024 RMK CU2SC1CI1 TR SC TCU ASOCTD SLP240
2001 06 17 19 METAR CYVR 171900Z 26007KT 30SM FEW035 FEW050 SCT220 16/10 A3023 RMK CU2SC1CI1 TR SC TCU ASOCTD SLP237
2001 06 17 20 METAR CYVR 172000Z 26010KT 30SM FEW035TCU SCT220 16/11 A3023 RMK TCU2CI1 CB DSTNT SW SLP237
2001 06 17 21 METAR CYVR 172100Z 25005KT 30SM FEW035TCU SCT220 16/10 A3023 RMK TCU2CI0 CB DSTNT SW SLP235
2001 06 17 22 METAR CYVR 172200Z 24009KT 30SM FEW045TCU FEW070 SCT220 17/11 A3021 RMK TCU2AC1CI1 TR AC SLP230
2001 06 17 23 METAR CYVR 172300Z 24007KT 30SM FEW045 FEW070 BKN220 18/10 A3021 RMK CU2AC1CI1 CB TOP NW MOD CU TR AC SLP229
2001 06 18 00 METAR CYVR 180000Z 23008KT 30SM FEW045TCU FEW070 BKN220 19/10 A3020 RMK TCU1AC1CI1 CB TOP NW+N SLP227
2001 06 18 01 METAR CYVR 180100Z 22008KT 30SM FEW045TCU FEW070 BKN220 19/09 A3020 RMK TCU1AC1CI1 CB TOP NW+NE SLP227
2001 06 18 02 METAR CYVR 180200Z 21008KT 30SM FEW045TCU FEW070 SCT220 18/10 A3021 RMK TCU1AC1CI1 VIRGA DSNT W SLP228
2001 06 18 03 METAR CYVR 180300Z 23006KT 30SM FEW045TCU FEW070 SCT220 18/09 A3021 RMK TCU1AC1CI1 CB TOP N VIRGA DSNT WSW SLP229
2001 06 18 04 METAR CYVR 180400Z 29003KT 30SM FEW045 FEW220 17/10 A3022 RMK CU1CI1 TCU N SLP232
2001 06 18 05 METAR CYVR 180500Z 15003KT 30SM FEW050 FEW220 17/10 A3023 RMK SC1CI1 PCPN DSNT NNE CU ASOCTD SLP238
2001 06 18 06 METAR CYVR 180600Z 11004KT 30SM FEW060 15/09 A3025 RMK SC1 SLP243
2001 06 18 07 METAR CYVR 180700Z 09007KT 30SM FEW060 FEW220 13/10 A3026 RMK SC1CI0 SLP248
2001 06 18 08 METAR CYVR 180800Z 09009KT 30SM FEW060 FEW220 12/10 A3028 RMK SC1CI0 SLP252
2001 06 18 09 METAR CYVR 180900Z 09009KT 30SM FEW060 FEW220 11/09 A3028 RMK SC2CI1 TR CI. SLP255
2001 06 18 10 METAR CYVR 181000Z 10009KT 30SM FEW070 11/09 A3029 RMK AC2 SLP258
2001 06 18 11 METAR CYVR 181100Z 10008KT 30SM SCT072 11/08 A3031 RMK AC4 SLP263
2001 06 18 12 METAR CYVR 181200Z 10008KT 15SM SCT030 BKN070 BKN200 11/08 A3031 RMK SC3AC2CI0 SLP264
2001 06 18 13 METAR CYVR 181300Z 10006KT 20SM FEW037 BKN076 BKN200 11/09 A3032 RMK SC2AC2CI1 CU+CC ASOCTD SLP268
2001 06 18 14 METAR CYVR 181400Z 10009KT 20SM FEW016 FEW037 FEW055 BKN076 BKN200 12/09 A3034 RMK SF1SC2SC1AC2CI1 CU+CC ASOCTD TR SF SLP272
2001 06 18 15 METAR CYVR 181500Z 11009KT 20SM FEW018 FEW038 FEW055 SCT076 BKN200 13/09 A3034 RMK SF1CF1SC1AC1CI1 CU ASOCTD TR SF SLP275
2001 06 18 16 METAR CYVR 181600Z 12007KT 30SM FEW019 FEW038 FEW055 SCT076 BKN200 14/09 A3035 RMK SF1CU1SC1AC1CI1 TR SF SLP278
2001 06 18 17 METAR CYVR 181700Z 12007KT 30SM FEW036 FEW055 FEW090 SCT200 15/09 A3035 RMK CU1SC1AC0CI1 TR SC SLP276
2001 06 18 18 METAR CYVR 181800Z 14002KT 30SM FEW028 FEW038 FEW055 FEW090 BKN200 17/10 A3034 RMK CF1CU2SC1AC0CI1 TR CF+SC LYR THIN NO CIG SLP275
2001 06 18 19 METAR CYVR 181900Z 14004KT 30SM FEW038 FEW090 SCT200 17/10 A3034 RMK CU2AC1CI0 TR AC TCU SW-W SLP274
2001 06 18 20 METAR CYVR 182000Z 27008G16KT 30SM FEW038 FEW090 SCT200 18/12 A3034 RMK CU2AC1CI0 TR AC TCU SLP273
2001 06 18 21 METAR CYVR 182100Z 26006KT 30SM FEW038 SCT250 17/11 A3032 RMK CU1CI1 TCU SLP267
2001 06 18 22 METAR CYVR 182200Z 27008KT 30SM FEW045 SCT250 18/12 A3030 RMK CU2CI0 SLP259
2001 06 18 23 METAR CYVR 182300Z 27007KT 30SM FEW045 BKN250 17/11 A3029 RMK CU2CI1 SLP256
2001 06 19 00 METAR CYVR 190000Z 27005KT 30SM FEW045 BKN250 17/11 A3027 RMK CU2CI1 SLP250
2001 06 19 01 METAR CYVR 190100Z 25007KT 30SM FEW055 SCT250 18/11 A3026 RMK CU1CI1 SLP245
2001 06 19 02 METAR CYVR 190200Z 25006KT 30SM FEW055 SCT250 18/11 A3024 RMK SC1CI1 SLP240
2001 06 19 03 METAR CYVR 190300Z 25004KT 30SM FEW065 SCT250 17/10 A3023 RMK SC1CI0 SLP238
2001 06 19 04 METAR CYVR 190400Z 22003KT 30SM FEW250 17/09 A3022 RMK CI0 SLP233
2001 06 19 05 METAR CYVR 190500Z 17003KT 30SM FEW250 17/08 A3023 RMK CI0 SLP236
2001 06 19 06 METAR CYVR 190600Z 00000KT 30SM FEW250 16/10 A3024 RMK CI0 SLP239
2001 06 19 07 METAR CYVR 190700Z 11003KT 30SM FEW250 15/10 A3023 RMK CI0 SLP238
2001 06 19 08 METAR CYVR 190800Z 08004KT 30SM FEW250 14/09 A3023 RMK CI0 SLP236
2001 06 19 09 METAR CYVR 190900Z 09004KT 30SM SKC 13/10 A3023 RMK SLP237
2001 06 19 10 METAR CYVR 191000Z 09003KT 30SM SKC 13/11 A3023 RMK SLP238
2001 06 19 11 METAR CYVR 191100Z 09002KT 30SM BKN250 13/10 A3023 RMK CI2 SLP236
2001 06 19 12 METAR CYVR 191200Z 12004KT 20SM FEW210 BKN250 12/10 A3023 RMK CC1CI2 SLP235
2001 06 19 13 METAR CYVR 191300Z 12003KT 30SM FEW140 FEW210 BKN250 12/10 A3023 RMK AC1CC1CI2 SLP235
2001 06 19 14 METAR CYVR 191400Z 17003KT 30SM FEW140 FEW250 14/10 A3023 RMK AC1CI1 TR AC SLP238
2001 06 19 15 METAR CYVR 191500Z 00000KT 30SM FEW250 16/11 A3024 RMK CI0 SLP240
2001 06 19 12 METAR CYVR 191200Z 12004KT 20SM FEW210 BKN250 12/10 A3023 RMK CC1CI2 SLP235
2001 06 19 14 METAR CYVR 191400Z 17003KT 30SM FEW140 FEW250 14/10 A3023 RMK AC1CI1 TR AC SLP238
2001 06 19 18 METAR CYVR 191800Z 26004KT 30SM FEW050 BKN250 18/11 A3022 RMK CU1CI2 TR CU SLP233
2001 06 19 19 METAR CYVR 191900Z 24007KT 30SM FEW050 BKN250 19/12 A3023 RMK CU1CI2 TR CU SLP235
2001 06 19 20 METAR CYVR 192000Z 27007KT 30SM FEW050 BKN250 19/12 A3021 RMK CU1CI3 TR CU SLP230
2001 06 19 21 METAR CYVR 192100Z 28006KT 30SM FEW050 BKN250 21/12 A3020 RMK CU1CI2 TR CU SLP226
2001 06 19 22 METAR CYVR 192200Z 27006KT 30SM FEW050 BKN250 21/10 A3018 RMK CF1CI2 SLP221
2001 06 19 23 METAR CYVR 192300Z 28006KT 30SM FEW050 OVC270 21/10 A3017 RMK CF1CS3 CF TR HALO SLP217
2001 06 20 00 METAR CYVR 200000Z 27006KT 30SM FEW230 BKN270 21/12 A3015 RMK CI2CS2 HALO SLP211
2001 06 20 01 METAR CYVR 200100Z 29004KT 30SM FEW230 BKN270 21/13 A3014 RMK CI1CS2 SLP206
2001 06 20 02 METAR CYVR 200200Z 28004KT 30SM FEW090 BKN270 20/14 A3013 RMK AC1CS2 SLP202
2001 06 20 03 METAR CYVR 200300Z 24002KT 30SM FEW110 BKN270 19/11 A3013 RMK AC1CS2 SLP201
2001 06 20 04 METAR CYVR 200400Z 00000KT 30SM FEW120 BKN270 19/09 A3013 RMK AC1CS2 SLP201
2001 06 20 05 METAR CYVR 200500Z 33003KT 30SM FEW120 BKN270 18/11 A3013 RMK AC1CS2 SLP203
2001 06 20 06 METAR CYVR 200600Z 03002KT 20SM FEW120 BKN270 17/09 A3013 RMK AC1CS2 SLP201
2001 06 20 07 METAR CYVR 200700Z 22003KT 20SM SKC 18/11 A3013 RMK SLP204
2001 06 20 08 METAR CYVR 200800Z 04003KT 20SM SKC 16/10 A3013 RMK SLP204
2001 06 20 09 METAR CYVR 200900Z 10006KT 20SM SKC 13/10 A3014 RMK SLP206
2001 06 20 10 METAR CYVR 201000Z 11005KT 30SM SCT160 BKN200 15/12 A3015 RMK AC3CI2 SLP211
2001 06 20 11 METAR CYVR 201100Z 10004KT 20SM FEW150 BKN170 15/12 A3015 RMK AC2AC4 SLP211
2001 06 20 12 METAR CYVR 201200Z 10005KT 20SM BKN150 BKN220 15/11 A3016 RMK AC5CI1 SLP213
2001 06 20 13 METAR CYVR 201300Z 11007KT 20SM SCT150 BKN220 14/10 A3014 RMK AC4CI0 SLP207
2001 06 20 14 METAR CYVR 201400Z 12006KT 20SM FEW150 BKN220 15/11 A3019 RMK AC2CI1 SLP223
2001 06 20 15 METAR CYVR 201500Z 12008KT 20SM SCT150 BKN220 17/12 A3019 RMK AC3CI1 SLP223
2001 06 20 16 METAR CYVR 201600Z 11007KT 20SM FEW150 BKN250 20/13 A3020 RMK AC2CS2 HALO SLP225
2001 06 20 17 METAR CYVR 201700Z 14004KT 20SM FEW160 BKN250 20/13 A3020 RMK AC2CI1 SLP227
2001 06 20 18 METAR CYVR 201800Z 14007KT 20SM FEW090 SCT160 BKN250 22/11 A3020 RMK AC1AC2CI1 SLP226
2001 06 20 19 METAR CYVR 201900Z 17006KT 20SM FEW090 SCT160 BKN250 23/10 A3021 RMK AC2AC2CI1 SLP228
2001 06 20 20 METAR CYVR 202000Z 16005KT 20SM FEW040 FEW090 SCT160 BKN250 23/10 A3021 RMK CU1AC2AC2CI1 CU TR SLP229
2001 06 20 21 METAR CYVR 202100Z 29006KT 20SM BKN090 BKN250 23/15 A3020 RMK AC5CI1 SLP227
2001 06 20 22 METAR CYVR 202200Z 29007KT 30SM FEW040 BKN100 BKN250 20/13 A3021 RMK CU1AC6CI1 TR CU SLP229
2001 06 20 23 METAR CYVR 202300Z 31009KT 30SM FEW050 BKN100 BKN160 19/13 A3020 RMK CU1AC5AC2 SLP227
2001 06 21 00 METAR CYVR 210000Z 30007KT 30SM FEW050 BKN100 BKN160 20/14 A3019 RMK CU1AC5AC2 TR CU SLP224
2001 06 21 01 METAR CYVR 210100Z 29009KT 30SM FEW045 SCT100 BKN160 BKN250 19/15 A3019 RMK CU1AC4AC2CI1 SLP222
2001 06 21 02 METAR CYVR 210200Z 30008KT 30SM SCT100 BKN160 BKN250 19/14 A3018 RMK AC3AC2CI0 SLP218
2001 06 21 03 METAR CYVR 210300Z 29010KT 30SM FEW100 SCT180 BKN250 19/14 A3016 RMK AC2AC2CI1 SLP214
2001 06 21 04 METAR CYVR 210400Z 30009KT 30SM FEW100 SCT150 BKN250 18/15 A3016 RMK AC2AC2CI1 SLP213
2001 06 21 05 METAR CYVR 210500Z 29009KT 30SM FEW110 FEW150 SCT250 18/14 A3017 RMK AC2AC1CI1 SLP217
2001 06 21 06 METAR CYVR 210600Z 32005KT 30SM FEW110 BKN250 17/14 A3018 RMK AC2CI1 SLP218
2001 06 21 07 METAR CYVR 210700Z 30006KT 30SM FEW100 BKN250 16/14 A3017 RMK AC1CI2 LYR THIN NO CIG SLP217
2001 06 21 08 METAR CYVR 210800Z 31006KT 20SM FEW100 BKN250 16/14 A3017 RMK AC1CI2 LYR THIN NO CIG SLP216
2001 06 21 09 METAR CYVR 210900Z 00000KT 20SM FEW100 BKN250 16/13 A3017 RMK AC1CI2 LYR THIN NO CIG SLP216
2001 06 21 10 METAR CYVR 211000Z 02002KT 20SM FEW100 BKN250 15/13 A3017 RMK AC1CI2 LYRS THIN NO CIG SLP216
2001 06 21 11 METAR CYVR 211100Z 09003KT 20SM FEW100 BKN250 15/13 A3016 RMK AC1CI2 LYRS THIN NO CIG SLP214
2001 06 21 12 METAR CYVR 211200Z 00000KT 20SM FEW094 BKN250 15/12 A3017 RMK AC2CI3 BR PTCHS SLP215
2001 06 21 13 METAR CYVR 211300Z 35003KT 20SM BKN096 BKN120 15/12 A3017 RMK AC5AC1 SLP216
2001 06 21 14 METAR CYVR 211400Z 13004KT 20SM BKN094 BKN120 16/13 A3018 RMK AC5AC1 SLP221
2001 06 21 15 METAR CYVR 211500Z 10006KT 20SM BKN090 BKN250 17/13 A3018 RMK AC4CI2 HAZE SLP221
2001 06 21 16 METAR CYVR 211600Z 11004KT 20SM BKN088 BKN250 18/14 A3019 RMK AC3CI2 HAZE SLP222
2001 06 21 17 METAR CYVR 211700Z 12007KT 20SM BKN090 19/14 A3018 RMK AC2 HAZE SLP219
2001 06 21 18 METAR CYVR 211800Z 14006KT 20SM SCT085 20/14 A3018 RMK AC2 SLP218
2001 06 21 19 METAR CYVR 211900Z 16004KT 20SM FEW055 BKN085 22/15 A3017 RMK CU1AC2 ACC ASOCTD TR CU SLP216
2001 06 21 20 METAR CYVR 212000Z 18007KT 20SM FEW055 BKN085 BKN250 22/13 A3015 RMK CU1AC2CI2 SLP210
2001 06 21 21 METAR CYVR 212100Z 18004KT 20SM FEW055 FEW085 BKN250 24/13 A3014 RMK CU1AC1CI3 SLP206
2001 06 21 22 METAR CYVR 212200Z 18007KT 25SM FEW055 FEW085 BKN250 24/13 A3013 RMK CU1AC2CI2 SLP202
2001 06 21 23 METAR CYVR 212300Z 16005KT 25SM FEW055 FEW085 BKN250 24/12 A3011 RMK CU1AC2CI2 SLP196
2001 06 22 00 METAR CYVR 220000Z 18007KT 25SM FEW055 FEW085 BKN250 25/13 A3010 RMK CU1AC1CI2 SLP192
2001 06 22 01 METAR CYVR 220100Z 23005KT 25SM FEW055 FEW090 BKN250 25/13 A3009 RMK CU1AC1CI2 SLP188
2001 06 22 02 METAR CYVR 220200Z 17008KT 25SM FEW050 FEW090 BKN250 24/12 A3007 RMK CU1AC1CI2 SLP182
2001 06 22 03 METAR CYVR 220300Z 12009KT 25SM FEW050 FEW090 BKN220 22/13 A3006 RMK SC1AC1CC2 SLP178
2001 06 22 04 METAR CYVR 220400Z 11010KT 30SM FEW060 FEW090 BKN220 18/13 A3006 RMK SC1AC1CI1 SLP178
2001 06 22 05 METAR CYVR 220500Z 15005KT 30SM FEW060 FEW090 SCT220 18/12 A3007 RMK SC1AC1CI0 SLP183
2001 06 22 06 METAR CYVR 220600Z 28005KT 30SM FEW060 FEW090 SCT220 18/14 A3008 RMK SC1AC1CI0 SLP186
2001 06 22 07 METAR CYVR 220700Z 29004KT 20SM FEW080 SCT220 16/12 A3009 RMK AC1CI1 SLP188
2001 06 22 08 METAR CYVR 220800Z 29018KT 20SM FEW080 SCT220 16/13 A3010 RMK AC1CI1 SLP191
2001 06 22 09 METAR CYVR 220900Z 29017KT 20SM FEW050 FEW080 SCT220 15/12 A3010 RMK SC1AC1CI0 SLP192
2001 06 22 10 METAR CYVR 221000Z 28014KT 20SM FEW050 SCT080 BKN220 15/12 A3010 RMK SC2AC2CI0 SLP194
2001 06 22 11 METAR CYVR 221100Z 28014KT 20SM FEW050 SCT080 BKN220 15/11 A3011 RMK SC2AC2CI0 SLP196
2001 06 22 12 METAR CYVR 221200Z 26011KT 20SM FEW035 FEW050 SCT090 BKN220 15/11 A3012 RMK SC1SC2AC2CI0 SLP198
2001 06 22 13 METAR CYVR 221300Z 26011KT 20SM FEW022 SCT055 BKN090 BKN220 15/11 A3013 RMK SC2SC2AC1CI0 SLP201
2001 06 22 14 METAR CYVR 221400Z 24006KT 20SM FEW023 FEW055 BKN220 15/10 A3013 RMK SC2SC1CI1 SLP201
2001 06 22 15 METAR CYVR 221500Z 16003KT 20SM SCT025 BKN050 BKN220 15/10 A3013 RMK SC3SC2CI1 SLP204
2001 06 22 16 METAR CYVR 221600Z 14007KT 20SM BKN028 BKN050 BKN220 16/10 A3014 RMK SC5SC1CI0 SLP207
2001 06 22 14 METAR CYVR 221400Z 24006KT 20SM FEW023 FEW055 BKN220 15/10 A3013 RMK SC2SC1CI1 SLP201
2001 06 22 18 METAR CYVR 221800Z 24006KT 20SM BKN026 BKN050 16/10 A3014 RMK SC5CU2 SLP207
2001 06 22 19 METAR CYVR 221900Z 21005KT 20SM FEW026 SCT045 BKN220 17/11 A3014 RMK SC2CU2CI0 SLP205
2001 06 22 20 METAR CYVR 222000Z 19006KT 20SM FEW026 SCT045 SCT220 19/10 A3013 RMK CU2CU2CI0 TCU ASOCTD SLP201
2001 06 22 21 METAR CYVR 222100Z 16012G19KT 30SM FEW038 SCT220 19/11 A3011 RMK CU2CI1 SLP197
2001 06 22 22 METAR CYVR 222200Z 18007KT 30SM FEW040 SCT220 20/11 A3010 RMK CU2CI1 SLP193
2001 06 22 23 METAR CYVR 222300Z 17011KT 30SM FEW040 BKN220 20/11 A3009 RMK CU2CI3 SLP188
2001 06 23 00 METAR CYVR 230000Z 17010G15KT 30SM FEW040 BKN220 19/10 A3007 RMK CU2CI2 SLP181
2001 06 23 01 METAR CYVR 230100Z 19010KT 30SM FEW040 BKN220 18/10 A3005 RMK CU2CI2 SLP176
2001 06 23 02 METAR CYVR 230200Z 13009KT 30SM FEW040 BKN220 17/09 A3004 RMK CU2CI3 SLP173
2001 06 23 03 METAR CYVR 230300Z 11008KT 30SM FEW040 BKN220 16/09 A3003 RMK CU2CI2 SLP169
2001 06 23 04 METAR CYVR 230400Z 11010KT 30SM FEW040 FEW220 15/09 A3002 RMK SC1CI2 SLP165
2001 06 23 05 METAR CYVR 230500Z 15008KT 30SM FEW040 15/09 A3002 RMK SC2 SLP167
2001 06 23 06 METAR CYVR 230600Z 10008KT 30SM FEW040 13/09 A3002 RMK SC2 SLP167
2001 06 23 07 METAR CYVR 230700Z 09007KT 30SM FEW040 12/08 A3002 RMK SC1 SLP166
2001 06 23 08 METAR CYVR 230800Z 11010KT 30SM FEW040 12/08 A3002 RMK SC1 SLP165
2001 06 23 09 METAR CYVR 230900Z 10009KT 30SM FEW062 11/07 A3002 RMK SC2 SLP166
2001 06 23 10 METAR CYVR 231000Z 09008KT 30SM FEW065 11/07 A3001 RMK SC2 SLP163
2001 06 23 11 METAR CYVR 231100Z 11008KT 30SM SCT045 BKN069 11/08 A3002 RMK SC3AC3 SLP164
2001 06 23 12 METAR CYVR 231200Z 10011KT 30SM SCT025 BKN045 BKN072 12/08 A3002 RMK SC3SC2AC2 TCU ASOCTD SLP164
2001 06 23 13 METAR CYVR 231300Z 11012KT 30SM BKN024 BKN045 BKN075 12/08 A3002 RMK SC5SC2AC1 TCU ASOCTD SHWRS DSNT NE SLP164
2001 06 23 14 METAR CYVR 231400Z 11011KT 30SM BKN029 BKN050 BKN075 12/08 A3002 RMK SC5SC2AC1 TCU ASOCTD SLP166
2001 06 23 15 METAR CYVR 231500Z 13011KT 30SM SCT028 BKN050 BKN080 14/09 A3002 RMK SC4SC2AC1 SLP167
2001 06 23 16 METAR CYVR 231600Z 11011G16KT 30SM SCT026 BKN042 BKN085 14/09 A3002 RMK SC3SC3AC1 SLP165
2001 06 23 17 METAR CYVR 231700Z 13011KT 30SM FEW029 BKN043 BKN085 15/07 A3002 RMK SC2SC3AC1 CU ASOCTD SLP166
2001 06 23 18 METAR CYVR 231800Z 14011KT 30SM FEW030 SCT045 BKN090 BKN220 16/08 A3002 RMK SC2SC2AC1CI0 CU ASOCTD SLP166
2001 06 23 19 METAR CYVR 231900Z 15010KT 30SM FEW028 BKN042 BKN090 BKN220 16/07 A3002 RMK CU1SC4AC1CI1 SLP165
2001 06 23 20 METAR CYVR 232000Z 15006KT 30SM FEW035 BKN043 BKN100 BKN220 17/08 A3002 RMK CU1SC4AC1CI1 SLP165
2001 06 23 21 METAR CYVR 232100Z 17008KT 30SM SCT040 SCT100 BKN220 18/08 A3001 RMK CU3AC1CI1 SLP161
2001 06 23 22 METAR CYVR 232200Z 10009KT 30SM FEW042 FEW100 BKN220 18/08 A2999 RMK CU2AC1CI2 TCU ASOCTD DSNT NW SLP156
2001 06 23 23 METAR CYVR 232300Z 13010KT 30SM FEW045 FEW150 BKN240 18/07 A2998 RMK CU2AC1CI2 TCU ASOCTD DSNT W-NW SLP152
2001 06 24 00 METAR CYVR 240000Z 17007KT 30SM FEW050 FEW150 SCT240 18/06 A2997 RMK CU1AC1CI2 TCU DSNT W-NW SLP148
2001 06 24 01 METAR CYVR 240100Z 16008KT 30SM FEW050 FEW090 FEW150 SCT240 18/07 A2996 RMK CU1AC1AC1CI1 TCU DSNT W-N SLP144
2001 06 24 02 METAR CYVR 240200Z 18010KT 30SM FEW050 FEW080 FEW150 SCT240 18/06 A2995 RMK CU1AC2AC1CI1 SHWRS DSNT W SLP142
2001 06 24 03 METAR CYVR 240300Z 18010KT 30SM FEW045 SCT090 BKN150 BKN240 17/07 A2995 RMK CU1AC2AC2CI1 SHWRS DSNT NW SLP142
2001 06 24 04 METAR CYVR 240400Z 13006KT 30SM SCT063 BKN090 BKN150 BKN240 16/07 A2994 RMK SC3AC2AC1CI1 SLP139
2001 06 24 05 METAR CYVR 240500Z 10006KT 30SM -SHRA BKN062 BKN085 BKN120 15/07 A2995 RMK SC5AC2AC1 SHWRS VRY LGT SLP140
2001 06 24 06 METAR CYVR 240600Z 08010KT 20SM -SHRA BKN060 BKN080 BKN120 14/09 A2994 RMK SC5AC2AC1 SLP137
2001 06 24 07 METAR CYVR 240700Z 13009KT 20SM -SHRA BKN062 BKN080 BKN120 14/09 A2995 RMK SC5AC2AC1 SHWRS VRY LGT SLP141
2001 06 24 08 METAR CYVR 240800Z 11007KT 20SM -SHRA FEW035 BKN065 BKN100 14/09 A2995 RMK SC2SC4AC2 SHWRS VRY LGT SLP142
2001 06 24 09 METAR CYVR 240900Z 10009KT 20SM FEW035 BKN062 OVC100 13/09 A2995 RMK SC2SC4AC2 SLP141
2001 06 24 10 METAR CYVR 241000Z 07004KT 20SM FEW035 BKN061 OVC100 13/09 A2995 RMK SC2SC4AC2 SLP141
2001 06 24 11 METAR CYVR 241100Z 10007KT 20SM FEW038 BKN058 OVC100 13/09 A2996 RMK SC2SC4AC2 SLP144
2001 06 24 12 METAR CYVR 241200Z 21005KT 15SM -SHRA SCT022 BKN035TCU OVC060 12/10 A2997 RMK CF3TCU3SC2 SLP147
2001 06 24 13 METAR CYVR 241300Z 11007KT 15SM FEW020 SCT035 BKN057 OVC080 12/10 A2997 RMK CF2SC2SC4AC1 TCU EMBDD SHWRS NW SLP150
2001 06 24 14 METAR CYVR 241400Z 09008KT 20SM FEW020 FEW038 BKN062 BKN080 12/10 A2998 RMK CF1SC2SC4AC1 TCU EMBDD VSBY LWR NW-N SLP151
2001 06 24 15 METAR CYVR 241500Z 10007KT 20SM FEW015 SCT037 BKN058 BKN080 BKN150 13/10 A2998 RMK CF2SC2SC2AC1AC1 TCU EMBDD SLP152
2001 06 24 16 METAR CYVR 241600Z 10008KT 20SM FEW018 FEW035 SCT060 BKN080 BKN140 14/10 A2997 RMK CF1SC2SC2AC1AC2 TCU ASOCTD SLP150
2001 06 24 17 METAR CYVR 241700Z 11006G15KT 20SM FEW016 FEW023 SCT056 BKN080 BKN140 15/10 A2998 RMK CF1CU2SC2AC1AC2 TCU ASOCTD SLP151
2001 06 24 18 METAR CYVR 241800Z 10006KT 20SM FEW015 BKN028TCU BKN080 BKN140 16/08 A2997 RMK CF1TCU4AC1AC2 SLP148
2001 06 24 19 METAR CYVR 241900Z 12007KT 20SM FEW017 FEW035TCU FEW060 BKN140 BKN230 17/09 A2996 RMK CF1TCU2SC1AC3CI1 TR CF SLP146
2001 06 24 20 METAR CYVR 242000Z 14009KT 20SM FEW018 FEW035TCU SCT140 BKN230 17/08 A2996 RMK CF1TCU1AC3CI1 TR CF SLP145
2001 06 24 21 METAR CYVR 242100Z 13009G18KT 30SM FEW045 SCT180 18/08 A2995 RMK CU2AC2 TCU TOPS NW-NE SLP141
2001 06 24 22 METAR CYVR 242200Z 16010KT 30SM FEW040 SCT120 SCT200 18/08 A2995 RMK CU2AC2CI1 TCU ASOCTD SLP140
2001 06 24 23 METAR CYVR 242300Z 21009KT 30SM FEW045 SCT120 BKN180 19/09 A2995 RMK CU2AC2CI2 TCU ASOCTD SLP140
2001 06 25 00 METAR CYVR 250000Z 23008KT 30SM FEW040 SCT140 BKN220 18/09 A2995 RMK CU2AC2CI2 TCU ASOCTD SLP141
2001 06 25 01 METAR CYVR 250100Z 19010KT 30SM FEW035 FEW080 SCT140 BKN220 17/09 A2996 RMK CU2AC1AC2CI2 TCU ASOCTD SLP146
2001 06 25 02 METAR CYVR 250200Z 20010KT 30SM FEW035 SCT080 BKN120 BKN220 17/09 A2997 RMK CU2AC2AC1CI1 TCU ASOCTD SLP148
2001 06 25 03 METAR CYVR 250300Z 18006KT 30SM FEW035 BKN045 BKN120 BKN220 16/10 A2998 RMK CU1SC4AC2CI1 SLP153
2001 06 25 04 METAR CYVR 250400Z 14007KT 20SM FEW030 BKN042 BKN075 15/09 A3000 RMK SC1SC4AC2 SLP158
2001 06 25 05 METAR CYVR 250500Z 12008KT 20SM FEW030 SCT045 BKN075 14/09 A3002 RMK SC1SC2AC4 SLP165
2001 06 25 06 METAR CYVR 250600Z 10009KT 20SM FEW030 FEW045 BKN084 13/10 A3003 RMK SC1SC2AC5 SLP170
2001 06 25 07 METAR CYVR 250700Z 10009KT 20SM FEW030 BKN078 13/10 A3004 RMK CF1AC4 SLP173
2001 06 25 08 METAR CYVR 250800Z 09008KT 20SM FEW032 BKN070 12/10 A3006 RMK CF2AC3 SLP179
2001 06 25 09 METAR CYVR 250900Z 08006KT 30SM SCT042 BKN073 12/10 A3008 RMK CF3AC2 SLP185
2001 06 25 10 METAR CYVR 251000Z 10003KT 30SM FEW024 SCT039 BKN070 13/10 A3008 RMK CF2SC2AC2 SLP187
2001 06 25 11 METAR CYVR 251100Z 10008KT 30SM FEW021 BKN043 12/09 A3009 RMK CF2SC6 SLP190
2001 06 25 12 METAR CYVR 251200Z 14007KT 30SM FEW023 BKN044 13/07 A3011 RMK CF1SC6 SLP195
2001 06 25 13 METAR CYVR 251300Z 12007KT 30SM FEW023 BKN031 BKN045 12/08 A3013 RMK CF1SC4SC2 SLP202
2001 06 25 14 METAR CYVR 251400Z 08009KT 30SM FEW020 BKN032 BKN044 12/08 A3014 RMK CF1SC4SC1 VSBY LWR NW-NE SLP207
2001 06 25 15 METAR CYVR 251500Z 11011KT 30SM FEW020 SCT032 BKN059 13/08 A3015 RMK CF1SC2SC2 VSBY LWR NW-NE SLP211
2001 06 25 16 METAR CYVR 251600Z 11011KT 30SM FEW023 BKN032 BKN059 13/08 A3016 RMK CF2SC2SC1 SLP214
2001 06 25 17 METAR CYVR 251700Z 14010KT 30SM SCT023 BKN035 BKN059 BKN120 14/08 A3016 RMK CF3SC2SC1AC1 SLP212
2001 06 25 18 METAR CYVR 251800Z 14011KT 30SM FEW023 BKN030 BKN120 16/09 A3015 RMK CF2SC2AC1 SLP209
2001 06 25 19 METAR CYVR 251900Z 17008KT 30SM FEW023 SCT040 BKN120 BKN220 16/08 A3014 RMK CF2SC2AC1CI0 SLP206
2001 06 25 20 METAR CYVR 252000Z 16008KT 30SM FEW025 SCT040 SCT120 BKN220 18/08 A3013 RMK CF1SC2AC1CI1 TR AC SLP201
2001 06 25 21 METAR CYVR 252100Z 15003KT 30SM FEW030 SCT040 SCT120 BKN220 18/08 A3010 RMK CF1CU2AC1CI1 TR AC SLP193
2001 06 25 22 METAR CYVR 252200Z 26008KT 30SM FEW030 SCT045 BKN120 BKN220 17/09 A3008 RMK CF1CU4AC1CI0 TCU ASOCTD SLP187
2001 06 25 23 METAR CYVR 252300Z 26008KT 30SM FEW045 SCT120 BKN220 18/09 A3006 RMK CU2AC1CI1 SLP180
2001 06 26 00 METAR CYVR 260000Z 28007KT 30SM FEW040 SCT060 SCT100 BKN200 18/10 A3003 RMK CF2CU2AC1CI1 SLP169
2001 06 26 01 METAR CYVR 260100Z 29009KT 30SM FEW040 BKN200 18/09 A3000 RMK CU1CI1 SLP160
2001 06 26 02 METAR CYVR 260200Z 27009KT 30SM FEW040 BKN200 17/08 A2999 RMK CU1CI2 SLP155
2001 06 26 03 METAR CYVR 260300Z 30009KT 30SM FEW040 BKN200 17/07 A2997 RMK CU1CI2 TR CU SLP148
2001 06 26 04 METAR CYVR 260400Z 29010KT 30SM FEW050 FEW120 BKN200 15/08 A2996 RMK SC1AC1CI2 SLP146
2001 06 26 05 METAR CYVR 260500Z 30012KT 30SM FEW050 BKN200 15/09 A2996 RMK SC1CI2 SLP145
2001 06 26 06 METAR CYVR 260600Z 30013KT 30SM FEW100 BKN200 15/09 A2995 RMK AC1CI1 SLP142
2001 06 26 07 METAR CYVR 260700Z 31010KT 30SM FEW100 FEW230 14/10 A2994 RMK AC1CI0 SLP139
2001 06 26 08 METAR CYVR 260800Z 36004KT 30SM FEW100 SCT230 14/09 A2993 RMK AC1CI0 SLP135
2001 06 26 09 METAR CYVR 260900Z 02004KT 30SM FEW100 SCT230 13/08 A2992 RMK AC1CI0 SLP132
2001 06 26 10 METAR CYVR 261000Z 24004KT 30SM BKN250 13/08 A2991 RMK CI2 SLP127
2001 06 26 11 METAR CYVR 261100Z 03003KT 30SM FEW110 BKN250 13/09 A2990 RMK AC2CI2 SLP125
2001 06 26 12 METAR CYVR 261200Z 01004KT 30SM FEW110 OVC230 13/08 A2990 RMK AC2CI5 SLP124
2001 06 26 13 METAR CYVR 261300Z 33003KT 30SM FEW020 FEW110 BKN230 13/08 A2990 RMK CF1AC2CI3 SLP124
2001 06 26 14 METAR CYVR 261400Z 36003KT 30SM FEW020 FEW110 BKN230 13/08 A2990 RMK CF1AC2CI2 SLP126
2001 06 26 15 METAR CYVR 261500Z 33005KT 30SM FEW015 FEW080 FEW130 SCT240 15/10 A2991 RMK ST1AC1AC1CI1 TR ST OVR STRTS. SLP127
2001 06 26 16 METAR CYVR 261600Z 30010KT 30SM FEW015 FEW080 FEW130 SCT240 16/10 A2991 RMK CF1AC1AC1CI1 TR CF. SLP127
2001 06 26 17 METAR CYVR 261700Z 30009KT 30SM FEW025 FEW080 FEW130 SCT240 17/11 A2989 RMK CU1AC1AC1CI1 TR CU. SLP123
2001 06 26 18 METAR CYVR 261800Z 28008KT 30SM FEW030 FEW140 BKN250 17/11 A2989 RMK CU1AC2CI0 SLP120
2001 06 26 19 METAR CYVR 261900Z 28007KT 30SM FEW040 FEW100 SCT140 BKN250 18/12 A2989 RMK CU1AC2AC1CI1 SLP120
2001 06 26 20 METAR CYVR 262000Z 26006KT 30SM FEW040 SCT100 BKN120 BKN240 18/12 A2987 RMK CU1AC2AC2CI0 TCU ASOCTD SW SLP116
2001 06 26 21 METAR CYVR 262100Z 24005KT 30SM FEW040 SCT090 BKN120 BKN240 18/12 A2986 RMK CU1AC2AC3CI0 SLP112
2001 06 26 22 METAR CYVR 262200Z 26004KT 30SM FEW040 SCT090 BKN110 BKN200 18/12 A2986 RMK CU2AC2AC3CI0 SLP111
2001 06 26 23 METAR CYVR 262300Z 23004KT 30SM FEW040 SCT090 BKN120 OVC160 18/12 A2984 RMK CU2AC2AC2AC2 SLP106
2001 06 27 00 METAR CYVR 270000Z 21003KT 30SM FEW040 BKN092 BKN120 BKN160 19/13 A2982 RMK CU1AC4AC2AC1 SLP098
2001 06 27 01 METAR CYVR 270100Z 30003KT 30SM FEW040 BKN085 BKN120 OVC200 19/13 A2981 RMK CU1AC4AC2CI1 SLP094
2001 06 27 02 METAR CYVR 270200Z 31003KT 15SM BKN085 BKN120 BKN220 20/13 A2980 RMK AC5AC1CI0 HZ SLP090
2001 06 27 03 METAR CYVR 270300Z 22004KT 20SM SCT085 BKN120 BKN210 19/12 A2979 RMK AC3AC2CI1 HZ SLP087
2001 06 27 04 METAR CYVR 270400Z 27004KT 20SM FEW080 SCT100 BKN140 OVC200 17/14 A2978 RMK AC2AC2AC1CI1 HZ SLP083
2001 06 27 05 METAR CYVR 270500Z 00000KT 15SM FEW080 SCT110 BKN130 OVC200 17/13 A2977 RMK AC2AC2AC2CI1 SLP081
2001 06 27 06 METAR CYVR 270600Z 00000KT 15SM FEW080 SCT100 BKN140 OVC200 18/13 A2976 RMK AC2AC2AC2CI1 SLP079
2001 06 27 07 METAR CYVR 270700Z 19003KT 12SM -RA FEW060 BKN080 OVC110 18/14 A2975 RMK SC2AC4AC2 SLP074
2001 06 27 08 METAR CYVR 270800Z 00000KT 12SM -RA FEW060 BKN085 OVC110 18/14 A2975 RMK SC2AC4AC2 SLP075
2001 06 27 09 METAR CYVR 270900Z 09005KT 12SM -RA FEW050 OVC080 17/14 A2976 RMK SC2AC6 SLP077
2001 06 27 10 METAR CYVR 271000Z 05010KT 12SM -RA FEW038 OVC073 17/13 A2975 RMK SC2AC6 SLP074
2001 06 27 11 METAR CYVR 271100Z 08009KT 15SM FEW040 BKN062 OVC075 17/13 A2973 RMK SC2SC5AC2 SLP068
2001 06 27 12 METAR CYVR 271200Z 17004KT 20SM FEW040 BKN061 OVC080 17/12 A2974 RMK SC1SC6AC1 SLP070
2001 06 27 13 METAR CYVR 271300Z 11004KT 20SM VCSH FEW040 BKN060 OVC090 17/12 A2974 RMK SC1SC6AC2 PCPN S SLP070
2001 06 27 14 METAR CYVR 271400Z 12008KT 15SM -RA FEW040 OVC054 16/13 A2976 RMK SC2SC6 SLP076
2001 06 27 15 METAR CYVR 271500Z 10003KT 6SM -RA BR BKN040 OVC055 16/14 A2978 RMK SC5SC3 VSBY NE 15 SLP083
2001 06 27 16 METAR CYVR 271600Z 08008KT 5SM -RA BR FEW020 BKN032 OVC045 15/14 A2979 RMK SF2SC6SC1 SLP087
2001 06 27 17 METAR CYVR 271700Z CCA 08007KT 10SM FEW008 FEW022 BKN030 BKN043 16/15 A2980 RMK SF1SF2SC4SC2 RERA SLP090
2001 06 27 18 METAR CYVR 271800Z 07010KT 10SM -RA FEW008 SCT026 BKN038 BKN060 OVC080 17/15 A2980 RMK SF1SC3SC2SC2AC1 SLP091
2001 06 27 19 METAR CYVR 271900Z 09012KT 12SM -RA FEW008 SCT019 BKN040 OVC080 18/15 A2981 RMK SF1SC3SC2AC2 PCPN VRY LGT SLP095
2001 06 27 20 METAR CYVR 272000Z 11008KT 15SM FEW008 BKN018TCU BKN025 OVC045 18/15 A2983 RMK CF1TCU5SC2SC1 SHWRS DSNT E-SW SLP101
2001 06 27 21 METAR CYVR 272100Z 12012KT 15SM FEW008 SCT016TCU BKN031 OVC045 17/15 A2985 RMK CF1TCU4SC2SC2 SHWRS DSNT NE-SE SLP107
2001 06 27 22 METAR CYVR 272200Z 09012KT 15SM -SHRA FEW008 BKN016TCU OVC040 17/15 A2987 RMK CF2TCU4SC2 CIG RGD SLP115
2001 06 27 23 METAR CYVR 272300Z 12018G24KT 20SM FEW008 SCT016 BKN060 BKN086 BKN200 19/14 A2988 RMK CU1SC2SC2AC2CI0 SLP119
2001 06 28 00 METAR CYVR 280000Z 12018KT 20SM FEW012 FEW021 SCT050 BKN084 BKN200 19/14 A2989 RMK CF1CU2SC2AC2CI0 TCU EMBDD SHWRS + CIG LWR N SLP121
2001 06 28 01 METAR CYVR 280100Z 13016G21KT 30SM FEW015 SCT040 BKN082 OVC097 19/14 A2990 RMK CF2SC2AC2AC2 SHWRS N-E SLP125
2001 06 28 02 METAR CYVR 280200Z 14016KT 20SM FEW018 BKN032 BKN081 BKN120 19/14 A2990 RMK CF2SC3AC1AC1 TCU TOPS E SLP126
2001 06 28 03 METAR CYVR 280300Z 13014KT 30SM FEW020 BKN032 OVC100 19/13 A2991 RMK CF2SC3AC3 SLP129
2001 06 28 04 METAR CYVR 280400Z 13012KT 30SM SCT030 BKN046 BKN090 19/13 A2992 RMK SC4SC2AC2 SLP131
2001 06 28 05 METAR CYVR 280500Z 15006KT 20SM FEW025 BKN037 OVC090 18/13 A2995 RMK SF2SC5AC2 SLP140
2001 06 28 06 METAR CYVR 280600Z 13007KT 20SM FEW020 BKN031 OVC085 17/13 A2995 RMK SF2SC5AC2 SLP143
2001 06 28 07 METAR CYVR 280700Z 14009KT 20SM BKN030 BKN090 17/13 A2997 RMK SC6AC2 SLP149
2001 06 28 08 METAR CYVR 280800Z 11008KT 20SM FEW040 BKN090 BKN140 16/12 A2999 RMK SC2AC4AC2 SLP155
2001 06 28 09 METAR CYVR 280900Z 13009KT 20SM -SHRA FEW040 BKN080 OVC120 16/13 A3001 RMK SC2AC5AC2 SLP161
2001 06 28 10 METAR CYVR 281000Z 10007KT 20SM -SHRA FEW012 BKN055 OVC080 15/13 A3002 RMK SF2SC4AC2 SLP167
2001 06 28 11 METAR CYVR 281100Z 11006KT 12SM -SHRA FEW009 BKN041 OVC056 15/13 A3004 RMK SF2SC5SC2 SLP171
2001 06 28 12 METAR CYVR 281200Z 18006KT 8SM -SHRA FEW009 SCT028 BKN042 OVC063 15/13 A3007 RMK SF2SC2SC3SC1 SLP181
2001 06 28 13 METAR CYVR 281300Z 21009KT 10SM -SHRA FEW007 SCT025 BKN036 BKN080 14/12 A3009 RMK SF1SC2SC2AC2 FEW BRKS W SLP190
2001 06 28 14 METAR CYVR 281400Z 26013KT 10SM FEW007 BKN025 BKN031 BKN080 14/10 A3014 RMK SF1SC4SC2AC1 VSBY W 30 SLP206
2001 06 28 15 METAR CYVR 281500Z 22009KT 15SM FEW007 SCT027 BKN039 BKN080 14/09 A3018 RMK SF1SC3SC3AC1 VSBY W 30 SLP219
2001 06 28 16 METAR CYVR 281600Z 15004KT 15SM FEW008 FEW027 BKN038 BKN270 15/09 A3020 RMK SF1SC2SC4CI1 VSBY W 30 SLP227
2001 06 28 17 METAR CYVR 281700Z 14005KT 15SM FEW008 FEW028 BKN042 BKN100 BKN270 16/09 A3022 RMK SF1SC2SC2AC1CI1 FEW CU DVLPG VSBY W 30 SLP232
2001 06 28 18 METAR CYVR 281800Z 11011KT 20SM FEW012 SCT032 BKN100 BKN270 17/11 A3023 RMK CF1SC3AC2CI1 CU EMBDD SLP236
2001 06 28 19 METAR CYVR 281900Z 12008KT 20SM FEW012 FEW030 SCT050 SCT100 BKN270 16/09 A3024 RMK CF1SC2SC1AC1CI0 CU EMBDD SLP241
2001 06 28 20 METAR CYVR 282000Z 14008KT 20SM FEW030 FEW050 SCT270 17/09 A3025 RMK CU2SC1CI0 SLP243
2001 06 28 21 METAR CYVR 282100Z 15009KT 20SM FEW033 FEW055 FEW270 18/08 A3026 RMK CU2SC1CI1 SLP246
2001 06 28 22 METAR CYVR 282200Z 18007KT 30SM FEW042 FEW075 FEW230 18/08 A3026 RMK CU2AC1CI0 TR AC SLP246
2001 06 28 23 METAR CYVR 282300Z 12005KT 30SM FEW042 FEW075 SCT230 18/09 A3026 RMK CU2AC1CI1 TR AC SLP245
2001 06 29 00 METAR CYVR 290000Z 18007KT 30SM FEW042 FEW075 SCT230 19/09 A3025 RMK CU2AC1CI1 TR AC SLP244
2001 06 29 01 METAR CYVR 290100Z 20009KT 30SM FEW042 SCT230 18/08 A3025 RMK CU1CI1 SLP243
2001 06 29 02 METAR CYVR 290200Z 21006KT 30SM FEW042 SCT230 18/08 A3024 RMK CU1CI2 SLP241
2001 06 29 03 METAR CYVR 290300Z 20006KT 30SM FEW042 FEW080 SCT230 18/07 A3024 RMK CU1AC1CI2 TR AC SLP240
2001 06 29 04 METAR CYVR 290400Z 18006KT 30SM FEW040 FEW080 BKN230 17/07 A3024 RMK SC1AC1CI2 TR SC+AC LYR THIN NO CIG SLP240
2001 06 29 05 METAR CYVR 290500Z 16003KT 30SM FEW040 FEW230 16/08 A3025 RMK SC1CI1 TR SC SLP243
2001 06 29 06 METAR CYVR 290600Z 11002KT 30SM FEW040 FEW230 15/08 A3025 RMK SC1CI1 TR SC SLP244
2001 06 29 07 METAR CYVR 290700Z 09006KT 30SM FEW230 13/08 A3026 RMK CI1 SLP245
2001 06 29 08 METAR CYVR 290800Z 08006KT 30SM FEW230 12/09 A3025 RMK CI1 SLP244
2001 06 29 09 METAR CYVR 290900Z 02003KT 30SM FEW230 12/09 A3025 RMK CI1 SLP242
2001 06 29 10 METAR CYVR 291000Z 09006KT 30SM SKC 12/09 A3025 RMK SLP242
2001 06 29 11 METAR CYVR 291100Z 13002KT 30SM SKC 12/09 A3024 RMK SLP239
2001 06 29 12 METAR CYVR 291200Z 14002KT 20SM FEW100 11/09 A3024 RMK AC1 TR AC SLP240
2001 06 29 13 METAR CYVR 291300Z 16003KT 30SM FEW100 11/09 A3025 RMK AC1 SLP243
2001 06 29 14 METAR CYVR 291400Z 13003KT 30SM FEW025 FEW100 13/09 A3025 RMK SC1AC1 TR CLD SLP243
2001 06 29 15 METAR CYVR 291500Z 02002KT 30SM FEW030 FEW090 15/09 A3025 RMK CU1AC1 SLP243
2001 06 29 16 METAR CYVR 291600Z 30004KT 30SM FEW045 FEW090 SCT120 15/09 A3025 RMK CU1AC2AC2 SLP244
2001 06 29 17 METAR CYVR 291700Z 27006KT 30SM FEW015 FEW045 FEW090 16/11 A3025 RMK CU2CU1AC1 TR AC SLP242
2001 06 29 18 METAR CYVR 291800Z 28006KT 30SM FEW015 FEW220 16/11 A3024 RMK CU2CI1 TR CI SLP239
2001 06 29 19 METAR CYVR 291900Z 26009KT 30SM FEW018 17/11 A3023 RMK CU1 SLP236
2001 06 29 20 METAR CYVR 292000Z 26009KT 30SM FEW020 17/11 A3022 RMK CU1 TR CU SLP232
2001 06 29 21 METAR CYVR 292100Z 27008KT 30SM FEW025 18/11 A3021 RMK CU1 TR CU SLP229
2001 06 29 22 METAR CYVR 292200Z 27008KT 30SM FEW025 19/09 A3020 RMK CU2 SLP226
2001 06 29 23 METAR CYVR 292300Z 31006KT 30SM FEW030 20/10 A3018 RMK CU1 SLP221
2001 06 30 00 METAR CYVR 300000Z 30005KT 15SM FEW035 19/09 A3017 RMK CU1 HZ SLP215
2001 06 30 01 METAR CYVR 300100Z 28004KT 15SM FEW025 20/09 A3015 RMK CU1 SLP208
2001 06 30 02 METAR CYVR 300200Z 33002KT 30SM FEW025 20/08 A3013 RMK CU1 SLP202
2001 06 30 03 METAR CYVR 300300Z 23006KT 20SM SKC 18/10 A3013 RMK HZ SLP202
2001 06 30 04 METAR CYVR 300400Z 22003KT 30SM FEW250 17/10 A3012 RMK CI1 SLP200
2001 06 30 05 METAR CYVR 300500Z 18003KT 30SM FEW250 17/10 A3013 RMK CI0 SLP202
2001 06 30 06 METAR CYVR 300600Z 13002KT 30SM SKC 16/10 A3013 RMK SLP201
2001 06 30 07 METAR CYVR 300700Z 09004KT 30SM FEW100 14/10 A3012 RMK AC1 SLP199
2001 06 30 08 METAR CYVR 300800Z 03002KT 30SM FEW100 13/09 A3012 RMK AC2 SLP199
2001 06 30 09 METAR CYVR 300900Z 09004KT 30SM FEW100 13/09 A3012 RMK AC2 SLP198
2001 06 30 10 METAR CYVR 301000Z 09004KT 30SM FEW100 13/09 A3011 RMK AC2 SLP196
2001 06 30 11 METAR CYVR 301100Z 09002KT 30SM FEW100 13/09 A3011 RMK AC1 SLP197
2001 06 30 12 METAR CYVR 301200Z 13003KT 30SM FEW050 FEW100 FEW200 12/09 A3012 RMK SC1AC1CI1 TR CLD SLP200
2001 06 30 13 METAR CYVR 301300Z 11002KT 30SM FEW025 12/09 A3012 RMK ST1 TR THIN STRATUS MTNS N TR CU DSNT W SLP199
2001 06 30 14 METAR CYVR 301400Z 11004KT 30SM SKC 14/10 A3013 RMK VSBY LWR W IN HZ SLP201
2001 06 30 15 METAR CYVR 301500Z 14002KT 30SM SKC 16/11 A3012 RMK HZ TR LOW CLD DSNT W SLP200
2001 06 30 16 METAR CYVR 301600Z 18002KT 30SM FEW020 FEW220 17/10 A3011 RMK CU1CI1 TR CLD COTRA SLP196
2001 06 30 17 METAR CYVR 301700Z 25004KT 30SM FEW023 FEW250 18/12 A3010 RMK CU1CI1 TR CLD SLP191
2001 06 30 18 METAR CYVR 301800Z 25007KT 30SM FEW030 FEW250 18/12 A3008 RMK CU1CI1 TR CLD COTRA SLP187
2001 06 30 19 METAR CYVR 301900Z 24008KT 30SM FEW030 FEW220 SCT250 18/10 A3007 RMK CU1CI1CI0 TR CU COTRA VSBY E LWR IN HZ SLP183
2001 06 30 20 METAR CYVR 302000Z 25007KT 30SM FEW030 FEW220 BKN250 18/10 A3006 RMK CU1CI1CI0 VSBY E LWR HZ SLP180
2001 06 30 21 METAR CYVR 302100Z 28006KT 30SM FEW035 FEW220 BKN250 19/11 A3004 RMK CU1CI1CI0 COTRA SLP173
2001 06 30 22 METAR CYVR 302200Z 26005KT 20SM FEW035 FEW220 BKN250 20/10 A3003 RMK CU1CI1CI0 HZ SLP169
2001 06 30 23 METAR CYVR 302300Z 26004KT 30SM FEW040 BKN220 21/11 A3001 RMK CU1CI3 SLP162
2001 07 01 00 METAR CYVR 010000Z 25006KT 30SM FEW040 BKN220 21/10 A3000 RMK CU1CI2 SLP159
2001 07 01 01 METAR CYVR 010100Z 24006KT 30SM FEW040 BKN220 20/12 A3000 RMK CU1CI2 SLP160
2001 07 01 02 METAR CYVR 010200Z 21005KT 30SM FEW040 BKN220 20/12 A3001 RMK CU1CI3 SLP162
2001 07 01 03 METAR CYVR 010300Z 18004KT 30SM FEW040 BKN220 20/09 A3001 RMK CU1CI5 CC ASOCTD SLP162
2001 07 01 04 METAR CYVR 010400Z 19003KT 30SM FEW140 SCT220 20/10 A3002 RMK AC1CI1 SLP165
2001 07 01 05 METAR CYVR 010500Z 12008KT 20SM FEW220 17/11 A3003 RMK CI2 SLP169
2001 07 01 06 METAR CYVR 010600Z 13006KT 20SM BKN090 BKN220 17/11 A3005 RMK AC5CI1 SLP174
2001 07 01 07 METAR CYVR 010700Z 11008KT 30SM FEW088 15/10 A3007 RMK AC2 SLP181
2001 07 01 08 METAR CYVR 010800Z 11013KT 30SM SCT063 BKN090 15/10 A3008 RMK SC3AC2 SLP186
2001 07 01 09 METAR CYVR 010900Z 10011G16KT 30SM SCT065 BKN090 14/10 A3009 RMK SC4AC2 SLP190
2001 07 01 10 METAR CYVR 011000Z 11013KT 30SM BKN063 BKN084 14/10 A3011 RMK SC5AC2 SLP196
2001 07 01 11 METAR CYVR 011100Z 11010KT 30SM SCT053 BKN064 BKN085 14/09 A3013 RMK SC4SC2AC2 SLP201
2001 07 01 12 METAR CYVR 011200Z 10010KT 30SM FEW052 SCT074 SCT270 13/09 A3014 RMK SC2AC2CI1 SLP207
2001 07 01 13 METAR CYVR 011300Z 11010KT 30SM FEW053 BKN074 BKN270 13/09 A3017 RMK SC2AC3CI1 ACC ASOCTD NW SLP215
2001 07 01 14 METAR CYVR 011400Z 11013KT 30SM FEW057 BKN075 BKN270 13/09 A3018 RMK SC1AC5CI0 ACC ASOCTD NW SLP221
2001 07 01 15 METAR CYVR 011500Z 10013KT 30SM FEW075 15/09 A3019 RMK AC2 ACC ASOCTD NW SLP224
2001 07 01 16 METAR CYVR 011600Z 12012G17KT 30SM FEW050 FEW075 17/09 A3020 RMK CU1AC1 SLP226
2001 07 01 17 METAR CYVR 011700Z 09007KT 30SM FEW030 FEW075 17/09 A3021 RMK CU1AC1 MDT CU OVR WATER W SLP228
2001 07 01 18 METAR CYVR 011800Z 11009KT 30SM FEW030 FEW075 18/08 A3021 RMK CU1AC1 SLP229
2001 07 01 19 METAR CYVR 011900Z 16010G16KT 30SM FEW030 SCT270 19/07 A3021 RMK CU1CI1 SLP231
2001 07 01 20 METAR CYVR 012000Z 17012KT 30SM FEW040 BKN270 18/07 A3021 RMK CU1CI1 SLP231
2001 07 01 21 METAR CYVR 012100Z 14010G15KT 30SM FEW045 BKN270 19/08 A3021 RMK CU1CI2 SLP228
2001 07 01 22 METAR CYVR 012200Z 13007KT 30SM FEW043 BKN250 20/08 A3020 RMK CU1CI2 TR CU CC ASOCTD SLP225
2001 07 01 23 METAR CYVR 012300Z 24010G15KT 30SM FEW043 SCT230 BKN290 19/10 A3019 RMK CU1CI2CC1 TR CU TCU NNW SLP223
2001 07 02 00 METAR CYVR 020000Z 30007KT 30SM FEW044 BKN200 BKN280 19/10 A3018 RMK CU1CI3CC2 TR CU SLP221
2001 07 02 01 METAR CYVR 020100Z 27005KT 30SM FEW044 SCT190 BKN280 18/10 A3018 RMK SC1CI2CS3 CU+CC ASOCTD SLP220
2001 07 02 02 METAR CYVR 020200Z 24005KT 30SM FEW042 FEW190 SCT270 BKN330 17/10 A3018 RMK SC1CI2CC1CS2 TR SC LYRS THIN NO CIG SLP219
2001 07 02 03 METAR CYVR 020300Z 20003KT 30SM FEW042 FEW190 SCT270 BKN330 17/09 A3017 RMK SC1CI2CC1CS1 TR SC SLP216
2001 07 02 04 METAR CYVR 020400Z 27003KT 30SM FEW042 SCT190 BKN270 16/10 A3017 RMK SC1CI2CC2 TR SC SLP216
2001 07 02 05 METAR CYVR 020500Z 00000KT 30SM FEW042 FEW190 FEW260 16/09 A3017 RMK SC1CI0CI1 TR SC CC ASOCTD SLP216
2001 07 02 06 METAR CYVR 020600Z 00000KT 30SM FEW042 FEW190 FEW260 15/09 A3017 RMK SC1CI0CI1 TR SC N CC ASOCTD SLP217
2001 07 02 07 METAR CYVR 020700Z 11002KT 30SM FEW170 15/09 A3016 RMK AC2 SLP214
2001 07 02 08 METAR CYVR 020800Z 11004KT 30SM BKN170 14/10 A3016 RMK AC6 SLP213
2001 07 02 09 METAR CYVR 020900Z 11004KT 30SM SCT170 13/09 A3016 RMK AC3 SLP214
2001 07 02 10 METAR CYVR 021000Z 10002KT 30SM SCT170 13/10 A3017 RMK AC4 SLP216
2001 07 02 11 METAR CYVR 021100Z 14004KT 30SM FEW160 14/09 A3017 RMK AC2 SLP216
2001 07 02 12 METAR CYVR 021200Z 10005KT 30SM FEW170 SCT270 12/09 A3018 RMK AC2CI0 SLP219
2001 07 02 13 METAR CYVR 021300Z 09004KT 30SM FEW170 SCT270 13/09 A3018 RMK AC2CI0 SLP221
2001 07 02 14 METAR CYVR 021400Z 11004KT 30SM FEW170 FEW270 14/10 A3019 RMK AC1CI0 HZ SLP223
2001 07 02 15 METAR CYVR 021500Z 15002KT 20SM FEW170 FEW270 16/10 A3020 RMK AC1CI1 HZ TR CLD SLP226
2001 07 02 16 METAR CYVR 021600Z 21003KT 20SM FEW170 18/10 A3020 RMK AC1 TR CLD HZ SLP226
2001 07 02 17 METAR CYVR 021700Z 24005KT 20SM FEW040 FEW120 19/11 A3020 RMK CU1AC1 TR CLD HZ SLP226
2001 07 02 18 METAR CYVR 021800Z 24006KT 20SM FEW040 19/13 A3020 RMK CU1 TR CLD HZ SLP225
2001 07 02 19 METAR CYVR 021900Z 25006KT 20SM FEW040 FEW220 21/12 A3019 RMK CU1CI1 TR CLD HZ SLP224
2001 07 02 20 METAR CYVR 022000Z 23006KT 20SM FEW040 FEW220 21/11 A3018 RMK CU1CI1 TR CLD HZ SLP221
2001 07 02 21 METAR CYVR 022100Z 24006KT 30SM FEW040 21/10 A3018 RMK CU1 TR CLD SLP221
2001 07 02 22 METAR CYVR 022200Z 25006KT 30SM FEW040 22/11 A3017 RMK CU1 SLP217
2001 07 02 23 METAR CYVR 022300Z 23002KT 30SM FEW040 22/11 A3016 RMK CU1 TR CLD SLP213
2001 07 03 00 METAR CYVR 030000Z 24006KT 30SM FEW040 23/09 A3014 RMK CU1 TR CLD SLP207
2001 07 03 01 METAR CYVR 030100Z 24005KT 30SM FEW045 22/11 A3012 RMK CU1 TR CLD SLP200
2001 07 03 02 METAR CYVR 030200Z 25005KT 30SM FEW045 21/11 A3011 RMK CU1 TR CLD SLP197
2001 07 03 03 METAR CYVR 030300Z 24003KT 30SM SKC 21/12 A3011 RMK SLP196
2001 07 03 04 METAR CYVR 030400Z 26002KT 30SM SKC 19/13 A3011 RMK SLP195
2001 07 03 06 METAR CYVR 030600Z 00000KT 30SM SKC 19/13 A3012 RMK SLP198
2001 07 03 07 METAR CYVR 030700Z 03002KT 30SM SKC 18/12 A3011 RMK SLP196
2001 07 03 08 METAR CYVR 030800Z 10006KT 30SM SKC 16/12 A3011 RMK SLP197
2001 07 03 09 METAR CYVR 030900Z 11005KT 30SM SKC 15/12 A3012 RMK SLP198
2001 07 03 10 METAR CYVR 031000Z 05004KT 30SM SKC 15/11 A3012 RMK SLP199
2001 07 03 11 METAR CYVR 031100Z 11002KT 30SM FEW270 15/11 A3012 RMK CI1 TR CLD SLP198
2001 07 03 12 METAR CYVR 031200Z 00000KT 30SM FEW270 14/11 A3011 RMK CI1 TR CLD SLP197
2001 07 03 13 METAR CYVR 031300Z 13003KT 30SM SKC 16/11 A3012 RMK SLP200
2001 07 03 14 METAR CYVR 031400Z 00000KT 30SM FEW270 17/12 A3013 RMK CI1 SLP204
2001 07 03 15 METAR CYVR 031500Z 00000KT 30SM FEW270 19/11 A3013 RMK CI1 SLP203
2001 07 03 16 METAR CYVR 031600Z 27004KT 30SM SCT270 20/12 A3013 RMK CI1 SLP204
2001 07 03 17 METAR CYVR 031700Z 27006KT 30SM FEW270 21/12 A3013 RMK CI1 SLP201
2001 07 03 18 METAR CYVR 031800Z 26007KT 30SM FEW270 21/13 A3012 RMK CI1 SLP200
2001 07 03 19 METAR CYVR 031900Z 26007KT 30SM SCT270 22/13 A3011 RMK CI2 SLP195
2001 07 03 20 METAR CYVR 032000Z 27007KT 30SM FEW270 23/13 A3010 RMK CI2 SLP191
2001 07 03 21 METAR CYVR 032100Z 28008KT 30SM BKN270 24/12 A3008 RMK CI2 SLP185
2001 07 03 22 METAR CYVR 032200Z 29007KT 30SM BKN270 24/11 A3006 RMK CI2 SLP178
2001 07 03 23 METAR CYVR 032300Z 27006KT 30SM BKN270 24/12 A3004 RMK CI5 SLP171
2001 07 04 00 METAR CYVR 040000Z 27006KT 30SM FEW190 BKN270 24/14 A3001 RMK AC2CI3 SLP162
2001 07 04 01 METAR CYVR 040100Z 28006KT 30SM FEW190 BKN270 23/15 A3000 RMK AC2CI3 SLP157
2001 07 04 02 METAR CYVR 040200Z 23006KT 30SM FEW190 SCT270 24/15 A2998 RMK AC1CI2 SLP151
2001 07 04 03 METAR CYVR 040300Z 22005KT 30SM FEW190 FEW270 23/15 A2997 RMK AC1CI1 TR AC SLP147
2001 07 04 04 METAR CYVR 040400Z 18005KT 30SM FEW190 FEW270 23/12 A2997 RMK AC1CI1 SLP147
2001 07 04 05 METAR CYVR 040500Z 11003KT 30SM FEW190 FEW270 22/13 A2998 RMK AC1CI1 TR CLD SLP152
2001 07 04 06 METAR CYVR 040600Z 09006KT 30SM SKC 18/13 A2998 RMK SLP153
2001 07 04 07 METAR CYVR 040700Z 09007KT 30SM SKC 18/13 A2999 RMK SLP154
2001 07 04 08 METAR CYVR 040800Z 14008KT 30SM SKC 18/13 A2999 RMK SLP155
2001 07 04 09 METAR CYVR 040900Z 10005KT 30SM SKC 16/13 A3000 RMK SLP157
2001 07 04 10 METAR CYVR 041000Z 10006KT 30SM SKC 15/12 A3001 RMK SLP161
2001 07 04 11 METAR CYVR 041100Z 10006KT 30SM SKC 14/12 A3001 RMK SLP161
2001 07 04 12 METAR CYVR 041200Z 12005KT 30SM SKC 15/12 A3001 RMK SLP161
2001 07 04 13 METAR CYVR 041300Z 10004KT 30SM SKC 15/12 A3002 RMK SLP167
2001 07 04 14 METAR CYVR 041400Z 12006KT 30SM SKC 16/12 A3004 RMK SLP171
2001 07 04 15 METAR CYVR 041500Z 14006KT 30SM FEW025 17/13 A3005 RMK SF1 TR CLD SLP175
2001 07 04 16 METAR CYVR 041600Z 12006KT 30SM FEW025 18/13 A3006 RMK SF1 TR CLD SLP180
2001 07 04 17 METAR CYVR 041700Z 16005KT 30SM FEW025 19/13 A3006 RMK SF1 TR CLD SLP178
2001 07 04 18 METAR CYVR 041800Z 19004KT 30SM FEW025 21/14 A3005 RMK CF1 TR CLD SLP176
2001 07 04 19 METAR CYVR 041900Z 16004KT 30SM FEW030 22/14 A3005 RMK CF1 TR CLD SLP175
2001 07 04 20 METAR CYVR 042000Z 19003KT 30SM FEW030 FEW250 23/14 A3004 RMK CU1CI0 TR CU SLP171
2001 07 04 21 METAR CYVR 042100Z 23009KT 30SM FEW030 FEW250 22/16 A3003 RMK CU1CI1 TR CU SLP170
2001 07 04 22 METAR CYVR 042200Z 26006KT 30SM FEW040 FEW250 21/15 A3002 RMK CU1CI1 TR CU SLP167
2001 07 04 23 METAR CYVR 042300Z 23008KT 30SM FEW040 FEW250 22/16 A3001 RMK CU1CI1 TR CLD SLP162
2001 07 05 00 METAR CYVR 050000Z 25010KT 30SM FEW040 FEW250 22/16 A3000 RMK CU1CI1 TR CU SLP158
2001 07 05 01 METAR CYVR 050100Z 30003KT 30SM FEW040 FEW250 22/16 A2999 RMK CU1CI1 TR CU SLP154
2001 07 05 02 METAR CYVR 050200Z 29005KT 30SM FEW040 FEW250 21/16 A2997 RMK CU1CI1 TR CLD SLP150
2001 07 05 03 METAR CYVR 050300Z 10007KT 30SM FEW040 FEW250 20/12 A2998 RMK CU1CI0 TR CU SLP151
2001 07 05 04 METAR CYVR 050400Z 10008KT 30SM FEW040 FEW250 17/11 A2998 RMK CU1CI0 TR CU SLP152
2001 07 05 05 METAR CYVR 050500Z 11007KT 30SM FEW040 FEW250 17/11 A3000 RMK SC1CI1 TR CLD SLP158
2001 07 05 06 METAR CYVR 050600Z 10010KT 30SM FEW040 FEW250 15/10 A3001 RMK SC1CI1 TR CLD SLP163
2001 07 05 07 METAR CYVR 050700Z 10009KT 30SM SKC 13/10 A3003 RMK SLP168
2001 07 05 08 METAR CYVR 050800Z 09008KT 30SM SKC 13/09 A3004 RMK SLP172
2001 07 05 09 METAR CYVR 050900Z 10008KT 30SM SKC 13/09 A3005 RMK SLP176
2001 07 05 10 METAR CYVR 051000Z 09008KT 30SM FEW024 12/09 A3006 RMK SC1 TR SC SLP178
2001 07 05 11 METAR CYVR 051100Z 10005KT 30SM FEW024 12/09 A3008 RMK SC2 SLP185
2001 07 05 12 METAR CYVR 051200Z 34003KT 30SM SCT025 12/09 A3010 RMK SC3 VSBY LWR NE-E SLP193
2001 07 05 14 METAR CYVR 051400Z 29011G17KT 30SM SCT025 16/10 A3013 RMK SC3 SLP203
2001 07 05 15 METAR CYVR 051500Z 34006KT 30SM SCT025 17/10 A3015 RMK SC3 SLP210
2001 07 05 16 METAR CYVR 051600Z 31011KT 30SM SCT025 17/10 A3017 RMK SC3 SLP216
2001 07 05 17 METAR CYVR 051700Z 30005KT 30SM SCT030 18/09 A3018 RMK SC3 SLP219
2001 07 05 18 METAR CYVR 051800Z 26006KT 30SM SCT030 18/10 A3018 RMK SC3 SLP221
2001 07 05 19 METAR CYVR 051900Z 27007KT 30SM SCT030 18/10 A3019 RMK SC3 SLP222
2001 07 05 20 METAR CYVR 052000Z 24005KT 30SM SCT035 18/01 A3018 RMK SC3 SLP221
2001 07 05 21 METAR CYVR 052100Z 26007KT 30SM SCT035 19/10 A3018 RMK SC3 SLP219
2001 07 05 22 METAR CYVR 052200Z 24009KT 30SM FEW045 19/10 A3017 RMK CU2 SLP216
2001 07 05 23 METAR CYVR 052300Z 22006KT 30SM FEW045 19/09 A3015 RMK CU2 SLP210
2001 07 06 00 METAR CYVR 060000Z 23006KT 30SM FEW045 20/09 A3013 RMK CU1 SLP203
2001 07 06 01 METAR CYVR 060100Z 23006KT 30SM FEW045 20/08 A3011 RMK CU1 SLP196
2001 07 06 02 METAR CYVR 060200Z 23004KT 30SM FEW045 20/10 A3010 RMK CU1 SLP192
2001 07 06 03 METAR CYVR 060300Z 22006KT 30SM FEW045 20/09 A3008 RMK CU1 SLP187
2001 07 06 04 METAR CYVR 060400Z 18002KT 30SM FEW045 19/10 A3008 RMK SC1 SLP185
2001 07 06 05 METAR CYVR 060500Z 15003KT 30SM FEW045 18/10 A3008 RMK SC1 SLP187
2001 07 06 06 METAR CYVR 060600Z 15005KT 30SM FEW045 18/10 A3008 RMK SC1 SLP186
2001 07 06 07 METAR CYVR 060700Z 10006KT 30SM FEW045 FEW190 15/10 A3008 RMK SC1CI1 TR CI SLP187
2001 07 06 08 METAR CYVR 060800Z 10008KT 30SM FEW045 FEW190 13/09 A3008 RMK SC1CI1 TR CI SLP184
2001 07 06 09 METAR CYVR 060900Z 10010KT 30SM FEW190 13/10 A3008 RMK CI1 TR CI SLP184
2001 07 06 10 METAR CYVR 061000Z 10011KT 30SM FEW190 13/10 A3008 RMK CI1 SLP184
2001 07 06 11 METAR CYVR 061100Z 10008KT 30SM FEW220 12/10 A3008 RMK CI1 SLP184
2001 07 06 12 METAR CYVR 061200Z 10006KT 30SM FEW035 FEW220 12/10 A3008 RMK SC1CI1 TR SC SLP186
2001 07 06 13 METAR CYVR 061300Z 08005KT 30SM FEW030 FEW100 BKN220 13/09 A3009 RMK SC1AC1CI0 SLP188
2001 07 06 14 METAR CYVR 061400Z 10004KT 30SM FEW030 FEW090 SCT220 14/10 A3009 RMK SC1AC1CI1 TR SC SLP190
2001 07 06 15 METAR CYVR 061500Z 11003KT 30SM FEW030 FEW090 SCT220 15/10 A3010 RMK SC1AC1CI1 TR SC SLP191
2001 07 06 16 METAR CYVR 061600Z 13006KT 30SM FEW012 FEW030 FEW090 BKN220 16/11 A3010 RMK CF1SC1AC1CI1 TR SC SLP192
2001 07 06 17 METAR CYVR 061700Z 13007KT 30SM FEW015 FEW030 SCT090 SCT220 17/12 A3010 RMK CF2SC1AC1CI0 SLP194
2001 07 06 18 METAR CYVR 061800Z 10006KT 30SM FEW018 FEW035 SCT090 SCT220 18/12 A3010 RMK CF2SC1AC1CI0 SLP194
2001 07 06 19 METAR CYVR 061900Z 25004KT 30SM FEW028 FEW090 SCT220 19/12 A3011 RMK SC2AC1CI0 TR AC SLP196
2001 07 06 20 METAR CYVR 062000Z 25006KT 30SM FEW030 FEW090 FEW220 20/09 A3011 RMK SC1AC1CI0 SLP195
2001 07 06 21 METAR CYVR 062100Z 17009G16KT 30SM FEW030 FEW090 FEW220 20/11 A3011 RMK SC1AC1CI0 SLP195
2001 07 06 22 METAR CYVR 062200Z 14009KT 30SM FEW040 FEW090 SCT220 20/10 A3010 RMK CU1AC1CI1 SLP194
2001 07 06 23 METAR CYVR 062300Z 14011KT 30SM FEW040 FEW090 FEW220 21/10 A3010 RMK CU1AC1CI0 SLP191
2001 07 07 00 METAR CYVR 070000Z 13009KT 30SM FEW040 FEW090 SCT220 21/10 A3008 RMK CU1AC1CI1 SLP185
2001 07 07 01 METAR CYVR 070100Z 14009KT 30SM FEW040 FEW090 SCT220 21/10 A3006 RMK CU1AC1CI1 SLP179
2001 07 07 02 METAR CYVR 070200Z 14009KT 30SM FEW050 FEW090 20/09 A3005 RMK SC1AC1 SLP177
2001 07 07 03 METAR CYVR 070300Z 14006KT 30SM FEW050 FEW090 19/07 A3005 RMK SC1AC1 TR SC SLP175
2001 07 07 04 METAR CYVR 070400Z 11008KT 30SM FEW090 18/08 A3005 RMK AC2 SLP174
2001 07 07 05 METAR CYVR 070500Z 10010KT 30SM FEW090 16/09 A3005 RMK AC2 SLP176
2001 07 07 06 METAR CYVR 070600Z 10011KT 30SM FEW095 15/08 A3005 RMK AC2 SLP175
2001 07 07 07 METAR CYVR 070700Z 10009KT 30SM FEW095 15/09 A3005 RMK AC2 SLP174
2001 07 07 08 METAR CYVR 070800Z 11008KT 30SM FEW095 15/09 A3005 RMK AC1 SLP175
2001 07 07 09 METAR CYVR 070900Z 10009KT 30SM FEW095 13/08 A3005 RMK AC1 SLP175
2001 07 07 10 METAR CYVR 071000Z 11008KT 30SM FEW095 12/08 A3005 RMK AC1 SLP177
2001 07 07 11 METAR CYVR 071100Z 10008KT 30SM SCT110 SCT130 12/08 A3005 RMK AC3AC1 SLP177
2001 07 07 12 METAR CYVR 071200Z 11009KT 30SM FEW025 FEW090 BKN110 BKN130 BKN230 13/08 A3006 RMK ST1AC1AC3AC1CI1 SLP178
2001 07 07 13 METAR CYVR 071300Z 10008KT 30SM FEW090 SCT110 SCT140 BKN230 12/08 A3007 RMK AC2AC2AC1CI1 SLP183
2001 07 07 14 METAR CYVR 071400Z 11009KT 30SM FEW090 SCT140 BKN230 14/09 A3008 RMK AC2AC2CI1 SLP187
2001 07 07 15 METAR CYVR 071500Z 13010KT 30SM FEW090 BKN130 BKN230 14/10 A3009 RMK AC2AC2CI0 SLP190
2001 07 07 16 METAR CYVR 071600Z 10003KT 30SM SCT085 BKN110 BKN220 16/10 A3010 RMK AC4AC2CI0 SLP192
2001 07 07 17 METAR CYVR 071700Z 11003KT 30SM FEW075 BKN095 BKN220 17/10 A3011 RMK AC2AC4CI0 SLP196
2001 07 07 18 METAR CYVR 071800Z 12012KT 30SM FEW075 BKN090 BKN220 18/09 A3012 RMK AC2AC3CI0 SLP198
2001 07 07 19 METAR CYVR 071900Z 15012KT 30SM SCT070 BKN090 BKN220 19/09 A3012 RMK AC4AC2CI0 SLP199
2001 07 07 20 METAR CYVR 072000Z 15007KT 30SM SCT070 BKN090 BKN220 19/08 A3011 RMK AC4AC2CI0 SLP197
2001 07 07 21 METAR CYVR 072100Z 15004KT 30SM BKN063 BKN090 19/09 A3011 RMK SC5AC2 SLP195
2001 07 07 22 METAR CYVR 072200Z 23007KT 30SM FEW050 BKN072 20/17 A3010 RMK SC1AC6 SLP194
2001 07 07 23 METAR CYVR 072300Z 27006KT 30SM FEW050 BKN070 18/12 A3010 RMK SC1AC6 SLP193
2001 07 08 00 METAR CYVR 080000Z 28006KT 30SM FEW050 BKN064 BKN075 18/12 A3010 RMK SC1SC5AC2 SLP191
2001 07 08 01 METAR CYVR 080100Z 29007KT 30SM FEW065 BKN077 19/10 A3009 RMK SC2AC3 SLP189
2001 07 08 02 METAR CYVR 080200Z 29006KT 30SM FEW065 BKN075 18/11 A3009 RMK SC2AC3 SLP188
2001 07 08 03 METAR CYVR 080300Z 30006KT 30SM FEW065 SCT090 18/12 A3008 RMK SC1AC2 SLP185
2001 07 08 04 METAR CYVR 080400Z 30005KT 30SM FEW090 17/13 A3008 RMK AC2 SLP187
2001 07 08 05 METAR CYVR 080500Z 29003KT 30SM SCT080 17/13 A3010 RMK AC4 SLP191
2001 07 08 06 METAR CYVR 080600Z 26005KT 30SM BKN078 18/14 A3010 RMK AC6 SLP192
2001 07 08 07 METAR CYVR 080700Z 23004KT 30SM BKN065 BKN080 18/14 A3011 RMK SC5AC2 SLP195
2001 07 08 08 METAR CYVR 080800Z 25004KT 30SM BKN065 18/14 A3011 RMK SC6 SLP196
2001 07 08 09 METAR CYVR 080900Z 27006KT 30SM BKN062 17/15 A3012 RMK SC7 SLP198
2001 07 08 10 METAR CYVR 081000Z 28005KT 30SM BKN065 17/14 A3012 RMK SC7 SLP199
2001 07 08 11 METAR CYVR 081100Z 24004KT 30SM BKN065 17/14 A3012 RMK SC7 SLP200
2001 07 08 12 METAR CYVR 081200Z 28003KT 30SM BKN061 17/15 A3014 RMK SC7 SLP205
2001 07 08 13 METAR CYVR 081300Z 10006KT 30SM BKN060 16/14 A3015 RMK SC7 SLP209
2001 07 08 14 METAR CYVR 081400Z 09007KT 30SM BKN060 15/12 A3016 RMK SC7 SLP213
2001 07 08 15 METAR CYVR 081500Z 13005KT 30SM FEW012 BKN060 16/12 A3018 RMK SF1SC6 SLP219
2001 07 08 16 METAR CYVR 081600Z 13004KT 30SM FEW015 BKN060 17/12 A3018 RMK SF1SC6 SLP221
2001 07 08 17 METAR CYVR 081700Z 11002KT 30SM FEW025 BKN060 18/13 A3018 RMK CU1SC6 SLP221
2001 07 08 18 METAR CYVR 081800Z 21003KT 30SM FEW025 BKN060 20/14 A3018 RMK CU1SC5 SLP220
2001 07 08 19 METAR CYVR 081900Z 25008KT 30SM FEW025 FEW060 21/15 A3018 RMK CU1SC1 SLP221
2001 07 08 20 METAR CYVR 082000Z 26008KT 30SM FEW035 FEW060 22/15 A3018 RMK CU1SC1 SLP218
2001 07 08 21 METAR CYVR 082100Z 26007KT 30SM FEW025 FEW060 22/14 A3017 RMK CU1SC1 SLP215
2001 07 08 22 METAR CYVR 082200Z 27007KT 30SM FEW040 23/13 A3016 RMK CU1 SLP212
2001 07 08 23 METAR CYVR 082300Z 26007KT 30SM FEW055 22/14 A3015 RMK CU1 SLP208
2001 07 09 00 METAR CYVR 090000Z 27007KT 30SM FEW055 23/13 A3013 RMK CU1 SLP204
2001 07 09 01 METAR CYVR 090100Z 28005KT 30SM FEW055 23/11 A3012 RMK CU1 SLP198
2001 07 09 02 METAR CYVR 090200Z 30004KT 30SM FEW055 22/13 A3010 RMK CU1 SLP192
2001 07 09 03 METAR CYVR 090300Z 26002KT 30SM SKC 21/12 A3009 RMK SLP190
2001 07 09 04 METAR CYVR 090400Z 23002KT 30SM SKC 20/14 A3009 RMK SLP190
2001 07 09 05 METAR CYVR 090500Z 20003KT 30SM FEW150 20/13 A3010 RMK AC1 SLP194
2001 07 09 06 METAR CYVR 090600Z 17002KT 30SM FEW150 20/12 A3010 RMK AC1 SLP194
2001 07 09 07 METAR CYVR 090700Z 00000KT 30SM FEW250 18/11 A3010 RMK CI0 SLP194
2001 07 09 08 METAR CYVR 090800Z 05002KT 20SM BKN250 18/13 A3010 RMK CI1 SLP194
2001 07 09 09 METAR CYVR 090900Z 10005KT 20SM FEW250 15/12 A3010 RMK CI1 SLP193
2001 07 09 10 METAR CYVR 091000Z 10006KT 20SM FEW250 15/12 A3010 RMK CI0 SLP194
2001 07 09 11 METAR CYVR 091100Z 08003KT 30SM FEW250 15/12 A3011 RMK CI0 SLP195
2001 07 09 12 METAR CYVR 091200Z 10004KT 30SM FEW150 FEW250 14/12 A3011 RMK AC1CI0 TR AC SLP196
2001 07 09 13 METAR CYVR 091300Z 12003KT 30SM FEW150 FEW250 15/13 A3011 RMK AC1CI0 SLP197
2001 07 09 14 METAR CYVR 091400Z 09002KT 30SM FEW250 16/13 A3012 RMK CI1 TR CLD SLP199
2001 07 09 15 METAR CYVR 091500Z 14004KT 30SM FEW250 18/13 A3013 RMK CI1 SLP201
2001 07 09 16 METAR CYVR 091600Z 19002KT 30SM SKC 20/13 A3013 RMK SLP201
2001 07 09 17 METAR CYVR 091700Z 25007KT 30SM FEW030 21/14 A3012 RMK CF1 TR CLD SLP200
2001 07 09 18 METAR CYVR 091800Z 26007KT 30SM FEW035 20/14 A3012 RMK CF1 SLP200
2001 07 09 19 METAR CYVR 091900Z 25007KT 30SM FEW040 21/15 A3012 RMK CU1 SLP198
2001 07 09 20 METAR CYVR 092000Z 23007KT 30SM FEW040 FEW250 22/15 A3010 RMK CU1CI0 SLP192
2001 07 09 21 METAR CYVR 092100Z 26006KT 30SM FEW040 FEW250 23/15 A3008 RMK CU1CI0 SLP186
2001 07 09 22 METAR CYVR 092200Z 25007KT 30SM FEW040 23/16 A3006 RMK CU1 TR CU SLP180
2001 07 09 23 METAR CYVR 092300Z 24006KT 30SM FEW040 24/16 A3005 RMK CU1 TR CU SLP174
2001 07 10 00 METAR CYVR 100000Z 25006KT 30SM FEW040 24/15 A3002 RMK CU1 TR CU SLP167
2001 07 10 01 METAR CYVR 100100Z 25006KT 30SM FEW040 24/14 A3000 RMK SC1 TR SC SLP160
2001 07 10 02 METAR CYVR 100200Z 23004KT 30SM FEW040 23/13 A2999 RMK SC1 TR SC SLP155
2001 07 10 03 METAR CYVR 100300Z 27003KT 30SM FEW040 23/12 A2997 RMK SC1 TR SC SLP150
2001 07 10 04 METAR CYVR 100400Z 00000KT 30SM SKC 21/13 A2997 RMK SLP147
2001 07 10 05 METAR CYVR 100500Z 00000KT 30SM FEW040 21/14 A2997 RMK SC1 TR SC SLP147
2001 07 10 06 METAR CYVR 100600Z 09004KT 30SM SKC 19/13 A2996 RMK SLP145
2001 07 10 07 METAR CYVR 100700Z 10009KT 30SM SKC 17/13 A2996 RMK SLP145
2001 07 10 08 METAR CYVR 100800Z 10007KT 30SM SKC 16/12 A2996 RMK SLP145
2001 07 10 09 METAR CYVR 100900Z 11004KT 30SM SKC 17/14 A2996 RMK SLP145
2001 07 10 10 METAR CYVR 101000Z 10006KT 30SM FEW250 15/13 A2996 RMK CI1 SLP146
2001 07 10 11 METAR CYVR 101100Z 10004KT 30SM FEW250 14/13 A2997 RMK CI1 SLP147
2001 07 10 12 METAR CYVR 101200Z 09002KT 30SM FEW150 FEW250 15/13 A2998 RMK AC1CI1 SLP151
2001 07 10 13 METAR CYVR 101300Z 11005KT 30SM FEW120 15/13 A2998 RMK AC1 SLP153
2001 07 10 14 METAR CYVR 101400Z 13008KT 30SM FEW120 16/13 A2999 RMK AC1 SLP154
2001 07 10 15 METAR CYVR 101500Z 15004KT 30SM FEW100 FEW220 18/14 A2999 RMK AC1CI1 SLP156
2001 07 10 13 METAR CYVR 101300Z 11005KT 30SM FEW120 15/13 A2998 RMK AC1 SLP153
2001 07 10 17 METAR CYVR 101700Z 17006KT 30SM FEW035 FEW250 19/13 A3000 RMK CU1CI1 SLP157
2001 07 10 18 METAR CYVR 101800Z 17006KT 30SM FEW045 FEW160 FEW250 21/14 A2999 RMK CU1AC1CI1 SLP154
2001 07 10 19 METAR CYVR 101900Z 15008KT 30SM FEW050 FEW160 22/14 A2998 RMK CU1AC1 SLP153
2001 07 10 20 METAR CYVR 102000Z 18006KT 30SM FEW050 FEW160 FEW250 23/15 A2997 RMK CU1AC1CI1 SLP148
2001 07 10 21 METAR CYVR 102100Z 18006KT 30SM FEW055 FEW140 FEW250 25/15 A2996 RMK CU1AC1CI1 SLP145
2001 07 10 22 METAR CYVR 102200Z 22008KT 30SM FEW055 FEW250 25/15 A2995 RMK CU1CI1 SLP140
2001 07 10 23 METAR CYVR 102300Z CCA 22009KT 30SM FEW055 FEW200 26/16 A2994 RMK CU1CI1 SLP137
2001 07 11 00 METAR CYVR 110000Z 20007KT 30SM FEW055 FEW180 FEW250 26/15 A2992 RMK CU1AC1CI1 SLP133
2001 07 11 01 METAR CYVR 110100Z 18005KT 30SM FEW055 FEW150 FEW250 26/15 A2991 RMK CU1AC1CI1 SLP127
2001 07 11 02 METAR CYVR 110200Z 14007KT 30SM FEW055 FEW150 25/14 A2990 RMK CF1AC1 SLP124
2001 07 11 03 METAR CYVR 110300Z 14010KT 30SM FEW055 FEW150 22/13 A2990 RMK CU1AC1 TR CLD SLP126
2001 07 11 04 METAR CYVR 110400Z 13012KT 30SM FEW120 FEW150 20/11 A2991 RMK AC1AC1 TR CLD ACC DSNT E + S ACSL W SLP129
2001 07 11 05 METAR CYVR 110500Z 17004KT 30SM FEW120 19/10 A2993 RMK AC1 TR CLD ACSL N SLP135
2001 07 11 06 METAR CYVR 110600Z 14005KT 30SM SKC 17/10 A2995 RMK SLP141
2001 07 11 07 METAR CYVR 110700Z 10008KT 30SM SKC 15/09 A2995 RMK SLP142
2001 07 11 08 METAR CYVR 110800Z 13005KT 30SM SKC 15/10 A2996 RMK SLP144
2001 07 11 09 METAR CYVR 110900Z 09005KT 30SM FEW090 13/10 A2997 RMK AC1 SLP147
2001 07 11 10 METAR CYVR 111000Z 30014KT 30SM FEW090 15/11 A2997 RMK AC1 SLP149
2001 07 11 11 METAR CYVR 111100Z 30013KT 30SM FEW090 15/12 A2997 RMK AC1 SLP150
2001 07 11 12 METAR CYVR 111200Z 30012KT 30SM FEW015 FEW060 FEW090 15/12 A2998 RMK ST1SC1AC1 SLP153
2001 07 11 13 METAR CYVR 111300Z 30012KT 30SM FEW035 FEW070 15/12 A2999 RMK SC1AC1 TR AC SLP155
2001 07 11 14 METAR CYVR 111400Z 29012KT 30SM FEW035 FEW065 16/12 A3001 RMK SC1SC1 TR A065 SC SLP161
2001 07 11 15 METAR CYVR 111500Z 29011KT 30SM FEW025 FEW080 FEW240 17/12 A3002 RMK SC1AC1CI1 TR AC.CI. SLP164
2001 07 11 16 METAR CYVR 111600Z 29012KT 30SM FEW025 FEW080 FEW240 17/12 A3003 RMK SC2AC1CI1 TR AC.CI. SLP169
2001 07 11 17 METAR CYVR 111700Z 29012KT 30SM FEW025 FEW040 FEW080 FEW240 18/12 A3004 RMK SF1CU1AC1CI1 TR CU.AC.CI. SLP171
2001 07 11 18 METAR CYVR 111800Z 29012KT 30SM FEW040 FEW080 FEW240 19/12 A3003 RMK CU1AC1CI1 TR CU.AC.CI. SLP169
2001 07 11 19 METAR CYVR 111900Z 29011KT 30SM FEW040 FEW240 19/12 A3003 RMK CU1CI1 SLP169
2001 07 11 20 METAR CYVR 112000Z 29008KT 30SM FEW040 FEW240 20/13 A3003 RMK CU1CI1 SLP168
2001 07 11 21 METAR CYVR 112100Z 30006KT 30SM FEW040 FEW240 20/13 A3003 RMK CU1CI1 SLP169
2001 07 11 22 METAR CYVR 112200Z 30009KT 30SM FEW050 FEW100 FEW270 21/13 A3002 RMK CU1FU1CI1 TR FU S SLP166
2001 07 11 23 METAR CYVR 112300Z 29008KT 30SM FEW050 FEW100 FEW270 22/12 A3001 RMK CU1FU1CI1 TR FU S SLP162
2001 07 12 00 METAR CYVR 120000Z 28007KT 30SM FEW050 FEW270 22/10 A3000 RMK CU1CI1 SLP160
2001 07 12 01 METAR CYVR 120100Z 30007KT 30SM FEW055 FEW270 21/10 A2999 RMK CU1CI1 TR CLD SLP154
2001 07 12 02 METAR CYVR 120200Z 29006KT 30SM FEW055 FEW270 21/12 A2998 RMK CU1CI1 TR CLD SLP152
2001 07 12 03 METAR CYVR 120300Z 28004KT 30SM FEW270 20/12 A2998 RMK CI1 SLP152
2001 07 12 04 METAR CYVR 120400Z 31003KT 30SM FEW270 19/12 A2998 RMK CI1 SLP152
2001 07 12 05 METAR CYVR 120500Z 35003KT 30SM SKC 17/13 A2999 RMK SLP155
2001 07 12 06 METAR CYVR 120600Z 17004KT 30SM SKC 18/13 A3001 RMK SLP161
2001 07 12 07 METAR CYVR 120700Z 18004KT 30SM SKC 18/14 A3002 RMK SLP164
2001 07 12 08 METAR CYVR 120800Z 09002KT 30SM SKC 15/12 A3002 RMK SLP164
2001 07 12 09 METAR CYVR 120900Z 29003KT 30SM FEW240 16/13 A3002 RMK CI0 SLP167
2001 07 12 10 METAR CYVR 121000Z 13006KT 30SM FEW240 16/13 A3003 RMK CI0 SLP170
2001 07 12 11 METAR CYVR 121100Z 08006KT 30SM FEW220 14/11 A3003 RMK CI1 SLP170
2001 07 12 12 METAR CYVR 121200Z 08005KT 30SM FEW200 15/13 A3005 RMK CI1 SLP176
2001 07 12 13 METAR CYVR 121300Z 00000KT 30SM FEW020 SCT230 14/12 A3007 RMK ST1CI2 TR ST. SLP181
2001 07 12 14 METAR CYVR 121400Z 00000KT 30SM FEW020 FEW120 SCT230 17/13 A3008 RMK ST1AC1CI1 TR ST. SLP185
2001 07 12 15 METAR CYVR 121500Z 00000KT 30SM FEW020 FEW120 BKN230 18/13 A3008 RMK SF1AC1CI2 SLP187
2001 07 12 16 METAR CYVR 121600Z 27005KT 30SM FEW020 FEW120 BKN230 BKN250 18/14 A3009 RMK SF1AC1CI2CI2 TR SF. HAZE. SLP189
2001 07 12 14 METAR CYVR 121400Z 00000KT 30SM FEW020 FEW120 SCT230 17/13 A3008 RMK ST1AC1CI1 TR ST. SLP185
2001 07 12 18 METAR CYVR 121800Z 26006KT 30SM FEW025 FEW180 BKN220 BKN250 18/13 A3011 RMK CF1AC2CI2CI2 TR CF. HAZE. SLP196
2001 07 12 19 METAR CYVR 121900Z 25002KT 30SM FEW025 FEW180 BKN220 BKN250 19/14 A3012 RMK CF1AC2CI2CI2 TR CF. HAZE. SLP198
2001 07 12 20 METAR CYVR 122000Z 26007KT 30SM FEW025 FEW180 BKN220 BKN250 20/15 A3011 RMK CF1AC2CI2CI1 TR CF. HAZE. SLP196
2001 07 12 21 METAR CYVR 122100Z 26007KT 30SM FEW025 FEW090 FEW180 BKN220 BKN250 20/15 A3011 RMK CF1AC1AC2CI2CI2 TR CF.LWR AC. SLP195
2001 07 12 22 METAR CYVR 122200Z 24008KT 30SM FEW110 FEW180 BKN220 22/14 A3010 RMK AC1AC1CI3 SLP193
2001 07 12 23 METAR CYVR 122300Z 24006KT 30SM FEW110 SCT180 BKN220 21/13 A3010 RMK AC2AC2CI2 VIRGA E-S SLP191
2001 07 13 00 METAR CYVR 130000Z 20005KT 30SM BKN160 OVC220 21/12 A3010 RMK AC5CI2 SLP192
2001 07 13 01 METAR CYVR 130100Z 17008KT 30SM BKN160 BKN220 20/13 A3009 RMK AC5CI1 SLP188
2001 07 13 02 METAR CYVR 130200Z 15004KT 30SM FEW160 SCT220 21/13 A3008 RMK AC2CI1 SLP185
2001 07 13 03 METAR CYVR 130300Z 11006KT 30SM FEW160 FEW220 20/14 A3008 RMK AC1CI1 SLP185
2001 07 13 04 METAR CYVR 130400Z 10007KT 30SM FEW150 FEW220 18/13 A3009 RMK AC1CI1 SLP188
2001 07 13 05 METAR CYVR 130500Z 10007KT 30SM FEW140 FEW220 17/12 A3009 RMK AC1CI0 SLP189
2001 07 13 06 METAR CYVR 130600Z 09005KT 30SM FEW140 FEW220 16/12 A3009 RMK AC1CI0 SLP190
2001 07 13 07 METAR CYVR 130700Z 11008KT 30SM FEW140 FEW220 16/12 A3010 RMK AC1CI0 SLP193
2001 07 13 08 METAR CYVR 130800Z 11007KT 30SM FEW150 FEW220 15/11 A3010 RMK AC1CI1 SLP193
2001 07 13 09 METAR CYVR 130900Z 11008KT 30SM FEW240 16/12 A3011 RMK CI0 SLP195
2001 07 13 10 METAR CYVR 131000Z 11006KT 30SM FEW150 FEW240 14/10 A3011 RMK AC1CI0 SLP197
2001 07 13 11 METAR CYVR 131100Z 11008KT 30SM FEW150 FEW240 14/09 A3013 RMK AC1CI0 SLP201
2001 07 13 12 METAR CYVR 131200Z 10008KT 30SM FEW120 FEW240 13/09 A3014 RMK AC1CI0 SLP207
2001 07 13 13 METAR CYVR 131300Z 10009KT 20SM FEW100 FEW250 13/09 A3015 RMK AC2CI1 HZ SLP209
2001 07 13 14 METAR CYVR 131400Z 10010KT 15SM FEW100 SCT250 14/10 A3016 RMK AC2CI1 VSBY E 6SM HZ SLP213
2001 07 13 15 METAR CYVR 131500Z 11012KT 15SM FEW100 FEW250 15/11 A3017 RMK AC2CI1 VSBY E + W 10SM HZ SLP215
2001 07 13 16 METAR CYVR 131600Z 13012KT 20SM FEW100 FEW250 16/11 A3018 RMK AC2CI1 SLP218
2001 07 13 17 METAR CYVR 131700Z 12010G15KT 20SM FEW100 FEW250 17/11 A3018 RMK AC2CI1 HZ SLP220
2001 07 13 18 METAR CYVR 131800Z 14013G18KT 20SM FEW100 FEW250 18/10 A3018 RMK AC1CI1 SLP220
2001 07 13 19 METAR CYVR 131900Z 15012KT 20SM FEW050 FEW250 19/11 A3018 RMK CU1CI1 SLP218
2001 07 13 20 METAR CYVR 132000Z 12012KT 30SM FEW050 FEW250 19/11 A3017 RMK CU1CI0 SLP216
2001 07 13 21 METAR CYVR 132100Z 13010KT 25SM FEW050 SCT250 20/11 A3016 RMK CU2CI1 SLP212
2001 07 13 22 METAR CYVR 132200Z 14008KT 30SM FEW050 SCT250 21/11 A3015 RMK CU1CI0 SLP208
2001 07 13 23 METAR CYVR 132300Z 13007KT 30SM FEW045 FEW250 21/12 A3014 RMK CU1CI0 TR CU SLP206
2001 07 14 00 METAR CYVR 140000Z 14010KT 20SM FEW045 SCT200 20/12 A3013 RMK CU1CI1 TR CU SLP202
2001 07 14 01 METAR CYVR 140100Z 12009KT 20SM FEW045 BKN220 20/11 A3012 RMK CU1CI1 TR CU SLP199
2001 07 14 02 METAR CYVR 140200Z 13009KT 20SM FEW045 FEW220 19/11 A3011 RMK CU1CI0 TR CU SLP195
2001 07 14 03 METAR CYVR 140300Z 10009KT 20SM FEW200 SCT250 18/11 A3010 RMK CI1CI0 SLP194
2001 07 14 04 METAR CYVR 140400Z 14010KT 20SM FEW160 FEW200 SCT250 17/11 A3010 RMK AC1CI1CI0 SLP194
2001 07 14 05 METAR CYVR 140500Z 13008KT 20SM FEW160 FEW200 FEW250 16/11 A3011 RMK AC1CI1CI1 TR CLD SLP196
2001 07 14 06 METAR CYVR 140600Z 13008KT 20SM SKC 15/11 A3011 RMK SLP197
2001 07 14 07 METAR CYVR 140700Z 12009KT 20SM SKC 14/11 A3011 RMK SLP197
2001 07 14 08 METAR CYVR 140800Z 13009KT 20SM FEW250 14/11 A3012 RMK CI0 SLP198
2001 07 14 09 METAR CYVR 140900Z 10007KT 20SM FEW250 12/10 A3012 RMK CI0 SLP198
2001 07 14 10 METAR CYVR 141000Z 10007KT 20SM FEW020 SCT110 SCT250 12/10 A3012 RMK SC1AC3CI0 TR SC SLP198
2001 07 14 11 METAR CYVR 141100Z 10009KT 15SM FEW020 FEW070 BKN110 13/10 A3012 RMK SC1AC1AC5 TR SC SLP198
2001 07 14 12 METAR CYVR 141200Z 09009KT 20SM FEW030 FEW070 BKN100 BKN250 13/10 A3011 RMK SC1AC1AC3CI1 SLP197
2001 07 14 13 METAR CYVR 141300Z 09009KT 15SM FEW030 BKN060 BKN100 BKN250 12/10 A3011 RMK SC2SC3AC1CI0 SLP196
2001 07 14 14 METAR CYVR 141400Z 10009KT 12SM BKN011 BKN020 BKN060 13/11 A3012 RMK SF5SC2SC1 SLP199
2001 07 14 15 METAR CYVR 141500Z 09009KT 12SM SCT015 BKN020 BKN060 BKN100 14/11 A3013 RMK SF3SC2SC1AC1 SLP201
2001 07 14 16 METAR CYVR 141600Z 10009KT 15SM SCT015 BKN025 BKN055 BKN100 15/11 A3012 RMK SF3SC2SC1AC1 SLP200
2001 07 14 17 METAR CYVR 141700Z 13012KT 15SM BKN018 BKN040 BKN100 15/11 A3012 RMK SC5SC2AC1 SLP199
2001 07 14 18 METAR CYVR 141800Z 11008KT 15SM BKN019 BKN100 16/11 A3012 RMK SC6AC1 SLP198
2001 07 14 19 METAR CYVR 141900Z 16009KT 15SM SCT020 SCT030 BKN094 17/12 A3011 RMK CU3SC1AC2 SLP196
2001 07 14 20 METAR CYVR 142000Z 16007KT 20SM FEW025 BKN090 19/12 A3010 RMK CU2AC4 SLP194
2001 07 14 21 METAR CYVR 142100Z 22006KT 20SM FEW025 SCT060 BKN084 19/12 A3009 RMK CU2SC2AC3 SLP189
2001 07 14 22 METAR CYVR 142200Z 24008KT 20SM FEW035 SCT060 BKN085 19/14 A3007 RMK CU2SC2AC2 SLP181
2001 07 14 23 METAR CYVR 142300Z 23009KT 20SM FEW035 SCT060 BKN140 20/14 A3005 RMK CU2SC2AC2 MDT CU SLP175
2001 07 15 00 METAR CYVR 150000Z 23009KT 20SM FEW035 SCT160 BKN270 20/13 A3003 RMK CU1AC2CI1 MDT CU1 SLP168
2001 07 15 01 METAR CYVR 150100Z 25007KT 20SM FEW035 FEW066 BKN160 19/13 A3001 RMK CU1AC1AC4 MDT CU SLP162
2001 07 15 02 METAR CYVR 150200Z 24006KT 20SM FEW040 FEW072 BKN160 18/13 A2999 RMK CU1AC2AC4 TCU DSNT NW SLP156
2001 07 15 03 METAR CYVR 150300Z 23005KT 20SM FEW040 SCT068 BKN140 18/13 A2998 RMK CU1AC3AC3 SLP152
2001 07 15 04 METAR CYVR 150400Z 24003KT 20SM FEW040 SCT075 BKN140 BKN270 18/13 A2997 RMK SC1AC3AC3CI0 SLP149
2001 07 15 05 METAR CYVR 150500Z 26002KT 20SM FEW040 SCT080 BKN140 17/12 A2996 RMK SC1AC4AC2 SLP145
2001 07 15 06 METAR CYVR 150600Z 18002KT 20SM FEW030 SCT053 BKN080 18/12 A2995 RMK SC1SC2AC3 SLP143
2001 07 15 07 METAR CYVR 150700Z 14007KT 20SM BKN020 BKN048 16/12 A2995 RMK SC5SC2 SLP140
2001 07 15 08 METAR CYVR 150800Z 14008KT 20SM SCT020 BKN049 15/11 A2994 RMK SC3SC4 SLP138
2001 07 15 09 METAR CYVR 150900Z 14006KT 20SM FEW020 BKN051 15/12 A2992 RMK SC2SC4 SLP132
2001 07 15 10 METAR CYVR 151000Z 13008KT 10SM -SHRA SCT008 OVC021 14/12 A2990 RMK SF3SC5 SLP126
2001 07 15 11 METAR CYVR 151100Z 12009KT 20SM -SHRA BKN008 BKN015 OVC023 13/12 A2989 RMK SF4SF2SC2 SHWRS VRY LGT SLP121
2001 07 15 12 METAR CYVR 151200Z 11009KT 20SM SCT008 BKN012 BKN020 13/12 A2988 RMK SF4SF2SC2 SLP118
2001 07 15 13 METAR CYVR 151300Z 10012KT 15SM SCT005 BKN010 BKN016 OVC022 13/12 A2987 RMK SF3SF2SF2SC1 SLP115
2001 07 15 14 METAR CYVR 151400Z 09011G16KT 4SM -DZ BR BKN005 BKN008 OVC012 13/11 A2987 RMK SF5SF2SC2 SLP113
2001 07 15 15 METAR CYVR 151500Z 09009KT 4SM -DZ BR SCT004 BKN007 OVC012 12/11 A2986 RMK SF3SF3SC2 CIG RGD SLP111
2001 07 15 16 METAR CYVR 151600Z 09010G16KT 6SM -SHRA SCT006 BKN009 OVC024 12/11 A2985 RMK SF3SF2SC2 CIG VRBL 6-11 SLP109
2001 07 15 17 METAR CYVR 151700Z 09012KT 6SM -SHRA SCT007 BKN012 BKN018 OVC025 12/11 A2986 RMK SF3SF2SF2SC1 CIG VRBL 9-15 SLP110
2001 07 15 18 METAR CYVR 151800Z 08010KT 8SM -SHRA SCT006 BKN010 OVC015 13/12 A2986 RMK SF3SF3SC2 SLP110
2001 07 15 19 METAR CYVR 151900Z CCA 09008KT 8SM -SHRA SCT006 BKN010 OVC020 14/12 A2986 RMK SF3SF3SC2 TCU EMBDD CIG LWR E SLP112
2001 07 15 20 METAR CYVR 152000Z 07004KT 10SM FEW006 SCT012 BKN020 OVC032 14/13 A2987 RMK SF2SF2SC3SC1 TCU EMBDD SLP113
2001 07 15 21 METAR CYVR 152100Z 14003KT 10SM BKN008 BKN016 OVC024 15/13 A2987 RMK SF6SF2SC1 TCU EMBDD SHWRS E SLP114
2001 07 15 22 METAR CYVR 152200Z 19008KT 5SM -SHRA BR SCT009 BKN014 OVC039 14/13 A2987 RMK SF4SF2SC2 SLP114
2001 07 15 23 METAR CYVR 152300Z 16009KT 4SM SHRA BR FEW004 BKN011 BKN023 OVC037TCU 14/13 A2987 RMK SF2SF3SC2TCU1 VSBLY 10 SW-NW SLP116
2001 07 16 00 METAR CYVR 160000Z 14007KT 8SM -SHRA FEW007 BKN011 BKN018 OVC035TCU 14/13 A2987 RMK SF2SF3SC2TCU2 SLP114
2001 07 16 01 METAR CYVR 160100Z 13006KT 12SM -SHRA FEW011 BKN035TCU OVC076 14/13 A2986 RMK SF2TCU3AC2 VSBLY 30 NW SLP111
2001 07 16 02 METAR CYVR 160200Z 13005KT 15SM FEW017 SCT031TCU BKN075 OVC250 14/13 A2986 RMK SF2TCU2AC3CI0 SLP111
2001 07 16 03 METAR CYVR 160300Z 14006KT 15SM FEW013 SCT032TCU BKN069 OVC250 14/13 A2986 RMK CF2TCU2AC2CI1 SLP112
2001 07 16 04 METAR CYVR 160400Z 11004KT 15SM FEW015 SCT024TCU BKN072 OVC250 14/12 A2986 RMK CF2TCU2AC2CI1 SLP112
2001 07 16 05 METAR CYVR 160500Z 10005KT 15SM FEW025 SCT035 BKN040 OVC140 13/12 A2987 RMK CF1SC2SC2AC2 SLP113
2001 07 16 06 METAR CYVR 160600Z 09005KT 15SM SCT024 OVC043 13/12 A2986 RMK SC3SC5 SLP112
2001 07 16 07 METAR CYVR 160700Z 10005KT 20SM FEW021 BKN043 BKN080 13/11 A2986 RMK SF2SC3AC2 SLP112
2001 07 16 08 METAR CYVR 160800Z 10004KT 20SM FEW021 BKN082 13/11 A2986 RMK SF2AC5 SLP111
2001 07 16 09 METAR CYVR 160900Z 10004KT 20SM FEW025 BKN039 OVC080 13/11 A2985 RMK SF2SC3AC2 SLP109
2001 07 16 11 METAR CYVR 161100Z 11003KT 20SM FEW025 OVC051 13/12 A2985 RMK SF2SC6 SLP108
2001 07 16 12 METAR CYVR 161200Z 10005KT 15SM FEW025 OVC059 13/11 A2985 RMK SF2SC6 SLP107
2001 07 16 13 METAR CYVR 161300Z 11005KT 15SM FEW015 BKN025 OVC059 13/11 A2986 RMK CF1SC4SC3 SLP110
2001 07 16 14 METAR CYVR 161400Z 10004KT 8SM -SHRA SCT015 BKN024 OVC060 13/12 A2987 RMK SF4SF2SC2 TCU EMBDD SLP113
2001 07 16 15 METAR CYVR 161500Z 11005KT 10SM -SHRA SCT012 BKN019 BKN032 OVC062 13/12 A2987 RMK SF3SF2SF2SC1 TCU EMBDD SLP115
2001 07 16 16 METAR CYVR 161600Z 11006KT 10SM FEW007 BKN018 BKN034 OVC062 14/12 A2988 RMK SF2SF2SC2SC1 CIG RGD SLP118
2001 07 16 17 METAR CYVR 161700Z 18003KT 10SM FEW007 BKN018 BKN035 OVC065 15/13 A2988 RMK SF2SF2SC2SC1 CIG RGD SLP118
2001 07 16 18 METAR CYVR 161800Z 26003KT 10SM FEW008 SCT014 BKN024 OVC047 16/12 A2988 RMK SF2SF2CU2SC2 TCU EMBDD SLP118
2001 07 16 19 METAR CYVR 161900Z 22005KT 15SM FEW009 BKN020 BKN050TCU BKN078 17/12 A2988 RMK CF2CU3TCU2AC1 SHWRS NE-SE SLP119
2001 07 16 20 METAR CYVR 162000Z 24007KT 15SM FEW010 SCT020 BKN050TCU BKN065 BKN084 17/12 A2989 RMK CF2CU2TCU2SC1AC1 SLP121
2001 07 16 21 METAR CYVR 162100Z 20010G18KT 20SM FEW012 SCT024 BKN051TCU BKN065 BKN082 17/12 A2989 RMK CF2CU2TCU2SC1AC1 SLP123
2001 07 16 22 METAR CYVR 162200Z 21009G16KT 20SM FEW018 SCT025TCU BKN072 BKN090 18/11 A2990 RMK CF1TCU3AC2AC2 SHWRS DSNT N-E VSBY 10 SLP124
2001 07 16 23 METAR CYVR 162300Z 17004KT 20SM FEW018 SCT025TCU BKN075 18/11 A2990 RMK CF1TCU3AC2 SHWRS DSNT N-NE VSBY 10 SLP124
2001 07 17 00 METAR CYVR 170000Z 19007KT 20SM FEW018 SCT025TCU BKN075 18/12 A2990 RMK CF1TCU2AC2 SHWRS DSNT N-NE CIG AND VIS LWR SLP124
2001 07 17 01 METAR CYVR 170100Z 22008KT 20SM FEW020 FEW025TCU BKN088 17/11 A2990 RMK CF1TCU2AC3 SHWRS DSNT N-NE CIG AND VIS LWR SLP124
2001 07 17 02 METAR CYVR 170200Z 20005KT 20SM FEW035 SCT060 BKN092 17/11 A2990 RMK CU2SC2AC2 TCU ASOCTD E SHWRS N-NE SLP124
2001 07 17 03 METAR CYVR 170300Z 22003KT 20SM FEW035 SCT060 BKN089 17/11 A2990 RMK CU2SC2AC2 SHWRS N-NE VIRGA SW SLP125
2001 07 17 04 METAR CYVR 170400Z 00000KT 20SM FEW040 SCT060 BKN071 17/11 A2991 RMK SC2SC2AC2 SLP128
2001 07 17 04 METAR CYVR 170400Z 00000KT 20SM FEW040 SCT060 BKN071 17/11 A2991 RMK SC2SC2AC2 SLP128
2001 07 17 06 METAR CYVR 170600Z 08007KT 20SM FEW038 SCT065 BKN089 16/12 A2992 RMK SC2SC2AC3 SLP131
2001 07 17 07 METAR CYVR 170700Z 14007KT 20SM FEW030 FEW060 BKN088 16/11 A2992 RMK SC1SC2AC5 SLP130
2001 07 17 08 METAR CYVR 170800Z 11007KT 15SM FEW035 SCT065 OVC088 15/11 A2992 RMK SC1SC2AC5 SLP132
2001 07 17 09 METAR CYVR 170900Z 11008KT 15SM FEW040 OVC088 14/10 A2993 RMK SC2AC6 SLP134
2001 07 17 10 METAR CYVR 171000Z 10008KT 15SM FEW030 OVC086 13/10 A2993 RMK SC2AC6 SLP134
2001 07 17 11 METAR CYVR 171100Z 09009KT 15SM FEW030 BKN086 13/10 A2993 RMK SC1AC6 SLP135
2001 07 17 12 METAR CYVR 171200Z 08006KT 20SM FEW025 BKN087 13/10 A2994 RMK SC1AC6 SLP138
2001 07 17 13 METAR CYVR 171300Z 10011KT 20SM FEW014 FEW039 FEW051 SCT086 BKN120 BKN210 13/10 A2995 RMK SF1SC1SC2AC2AC1CI1 CU ASOCTD TR SF SLP140
2001 07 17 14 METAR CYVR 171400Z 10009KT 20SM FEW014 FEW039 SCT053 BKN096 BKN120 BKN210 13/10 A2995 RMK SF1SC1SC2AC2AC1CI0 CU ASOCTD TR SF SLP142
2001 07 17 15 METAR CYVR 171500Z 10010KT 20SM FEW014 FEW039 SCT053 BKN094 BKN120 BKN210 14/11 A2997 RMK CF1SC1SC2AC2AC1CI0 CU ASOCTD TR CF SLP147
2001 07 17 16 METAR CYVR 171600Z 11010KT 20SM FEW016 SCT040 SCT053 BKN094 BKN120 BKN210 15/11 A2998 RMK CF1CU3SC1AC2AC1CI0 TR CF SLP151
2001 07 17 17 METAR CYVR 171700Z 13009KT 20SM FEW023 BKN042 BKN094 BKN120 BKN230 16/11 A2999 RMK CF2CU2AC1AC1CI1 TR AC SLP155
2001 07 17 18 METAR CYVR 171800Z 10011KT 20SM FEW023 BKN032 BKN095 BKN120 16/11 A3000 RMK CF1CU4AC1AC1 SLP158
2001 07 17 19 METAR CYVR 171900Z 12011KT 20SM FEW023 BKN034 BKN093 BKN120 OVC230 18/12 A3001 RMK CF2CU3AC2AC1CI0 SLP161
2001 07 17 20 METAR CYVR 172000Z 12009KT 30SM FEW027 SCT035 BKN094 BKN120 OVC230 17/11 A3002 RMK CF1CU3AC2AC2CI0 SLP164
2001 07 17 21 METAR CYVR 172100Z 17009KT 30SM FEW030 SCT050 BKN100 BKN140 18/11 A3002 RMK CU2SC2AC2AC1 SLP164
2001 07 17 22 METAR CYVR 172200Z 17012G17KT 30SM FEW030 SCT050 BKN100 20/12 A3001 RMK CU2SC2AC2 MDT CU SLP163
2001 07 17 23 METAR CYVR 172300Z 18012KT 30SM FEW030 SCT060 BKN100 19/11 A3002 RMK CU2SC1AC3 TCU ASOCTD SLP164
2001 07 18 00 METAR CYVR 180000Z 18009KT 30SM FEW035TCU FEW060 SCT090 BKN270 21/11 A3002 RMK TCU2SC1AC2CI1 SLP164
2001 07 18 01 METAR CYVR 180100Z 16010KT 30SM FEW040TCU FEW090 SCT110 BKN270 19/10 A3001 RMK TCU2AC1AC2CI2 CC ASOCTD SLP163
2001 07 18 02 METAR CYVR 180200Z 15008KT 30SM FEW040TCU FEW090 SCT110 BKN150 BKN270 18/10 A3002 RMK TCU2AC1AC1AC2CI2 SLP165
2001 07 18 03 METAR CYVR 180300Z 15009KT 30SM FEW040 FEW080 SCT110 BKN150 17/10 A3002 RMK CU1AC2AC2AC3 SLP165
2001 07 18 04 METAR CYVR 180400Z 13008KT 30SM FEW040 FEW064 BKN110 BKN150 17/10 A3003 RMK CU1SC2AC3AC2 ACC ASOCTD SLP168
2001 07 18 05 METAR CYVR 180500Z 09007KT 30SM FEW040 SCT075 BKN110 16/10 A3003 RMK SC1AC3AC3 SLP170
2001 07 18 06 METAR CYVR 180600Z 10009KT 30SM FEW040 BKN073 BKN110 15/11 A3003 RMK SC1AC4AC2 SLP170
2001 07 18 07 METAR CYVR 180700Z 10007KT 20SM FEW050 BKN086 15/11 A3004 RMK SC1AC6 SLP171
2001 07 18 08 METAR CYVR 180800Z 13009KT 20SM BKN090 15/11 A3003 RMK AC7 SLP168
2001 07 18 09 METAR CYVR 180900Z 10008KT 20SM OVC082 14/11 A3003 RMK AC8 SLP169
2001 07 18 10 METAR CYVR 181000Z 10008KT 20SM OVC087 14/11 A3003 RMK AC8 SLP170
2001 07 18 11 METAR CYVR 181100Z 11009KT 20SM OVC085 14/11 A3003 RMK AC8 SLP168
2001 07 18 12 METAR CYVR 181200Z 09010KT 20SM FEW020 BKN083 14/11 A3003 RMK SC1AC6 SLP169
2001 07 18 13 METAR CYVR 181300Z 09008KT 20SM FEW027 SCT045 BKN081 BKN250 14/11 A3004 RMK SF2SC2AC3CI1 SLP172
2001 07 18 14 METAR CYVR 181400Z 10009KT 20SM FEW027 SCT045 BKN081 BKN250 14/11 A3004 RMK SF2SC2AC3CI1 SLP173
2001 07 18 15 METAR CYVR 181500Z 10012KT 20SM FEW027 FEW045 BKN062 BKN083 OVC250 14/11 A3005 RMK SF1SC2SC2AC2CI1 SLP177
2001 07 18 16 METAR CYVR 181600Z 13009KT 20SM FEW027 SCT043 BKN060 BKN083 OVC250 14/10 A3007 RMK CF1SC2SC2AC2CI1 BINOVC S SLP181
2001 07 18 17 METAR CYVR 181700Z 12010KT 20SM FEW027 SCT045 BKN061 OVC090 15/10 A3006 RMK CF2SC2SC3AC2 SLP180
2001 07 18 18 METAR CYVR 181800Z 11009KT 20SM FEW030 FEW043 FEW056 BKN090 OVC250 16/11 A3007 RMK CF1CU2SC2AC2CI2 SHRA N TR CF SLP182
2001 07 18 19 METAR CYVR 181900Z 11008KT 30SM FEW028 FEW043 SCT056 BKN090 OVC250 17/11 A3008 RMK CF1CU2SC2AC2CI2 SHRA N TR CF SLP184
2001 07 18 20 METAR CYVR 182000Z 11007KT 30SM FEW041 SCT060 BKN096 OVC250 18/11 A3008 RMK SC2SC2AC2CI2 SHRA N-E CU EMBDD SLP184
2001 07 18 21 METAR CYVR 182100Z 13007KT 20SM FEW028 FEW040 BKN100 OVC250 18/11 A3007 RMK CF1CU2AC2CI2 SHRA N-E DSNT SLP182
2001 07 18 22 METAR CYVR 182200Z 13006KT 25SM FEW025 SCT045 OVC110 19/11 A3007 RMK SC2SC2AC5 SLP182
2001 07 18 23 METAR CYVR 182300Z 13007KT 25SM FEW025 SCT045 OVC095 19/11 A3006 RMK SC2SC2AC4 SLP180
2001 07 19 00 METAR CYVR 190000Z 14007KT 25SM FEW025 SCT050 OVC095 19/10 A3006 RMK SC2SC2AC4 SLP179
2001 07 19 01 METAR CYVR 190100Z 15006KT 20SM -SHRA FEW025 BKN060 OVC095 19/10 A3006 RMK SC2SC3AC2 SLP179
2001 07 19 02 METAR CYVR 190200Z 17005KT 20SM FEW025 BKN055 OVC095 18/11 A3006 RMK SC2SC3AC3 SLP179
2001 07 19 03 METAR CYVR 190300Z 13006KT 20SM FEW030 BKN060 BKN090 17/11 A3005 RMK SC1SC4AC2 SLP177
2001 07 19 04 METAR CYVR 190400Z 11007KT 20SM FEW045 SCT060 BKN100 17/11 A3005 RMK SC2SC2AC2 SLP174
2001 07 19 05 METAR CYVR 190500Z 09007KT 20SM FEW045 SCT060 BKN110 17/11 A3005 RMK SC2SC2AC2 SLP175
2001 07 19 06 METAR CYVR 190600Z 05005KT 20SM FEW040 SCT065 BKN095 16/12 A3005 RMK SC2SC2AC2 SLP174
2001 07 19 07 METAR CYVR 190700Z 09005KT 20SM FEW042 SCT061 BKN095 16/12 A3004 RMK SF2SC2AC2 SLP173
2001 07 19 08 METAR CYVR 190800Z 05003KT 15SM FEW045 SCT065 BKN092 16/12 A3004 RMK SF2SC2AC3 SLP172
2001 07 19 09 METAR CYVR 190900Z 34005KT 15SM OVC042 16/12 A3004 RMK SC8 SLP171
2001 07 19 10 METAR CYVR 191000Z 34006KT 15SM BKN041 OVC052 15/12 A3003 RMK SC6SC2 SLP169
2001 07 19 11 METAR CYVR 191100Z 36003KT 15SM SCT032 BKN040 OVC051 15/13 A3003 RMK SF3SC3SC2 SLP169
2001 07 19 12 METAR CYVR 191200Z 15002KT 20SM FEW023 BKN030 BKN045 15/13 A3002 RMK SF2SC3SC2 SLP166
2001 07 19 13 METAR CYVR 191300Z 18002KT 20SM SCT024 BKN034 BKN045 16/13 A3002 RMK SC3SC3SC1 SHWRS W SLP166
2001 07 19 14 METAR CYVR 191400Z 15004KT 20SM SCT026 BKN034 BKN045 15/13 A3002 RMK SC4SC2SC1 VSBY LWR + SHWRS W SLP164
2001 07 19 15 METAR CYVR 191500Z CCA 23002KT 15SM -SHRA BKN025 BKN034 OVC045 15/13 A3002 RMK SC5SC2SC1 VSBY LWR SW-NW SLP166
2001 07 19 16 METAR CYVR 191600Z 17002KT 3SM -SHRA BR FEW011 OVC018 15/13 A3003 RMK SF2SC6 SLP168
2001 07 19 17 METAR CYVR 191700Z 17002KT 4SM -SHRA BR FEW003 FEW011 BKN018 OVC037 15/14 A3003 RMK SF2SF1SC3SC2 VSBY LWR SW-W SLP169
2001 07 19 18 METAR CYVR 191800Z 19005KT 6SM -SHRA BR FEW006 FEW011 SCT018 OVC042 15/13 A3003 RMK SF2SF1SC2SC4 SLP169
2001 07 19 19 METAR CYVR 191900Z 20004KT 10SM FEW012 FEW018 BKN042 OVC076 16/14 A3003 RMK CF2SC1SC4AC2 VSBY HIER W LWR N-E SLP169
2001 07 19 20 METAR CYVR 192000Z 22004KT 15SM SCT018 BKN042 OVC085 17/14 A3002 RMK CU3SC3AC2 OCNL BINOVC SLP167
2001 07 19 21 METAR CYVR 192100Z 25006KT 15SM FEW022 BKN042 BKN094 18/14 A3002 RMK CU2SC2AC2 TCU E SLP165
2001 07 19 22 METAR CYVR 192200Z 30006KT 30SM FEW025 SCT055 BKN098 18/13 A3001 RMK CU2SC1AC3 TCU ASOCTD. SLP163
2001 07 19 23 METAR CYVR 192300Z 29006KT 30SM FEW025TCU FEW055 BKN100 18/13 A3000 RMK TCU1SC1AC3 SLP160
2001 07 20 00 METAR CYVR 200000Z 29007KT 30SM FEW025TCU FEW055 SCT100 SCT250 19/14 A3000 RMK TCU1SC1AC2CI0 SLP157
2001 07 20 01 METAR CYVR 200100Z 27006KT 30SM FEW025 FEW055 FEW100 SCT250 19/14 A2998 RMK CU1SC1AC1CI1 SLP153
2001 07 20 02 METAR CYVR 200200Z 29006KT 30SM FEW025 FEW055 FEW100 FEW250 18/15 A2997 RMK CU1SC1AC1CI1 SLP149
2001 07 20 03 METAR CYVR 200300Z 30005KT 30SM FEW025 FEW100 FEW250 18/15 A2997 RMK CU1AC1CI1 SLP147
2001 07 20 04 METAR CYVR 200400Z 31007KT 30SM FEW100 FEW250 16/13 A2996 RMK AC1CI1 SLP145
2001 07 20 05 METAR CYVR 200500Z 31006KT 30SM FEW100 FEW250 15/13 A2996 RMK AC1CI1 SLP145
2001 07 20 06 METAR CYVR 200600Z 32007KT 30SM FEW100 FEW250 15/13 A2996 RMK AC1CI1 TR CLDS. SLP144
2001 07 20 07 METAR CYVR 200700Z 02003KT 30SM SKC 16/14 A2995 RMK SLP143
2001 07 20 08 METAR CYVR 200800Z 00000KT 30SM SKC 16/14 A2995 RMK SLP142
2001 07 20 09 METAR CYVR 200900Z 35003KT 30SM SKC 14/12 A2995 RMK SLP141
2001 07 20 10 METAR CYVR 201000Z 10002KT 30SM SKC 14/12 A2996 RMK SLP144
2001 07 20 11 METAR CYVR 201100Z 02004KT 30SM FEW250 13/11 A2996 RMK CI1 SLP144
2001 07 20 12 METAR CYVR 201200Z 09003KT 30SM FEW100 FEW250 13/11 A2995 RMK AC1CI0 SLP143
2001 07 20 13 METAR CYVR 201300Z CCA 00000KT 30SM MIFG FEW020 FEW100 FEW250 14/12 A2996 RMK ST1AC1CI0 LO ST CIG W OVR GEORGIA STRT SLP144
2001 07 20 14 METAR CYVR 201400Z 17002KT 30SM FEW020 FEW100 FEW240 16/13 A2997 RMK ST1AC1CI0 ST OVR WTR SW-NW HZ SLP147
2001 07 20 15 METAR CYVR 201500Z 13002KT 30SM FEW020 FEW100 FEW240 17/14 A2997 RMK ST1AC1CI1 TR AC. SLP148
2001 07 20 16 METAR CYVR 201600Z 23003KT 30SM FEW020 FEW100 FEW240 18/14 A2997 RMK ST1AC1CI1 FEW CU TR AC SLP149
2001 07 20 17 METAR CYVR 201700Z 30007KT 30SM FEW020 FEW030 SCT240 18/14 A2996 RMK ST1CU1CI1 ST OVR WTR SW-NW SLP146
2001 07 20 18 METAR CYVR 201800Z 24008KT 30SM FEW035 SCT240 19/15 A2996 RMK CU2CI1 SLP145
2001 07 20 19 METAR CYVR 201900Z 28007KT 30SM FEW012 FEW040 SCT250 20/15 A2996 RMK SF1CU2CI1 TR SF SLP144
2001 07 20 20 METAR CYVR 202000Z 29007KT 30SM FEW040 SCT240 20/15 A2995 RMK CU2CI1 SLP142
2001 07 20 21 METAR CYVR 202100Z 27008KT 30SM FEW040 FEW120 SCT240 21/15 A2994 RMK CU2AC1CI1 COTRA TR AC SLP139
2001 07 20 22 METAR CYVR 202200Z 26009KT 30SM FEW040 FEW150 SCT250 21/15 A2994 RMK CU1AC1CI2 SLP137
2001 07 20 23 METAR CYVR 202300Z 25009KT 30SM FEW050 FEW160 SCT250 21/16 A2993 RMK CU1AC1CI2 MDT CU SLP135
2001 07 21 00 METAR CYVR 210000Z 23008KT 30SM FEW050 FEW160 SCT250 21/15 A2992 RMK CU1AC1CI2 MDT CU SLP132
2001 07 21 01 METAR CYVR 210100Z 23007KT 30SM FEW050 FEW140 FEW210 SCT250 21/15 A2991 RMK CU1AC1CI2CI1 SLP129
2001 07 21 02 METAR CYVR 210200Z 20007KT 30SM FEW045 FEW140 FEW210 BKN250 21/15 A2991 RMK CU1AC1CI1CI1 SLP128
2001 07 21 03 METAR CYVR 210300Z 19008KT 30SM FEW045 FEW120 SCT210 BKN250 21/14 A2991 RMK SC1AC2CI2CI1 SLP128
2001 07 21 04 METAR CYVR 210400Z 14006KT 30SM FEW080 FEW120 SCT200 BKN250 20/13 A2992 RMK AC1AC2CI1CI0 SLP131
2001 07 21 05 METAR CYVR 210500Z 10009KT 30SM FEW070 FEW120 SCT170 BKN250 17/13 A2993 RMK AC1AC2AC2CI0 SLP136
2001 07 21 06 METAR CYVR 210600Z 12009KT 30SM FEW070 FEW120 BKN180 17/12 A2994 RMK AC1AC2AC2 SLP138
2001 07 21 07 METAR CYVR 210700Z 12007KT 30SM FEW075 SCT120 BKN170 18/12 A2995 RMK AC2AC2AC3 SLP140
2001 07 21 08 METAR CYVR 210800Z 12010KT 20SM FEW075 SCT120 BKN180 17/12 A2994 RMK AC2AC2AC3 SLP139
2001 07 21 09 METAR CYVR 210900Z 10006KT 20SM FEW075 SCT120 BKN180 16/12 A2994 RMK AC2AC2AC3 SLP139
2001 07 21 10 METAR CYVR 211000Z 14006KT 20SM FEW075 FEW120 BKN190 15/12 A2995 RMK AC2AC1AC2 SLP141
2001 07 21 11 METAR CYVR 211100Z 13006KT 20SM FEW078 SCT150 BKN200 15/11 A2995 RMK AC2AC2CI2 SLP143
2001 07 21 12 METAR CYVR 211200Z 11008KT 20SM FEW060 SCT078 BKN160 BKN200 14/11 A2996 RMK SC2AC2AC2CI2 CC ASOCTD SLP146
2001 07 21 13 METAR CYVR 211300Z 13011KT 20SM FEW080 FEW150 BKN200 14/11 A2997 RMK AC1AC3CI1 SLP149
2001 07 21 14 METAR CYVR 211400Z 12011KT 30SM FEW080 BKN150 BKN230 14/12 A2999 RMK AC1AC4CI2 SLP156
2001 07 21 15 METAR CYVR 211500Z 11012KT 30SM FEW015 SCT080 BKN150 BKN230 14/11 A3000 RMK SC2AC2AC2CI1 SLP159
2001 07 21 16 METAR CYVR 211600Z 11010KT 30SM BKN012 BKN070 BKN230 15/12 A3002 RMK ST5SC2CI1 SLP164
2001 07 21 17 METAR CYVR 211700Z 14013KT 30SM FEW012 BKN070 BKN140 BKN230 16/12 A3002 RMK ST2AC3AC2CI1 SLP166
2001 07 21 18 METAR CYVR 211800Z 12012KT 30SM FEW012 BKN070 BKN140 BKN230 16/12 A3003 RMK ST2AC4AC1CI1 SLP169
2001 07 21 19 METAR CYVR 211900Z 13010KT 30SM FEW012 BKN070 BKN140 BKN230 16/12 A3004 RMK SF2AC4AC1CI1 SLP171
2001 07 21 20 METAR CYVR 212000Z 15010KT 30SM FEW012 FEW055 BKN070 BKN140 BKN230 17/12 A3005 RMK SF1SC2AC3AC1CI1 SLP174
2001 07 21 21 METAR CYVR 212100Z 15010KT 30SM FEW012 BKN058 BKN140 OVC230 18/13 A3005 RMK SF1SC6AC1CI1 SLP176
2001 07 21 22 METAR CYVR 212200Z 13014KT 30SM FEW012 BKN059 BKN140 BKN230 17/12 A3005 RMK SF1SC5AC1CI1 SHWRS DSNT N SLP175
2001 07 21 23 METAR CYVR 212300Z 14012KT 30SM FEW012 FEW064 BKN120 BKN230 18/13 A3005 RMK SF1SC2AC4CI1 SLP175
2001 07 22 00 METAR CYVR 220000Z 15013KT 30SM FEW012 FEW050 SCT070 BKN120 BKN230 18/13 A3005 RMK SF1SC1AC2AC3CI1 TR SF SLP176
2001 07 22 01 METAR CYVR 220100Z 11012KT 30SM SCT052 BKN070 BKN120 BKN230 18/13 A3005 RMK SC3AC2AC2CI1 TR CI SLP176
2001 07 22 02 METAR CYVR 220200Z 13013KT 30SM BKN051 BKN070 BKN120 17/13 A3005 RMK SC5AC1AC2 SLP175
2001 07 22 03 METAR CYVR 220300Z 12013KT 30SM FEW050 BKN063 BKN120 17/13 A3005 RMK SC2SC5AC1 SLP177
2001 07 22 04 METAR CYVR 220400Z 11012KT 30SM FEW050 BKN064 BKN120 BKN230 17/12 A3007 RMK SC1SC5AC1CI1 SHWRS DSNT N SLP181
2001 07 22 05 METAR CYVR 220500Z 12010KT 30SM FEW050 BKN063 BKN120 BKN230 16/12 A3008 RMK SC2SC4AC1CI1 SLP185
2001 07 22 06 METAR CYVR 220600Z 10008KT 30SM SCT045 BKN062 BKN120 16/12 A3008 RMK SC3SC3AC1 SLP184
2001 07 22 07 METAR CYVR 220700Z 10008KT 20SM FEW046 SCT062 BKN120 OVC250 16/12 A3008 RMK SC2SC2AC2CI2 BINOVC SLP185
2001 07 22 08 METAR CYVR 220800Z 11008KT 20SM BKN046 BKN065 BKN120 OVC250 16/12 A3008 RMK SC5SC2AC1CI1 CIG+VSBY LWR N SLP185
2001 07 22 09 METAR CYVR 220900Z 11008KT 20SM SCT047 BKN065 BKN120 OVC250 16/13 A3007 RMK SC4SC2AC2CI1 SLP183
2001 07 22 10 METAR CYVR 221000Z 13008KT 20SM SCT047 BKN065 BKN120 OVC250 16/13 A3008 RMK SC4SC2AC2CI1 SLP185
2001 07 22 11 METAR CYVR 221100Z 11006KT 20SM SCT044 BKN053 BKN120 OVC250 16/13 A3008 RMK SC3SC2AC2CI1 SLP185
2001 07 22 12 METAR CYVR 221200Z 13008KT 20SM SCT047 BKN062 BKN120 OVC250 16/13 A3009 RMK SC3SC2AC2CI1 CIG+VSBY LWR N SLP188
2001 07 22 13 METAR CYVR 221300Z 11006KT 20SM BKN046 BKN060 15/13 A3009 RMK SC6SC2 VSBY LWR NE-E. HIR SW-W. SLP190
2001 07 22 14 METAR CYVR 221400Z 10007KT 20SM FEW015 BKN041 16/13 A3009 RMK ST1SC6 VSBY LWR NE-E. HIR SW-W. SLP190
2001 07 22 15 METAR CYVR 221500Z 14007KT 20SM FEW020 BKN041 BKN060 OVC200 16/13 A3011 RMK SC2SC5SC1CI1 VSBY LWR NE-E. HIR SW-W. SLP196
2001 07 22 16 METAR CYVR 221600Z 14005KT 20SM FEW020 BKN042 BKN060 OVC200 16/12 A3012 RMK SC2SC4SC2CI1 VSBY LWR NE-E. HIR S-W. SLP199
2001 07 22 17 METAR CYVR 221700Z 12004KT 20SM FEW020 BKN039 BKN060 OVC200 16/13 A3013 RMK CF1SC5SC2CI1 VSBY LWR NE-E. HIR S-W. SLP201
2001 07 22 18 METAR CYVR 221800Z 12006KT 20SM FEW020 BKN038 OVC060 17/13 A3014 RMK CF1SC6SC2 VSBY LWR NE-E. HIR S-W. SLP205
2001 07 22 19 METAR CYVR 221900Z 16004KT 20SM FEW018 SCT038 BKN061 18/13 A3014 RMK CU2SC2SC4 VSBY LWR NE-E. HIR S-W. SLP206
2001 07 22 20 METAR CYVR 222000Z 15006KT 20SM FEW018 BKN062 BKN140 BKN200 18/13 A3014 RMK CU1SC6AC1CI1 TR AC.CI. SLP206
2001 07 22 21 METAR CYVR 222100Z 12005KT 20SM FEW018 BKN060 BKN200 20/14 A3013 RMK CU2SC4CI1 SLP203
2001 07 22 22 METAR CYVR 222200Z 04003KT 20SM FEW026 BKN060 BKN200 22/15 A3012 RMK CU2SC4CI2 HZ SLP198
2001 07 22 23 METAR CYVR 222300Z 26008KT 20SM FEW026 SCT060 BKN200 20/16 A3010 RMK CU2SC2CI1 HZ SLP194
2001 07 23 00 METAR CYVR 230000Z 25009KT 20SM FEW026 FEW060 SCT120 BKN200 20/15 A3010 RMK CU2SC1AC1CI0 HZ SLP193
2001 07 23 01 METAR CYVR 230100Z 25006KT 20SM FEW030 FEW060 FEW120 SCT200 19/14 A3010 RMK CU1SC1AC1CI0 HZ SLP192
2001 07 23 02 METAR CYVR 230200Z 26004KT 20SM FEW030 FEW060 SCT200 18/14 A3010 RMK SC1SC1CI0 SLP191
2001 07 23 03 METAR CYVR 230300Z 23003KT 20SM FEW030 FEW060 FEW200 18/14 A3010 RMK SC1SC1CI0 SLP192
2001 07 23 04 METAR CYVR 230400Z 00000KT 20SM FEW060 FEW120 FEW200 16/13 A3009 RMK SC1AC1CI1 SLP190
2001 07 23 05 METAR CYVR 230500Z 00000KT 20SM FEW060 FEW120 FEW200 17/13 A3011 RMK SC1AC2CI0 SLP196
2001 07 23 06 METAR CYVR 230600Z 10004KT 20SM FEW050 FEW120 16/13 A3011 RMK SC2AC1 SLP195
2001 07 23 07 METAR CYVR 230700Z 10006KT 20SM SCT051 SCT120 15/13 A3011 RMK SC3AC1 SLP196
2001 07 23 08 METAR CYVR 230800Z 09006KT 20SM FEW051 FEW120 15/13 A3010 RMK SC2AC1 SLP194
2001 07 23 09 METAR CYVR 230900Z 09004KT 20SM SCT051 15/13 A3011 RMK SC4 SLP196
2001 07 23 10 METAR CYVR 231000Z 09002KT 20SM BKN045 16/13 A3011 RMK SC6 SLP196
2001 07 23 11 METAR CYVR 231100Z 11003KT 20SM BKN045 16/14 A3011 RMK SC6 SLP195
2001 07 23 12 METAR CYVR 231200Z 10005KT 20SM OVC045 16/13 A3010 RMK SC8 SLP194
2001 07 23 13 METAR CYVR 231300Z 14005KT 20SM FEW035 BKN047 OVC120 16/13 A3012 RMK SC2SC5AC1 SLP198
2001 07 23 14 METAR CYVR 231400Z CCA 15003KT 20SM BKN036 BKN047 OVC120 15/13 A3012 RMK SC5SC2AC1 CIG LWR OVR GASTR SLP199
2001 07 23 15 METAR CYVR 231500Z 12004KT 20SM BKN038 BKN048 OVC120 16/12 A3013 RMK SC5SC2AC1 CIG LWR OVR GASTR SLP201
2001 07 23 16 METAR CYVR 231600Z 11008KT 20SM FEW037 BKN051 OVC120 17/13 A3011 RMK SC2SC5AC1 BINOVC SLP197
2001 07 23 17 METAR CYVR 231700Z 11006KT 20SM FEW037 BKN051 BKN120 19/14 A3011 RMK SC2SC5AC1 SLP196
2001 07 23 18 METAR CYVR 231800Z 14007KT 20SM FEW035 BKN050 BKN120 BKN220 19/14 A3010 RMK SC1SC4AC1CI0 SLP193
2001 07 23 19 METAR CYVR 231900Z 16005KT 20SM FEW035 FEW050 FEW120 SCT230 21/14 A3010 RMK SC1SC1AC1CI0 SLP194
2001 07 23 20 METAR CYVR 232000Z 16005KT 30SM FEW040 SCT140 BKN240 22/15 A3009 RMK CU1AC4CI1 TR CU SLP190
2001 07 23 21 METAR CYVR 232100Z 15005KT 30SM FEW040 SCT140 BKN240 23/15 A3007 RMK CU1AC4CI1 TR CU SLP183
2001 07 23 22 METAR CYVR 232200Z 21007KT 30SM FEW040 SCT120 BKN240 24/15 A3006 RMK CU1AC3CI2 SLP178
2001 07 23 23 METAR CYVR 232300Z 21010KT 25SM FEW040 BKN140 BKN220 24/16 A3005 RMK CU1AC4CI1 SLP175
2001 07 24 00 METAR CYVR 240000Z 21009KT 20SM FEW040 FEW090 BKN130 BKN220 23/15 A3004 RMK CU1AC1AC3CI0 SLP171
2001 07 24 01 METAR CYVR 240100Z 22006KT 20SM FEW040 FEW080 SCT130 BKN220 23/15 A3002 RMK CU1AC1AC2CI1 SLP165
2001 07 24 02 METAR CYVR 240200Z 20005KT 20SM FEW040 FEW080 BKN120 BKN220 23/14 A3001 RMK CU1AC2AC3CI1 SLP161
2001 07 24 03 METAR CYVR 240300Z 24003KT 30SM FEW040 SCT067 BKN120 23/14 A3000 RMK SC1AC3AC4 SLP158
2001 07 24 04 METAR CYVR 240400Z 30004KT 30SM FEW035 BKN070 BKN120 21/15 A3000 RMK SC1AC6AC2 SLP157
2001 07 24 05 METAR CYVR 240540Z 28008KT 20SM -SHRA FEW040 BKN065 OVC110 RMK SC1SC6AC2
2001 07 24 06 METAR CYVR 240630Z 30011KT 20SM FEW040 BKN062 OVC110 RMK SC1SC6AC2
2001 07 24 07 METAR CYVR 240700Z 29016KT 20SM FEW043 BKN063 18/16 A3001 RMK SC2SC5 SLP162
2001 07 24 08 METAR CYVR 240800Z 29017KT 20SM FEW018 BKN043 BKN086 OVC120 18/16 A3000 RMK SF1SC4AC2AC1 SLP160
2001 07 24 09 METAR CYVR 240900Z 29019G24KT 20SM FEW018 BKN043 OVC086 17/15 A3001 RMK SF1SC5AC2 SLP161
2001 07 24 10 METAR CYVR 241000Z 29020G25KT 20SM FEW018 SCT043 BKN086 OVC100 17/14 A3001 RMK SF1SC3AC2AC2 OCNL BINOVC SLP161
2001 07 24 11 METAR CYVR 241100Z 29020G25KT 20SM FEW018 SCT043 BKN076 17/14 A3000 RMK SF1SC2AC2 SLP160
2001 07 24 12 METAR CYVR 241200Z 29015G21KT 20SM FEW018 SCT043 SCT080 16/13 A3001 RMK SF1SC2AC1 SLP161
2001 07 24 13 METAR CYVR 241300Z 30015G21KT 20SM FEW018 SCT045 BKN080 16/13 A3001 RMK SF1SC3AC1 SLP161
2001 07 24 14 METAR CYVR 241400Z 29018G24KT 20SM FEW012 FEW040 SCT080 17/13 A3002 RMK SF1SC2AC1 SLP166
2001 07 24 15 METAR CYVR 241500Z 29019G25KT 20SM FEW012 FEW022 SCT045 17/13 A3003 RMK SF1SC2SC1 SLP168
2001 07 24 16 METAR CYVR 241600Z 29018G25KT 20SM FEW012 BKN026 BKN045 17/13 A3003 RMK SF1SC4SC2 SLP169
2001 07 24 17 METAR CYVR 241700Z 28017KT 20SM FEW012 BKN028 BKN050 17/13 A3005 RMK SF1SC6SC1 SLP175
2001 07 24 18 METAR CYVR 241800Z 29020G25KT 20SM FEW012 SCT029 19/13 A3006 RMK SF1SC2 SLP179
2001 07 24 19 METAR CYVR 241900Z 29018KT 20SM FEW015 FEW030 20/13 A3008 RMK SF1SC1 TR SF SLP184
2001 07 24 20 METAR CYVR 242000Z 30016G21KT 20SM FEW018 FEW035 20/13 A3008 RMK SF1SC1 TR SF SLP185
2001 07 24 21 METAR CYVR 242100Z 31012KT 30SM FEW035 21/12 A3007 RMK SC1 CU ASOCTD SLP183
2001 07 24 22 METAR CYVR 242200Z 31008KT 30SM FEW035 21/12 A3007 RMK SC1 SLP182
2001 07 24 23 METAR CYVR 242300Z 23009KT 30SM FEW035 21/12 A3007 RMK SC1 SLP182
2001 07 25 00 METAR CYVR 250000Z 26006KT 30SM FEW040 21/13 A3007 RMK SC1 TR SC SLP181
2001 07 25 01 METAR CYVR 250100Z 25006KT 30SM FEW040 21/12 A3005 RMK SC1 TR SC SLP177
2001 07 25 02 METAR CYVR 250200Z 24005KT 30SM FEW040 21/12 A3006 RMK SC1 TR SC SLP178
2001 07 25 03 METAR CYVR 250300Z 24006KT 30SM FEW045 20/12 A3006 RMK SC1 TR SC SLP179
2001 07 25 04 METAR CYVR 250400Z 28005KT 30SM FEW050 18/11 A3006 RMK SC1 TR SC SLP180
2001 07 25 05 METAR CYVR 250500Z 29006KT 30SM FEW050 17/12 A3007 RMK SC1 TR SC SLP183
2001 07 25 06 METAR CYVR 250600Z 32003KT 30SM SKC 17/12 A3008 RMK SLP184
2001 07 25 07 METAR CYVR 250700Z 29016KT 30SM SKC 17/13 A3008 RMK SLP185
2001 07 25 08 METAR CYVR 250800Z 29014KT 30SM SKC 17/13 A3008 RMK SLP185
2001 07 25 09 METAR CYVR 250900Z 31010KT 30SM SKC 15/12 A3009 RMK SLP188
2001 07 25 10 METAR CYVR 251000Z 32004KT 30SM SKC 16/13 A3009 RMK SLP188
2001 07 25 11 METAR CYVR 251100Z 31012KT 30SM SKC 15/12 A3009 RMK SLP189
2001 07 25 12 METAR CYVR 251200Z 30010KT 30SM SKC 14/11 A3009 RMK SLP189
2001 07 25 13 METAR CYVR 251300Z 31012KT 30SM FEW040 15/13 A3010 RMK SC1 TR SC SLP191
2001 07 25 14 METAR CYVR 251400Z 30014KT 30SM FEW100 16/13 A3010 RMK AC1 SLP192
2001 07 25 15 METAR CYVR 251500Z 30015KT 30SM FEW100 16/13 A3011 RMK AC1 TR AC SLP195
2001 07 25 16 METAR CYVR 251600Z 31013KT 30SM FEW050 17/13 A3011 RMK SC1 TR SC SLP195
2001 07 25 17 METAR CYVR 251700Z 30013G18KT 30SM FEW050 18/13 A3011 RMK CF1 TR CF SLP196
2001 07 25 18 METAR CYVR 251800Z 30014KT 30SM FEW050 18/13 A3010 RMK CF1 TR CF SLP194
2001 07 25 19 METAR CYVR 251900Z 30012KT 30SM FEW050 19/13 A3010 RMK SC1 TR SC SLP192
2001 07 25 20 METAR CYVR 252000Z 29012KT 30SM FEW050 20/13 A3009 RMK SC1 SLP190
2001 07 25 21 METAR CYVR 252100Z 29009KT 30SM FEW050 20/14 A3008 RMK SC1 SLP186
2001 07 25 22 METAR CYVR 252200Z 29009KT 30SM FEW050 FEW220 20/14 A3007 RMK SC1CI0 SLP182
2001 07 25 23 METAR CYVR 252300Z 27007KT 30SM FEW050 FEW220 20/13 A3006 RMK SC1CI1 SLP178
2001 07 26 00 METAR CYVR 260000Z 28007KT 30SM FEW050 FEW220 20/14 A3005 RMK SC1CI1 SLP174
2001 07 26 01 METAR CYVR 260100Z 29007KT 30SM FEW050 FEW220 21/14 A3003 RMK SC1CI1 SLP169
2001 07 26 02 METAR CYVR 260200Z 30004KT 30SM FEW050 FEW220 20/13 A3002 RMK SC1CI1 SLP166
2001 07 26 03 METAR CYVR 260300Z 22004KT 30SM FEW050 FEW220 19/13 A3001 RMK SC1CI1 SLP163
2001 07 26 04 METAR CYVR 260400Z 00000KT 30SM FEW050 FEW220 19/12 A3001 RMK SC1CI1 SLP163
2001 07 26 05 METAR CYVR 260500Z 00000KT 30SM FEW220 18/12 A3002 RMK CI1 SLP164
2001 07 26 06 METAR CYVR 260600Z 00000KT 30SM SKC 17/12 A3002 RMK SLP165
2001 07 26 07 METAR CYVR 260700Z 10005KT 30SM SKC 16/13 A3002 RMK SLP166
2001 07 26 08 METAR CYVR 260800Z 09004KT 30SM SKC 16/13 A3002 RMK SLP167
2001 07 26 09 METAR CYVR 260900Z 18003KT 30SM SKC 16/13 A3003 RMK SLP169
2001 07 26 10 METAR CYVR 261000Z 17004KT 30SM SKC 16/13 A3003 RMK SLP170
2001 07 26 11 METAR CYVR 261100Z 16006KT 30SM SKC 15/13 A3004 RMK SLP173
2001 07 26 12 METAR CYVR 261200Z 15003KT 30SM SKC 14/12 A3005 RMK SLP174
2001 07 26 13 METAR CYVR 261300Z 10008KT 30SM FEW090 12/11 A3006 RMK AC1 TR AC SLP178
2001 07 26 14 METAR CYVR 261400Z 09005KT 30SM FEW015 FEW090 14/12 A3007 RMK SC1AC1 TR CLD VSBY LWR NE-E SLP181
2001 07 26 15 METAR CYVR 261500Z 00000KT 30SM FEW015 FEW090 16/13 A3008 RMK SC1AC1 TR AC VSBY LWR NE-E SLP186
2001 07 26 16 METAR CYVR 261600Z 33004KT 30SM FEW015 FEW090 17/14 A3008 RMK SF2AC1 TR AC VSBY LWR E SLP187
2001 07 26 17 METAR CYVR 261700Z 30010KT 30SM SCT015 SCT090 18/14 A3009 RMK SF3AC1 TR AC VSBY LWR E SLP188
2001 07 26 18 METAR CYVR 261800Z 28008KT 30SM FEW020 FEW090 19/14 A3009 RMK SC2AC1 TR AC VSBY LWR E SLP188
2001 07 26 19 METAR CYVR 261900Z 27004KT 30SM FEW040 FEW220 18/14 A3009 RMK SC2CI1 TR CI SLP188
2001 07 26 19 METAR CYVR 261900Z 27004KT 30SM FEW040 FEW220 18/14 A3009 RMK SC2CI1 TR CI
2001 07 26 21 METAR CYVR 262100Z 24007KT 30SM FEW040 FEW220 19/14 A3008 RMK SC1CI0 SLP184
2001 07 26 22 METAR CYVR 262200Z 26006KT 30SM FEW040 FEW220 20/14 A3007 RMK CU1CI1 SLP183
2001 07 26 23 METAR CYVR 262300Z 25007KT 30SM FEW040 SCT220 20/15 A3005 RMK CU1CI1 SLP177
2001 07 27 00 METAR CYVR 270000Z 25006KT 30SM FEW040 SCT220 20/15 A3005 RMK CU1CI1 SLP175
2001 07 27 01 METAR CYVR 270100Z 25005KT 30SM FEW040 FEW220 21/15 A3004 RMK CU1CI1 SLP173
2001 07 27 02 METAR CYVR 270200Z 24004KT 30SM FEW040 FEW220 21/13 A3003 RMK CU1CI0 SLP169
2001 07 27 03 METAR CYVR 270300Z 28003KT 30SM FEW220 20/12 A3003 RMK CI0 SLP169
2001 07 27 04 METAR CYVR 270400Z 00000KT 30SM FEW100 FEW220 19/13 A3003 RMK AC1CI0 SLP168
2001 07 27 05 METAR CYVR 270500Z 17002KT 30SM FEW100 20/12 A3003 RMK AC1 SLP170
2001 07 27 06 METAR CYVR 270600Z 14004KT 30SM SKC 18/12 A3003 RMK SLP169
2001 07 27 07 METAR CYVR 270700Z 11005KT 30SM FEW080 16/14 A3004 RMK AC1 SLP171
2001 07 27 08 METAR CYVR 270800Z 11006KT 30SM FEW080 15/13 A3004 RMK AC1 SLP171
2001 07 27 09 METAR CYVR 270900Z 13007KT 30SM SKC 16/13 A3004 RMK SLP171
2001 07 27 10 METAR CYVR 271000Z 10008KT 30SM FEW070 14/12 A3004 RMK AC1 SLP173
2001 07 27 11 METAR CYVR 271100Z 10011KT 30SM FEW070 13/12 A3005 RMK AC1 SLP174
2001 07 27 12 METAR CYVR 271200Z 10010KT 30SM FEW070 FEW250 13/11 A3005 RMK AC1CI1 SLP175
2001 07 27 13 METAR CYVR 271300Z 10011KT 20SM FEW015 FEW090 BKN270 13/11 A3005 RMK ST1AC1CI0 ST LYR S-NW SLP177
2001 07 27 14 METAR CYVR 271400Z 10012KT 20SM BKN013 BKN090 BKN270 13/12 A3006 RMK ST6AC1CI0 SLP179
2001 07 27 15 METAR CYVR 271500Z 11012KT 20SM SCT012 BKN015 BKN050 OVC270 14/13 A3007 RMK SF4SF2SC1CI0 SLP183
2001 07 27 16 METAR CYVR 271600Z 12014G19KT 10SM BKN009 OVC014 14/12 A3008 RMK SF5SF3 SLP185
2001 07 27 17 METAR CYVR 271700Z 12013KT 10SM FEW009 SCT014 BKN022 15/12 A3008 RMK SF2SF2SC3 CIG LWR N-SE SLP186
2001 07 27 18 METAR CYVR 271800Z 12014KT 10SM FEW015 BKN022 BKN120 16/12 A3009 RMK SF2SC2AC1 SLP188
2001 07 27 19 METAR CYVR 271900Z 11012KT 15SM FEW022 SCT050 BKN150 18/12 A3009 RMK CF2SC1AC2 SLP188
2001 07 27 20 METAR CYVR 272000Z 11013G20KT 15SM FEW025 FEW110 BKN150 BKN270 19/12 A3008 RMK CU1AC1AC3CI0 SLP187
2001 07 27 21 METAR CYVR 272100Z 13014G20KT 15SM FEW025 SCT092 BKN130 BKN270 20/12 A3008 RMK CU1AC2AC2CI0 SHWRS DSNT NW SLP184
2001 07 27 22 METAR CYVR 272200Z 13014KT 15SM -SHRA FEW053 BKN070 OVC270 17/12 A3007 RMK SC1AC5CI2 SLP183
2001 07 27 23 METAR CYVR 272300Z CCA 12011KT 15SM -SHRA BKN063 OVC270 16/12 A3006 RMK AC7CI1 VSBLY LWR NW-NE SLP180
2001 07 28 00 METAR CYVR 280000Z 10009KT 12SM -RA BKN052 OVC120 16/13 A3005 RMK SC6AC2 SLP177
2001 07 28 01 METAR CYVR 280100Z 13009KT 8SM -SHRA FEW008 FEW020 BKN040 OVC080 15/13 A3005 RMK SF1SF2SC4AC2 SLP175
2001 07 28 02 METAR CYVR 280200Z 11009KT 8SM -RA FEW022 OVC033 14/13 A3004 RMK SF2SC6 SLP171
2001 07 28 03 METAR CYVR 280300Z 10009KT 8SM -RA FEW019 BKN040 OVC065 14/13 A3002 RMK CF2SC5AC2 SLP166
2001 07 28 04 METAR CYVR 280400Z 10007KT 6SM -RA BR FEW008 FEW020 OVC039 14/13 A3001 RMK SF2SF1SC6 SLP161
2001 07 28 05 METAR CYVR 280500Z 10006KT 5SM -RA BR FEW004 FEW011 OVC021 14/13 A3000 RMK SF1SF2SC6 SLP159
2001 07 28 06 METAR CYVR 280600Z 10005KT 5SM -RA BR FEW006 SCT010 OVC019 14/14 A2999 RMK SF2SF2SC4 SLP154
2001 07 28 07 METAR CYVR 280700Z 10005KT 5SM -RA BR FEW006 SCT012 BKN021 OVC045 14/14 A2997 RMK SF2SF2SC3SC1 SLP149
2001 07 28 08 METAR CYVR 280800Z 13003KT 5SM -RA BR FEW008 FEW015 BKN027 OVC045 14/14 A2996 RMK SF2SF1SC4SC2 SLP144
2001 07 28 09 METAR CYVR 280900Z 11004KT 5SM -RA BR FEW007 SCT014 OVC022 14/14 A2995 RMK SF2SF2SC4 SLP142
2001 07 28 10 METAR CYVR 281000Z 20004KT 4SM -RA BR SCT005 BKN015 OVC022 15/14 A2994 RMK SF3SF3SC2 SLP139
2001 07 28 11 METAR CYVR 281100Z 31010KT 4SM -RA BR SCT004 BKN015 OVC023 14/13 A2995 RMK SF3SF3SC2 SLP140
2001 07 28 12 METAR CYVR 281200Z 31006KT 6SM -RA BR FEW008 SCT016 OVC034 14/13 A2994 RMK SF2SC2SC4 SLP139
2001 07 28 13 METAR CYVR 281300Z 29015G20KT 8SM FEW006 SCT013 BKN025 BKN060 14/13 A2995 RMK SF2SF2SC2SC1 TCU EMBDD CIG LWR NW-E SML BRKS W SLP141
2001 07 28 14 METAR CYVR 281400Z 29012G19KT 10SM FEW006 FEW015 SCT025 BKN042 BKN068 14/12 A2996 RMK SF1SF2SC2SC2AC1 CIG LWR NE-E SLP144
2001 07 28 15 METAR CYVR 281500Z 29015KT 15SM FEW006 FEW015 SCT045 BKN076 15/12 A2998 RMK SF1SC2SC2AC2 VSBY W 30 SLP151
2001 07 28 16 METAR CYVR 281600Z 28014KT 15SM FEW006 FEW015 BKN070 15/12 A2999 RMK SF1SC2AC5 SLP155
2001 07 28 17 METAR CYVR 281700Z 27018KT 15SM FEW006 FEW015 FEW045 BKN072 15/12 A3001 RMK SF1SC1SC1AC6 TR SF SLP163
2001 07 28 18 METAR CYVR 281800Z 26016KT 15SM FEW015 FEW045 BKN069 16/13 A3003 RMK SF1SC2AC6 SLP170
2001 07 28 19 METAR CYVR 281900Z 29012KT 15SM FEW020 FEW045 BKN068 17/13 A3005 RMK CF1SC2AC6 FEW TCU DVLPG SLP174
2001 07 28 20 METAR CYVR 282000Z 29010KT 20SM VCSH FEW020 SCT033TCU BKN050 OVC070 16/12 A3007 RMK CF1TCU2SC3AC2 SHWR SW SLP181
2001 07 28 21 METAR CYVR 282100Z 26007KT 15SM -SHRA FEW020 BKN029TCU BKN050 OVC070 15/12 A3008 RMK CU2TCU4SC2AC1 SHWR VRY LGT SLP185
2001 07 28 22 METAR CYVR 282200Z 22004KT 12SM -SHRA FEW013 FEW021 BKN034 BKN053 BKN070 OVC150 15/13 A3009 RMK CF1SC2CU2SC2AC1AC1 TCU+ACC EMBDD HYVR SHRA NE CIG+VSBY
2001 07 28 E METAR      LWR N-E BR PTCHS TR CF SLP188
2001 07 28 23 METAR CYVR 282300Z 24003KT 20SM FEW020 FEW035 BKN062 BKN150 17/13 A3009 RMK CU1SC1SC4AC1 TCU ASOCTD SLP189
2001 07 29 00 METAR CYVR 290000Z 22006G15KT 20SM FEW022 FEW048 SCT060 BKN083 BKN200 18/12 A3010 RMK CF1CU2SC2AC1CI2 TCU+CC ASOCTD SHRA DSTNT E SLP191
2001 07 29 01 METAR CYVR 290100Z 20009KT 20SM FEW022 FEW048 SCT060 BKN083 OVC200 18/12 A3010 RMK CF1CU2SC2AC2CI2 TR CF TCU ASOCTD BINOVC SLP191
2001 07 29 02 METAR CYVR 290200Z 18005KT 20SM FEW047 BKN062 BKN090 OVC200 17/07 A3009 RMK CU2SC3AC2CI2 BINOVC SLP188
2001 07 29 03 METAR CYVR 290300Z 23010KT 20SM FEW030 BKN041 BKN062 OVC090 17/11 A3009 RMK CF1SC4SC2AC2 CU+TCU+ACC EMBDD VIRGA SW SHRA NW SLP190
2001 07 29 04 METAR CYVR 290400Z 24014KT 20SM FEW030 BKN043 BKN062 OVC090 17/11 A3009 RMK CF1SC4SC2AC2 CU EMBDD VIRGA SW-W SLP190
2001 07 29 05 METAR CYVR 290500Z 22009G15KT 20SM FEW030 BKN043 BKN062 OVC090 16/11 A3009 RMK CF1SC4SC2AC2 SLP189
2001 07 29 06 METAR CYVR 290600Z 22007KT 15SM FEW030 SCT043 BKN072 OVC100 16/11 A3009 RMK SF1SC2AC2AC2 MNTNS N OBSCD SLP188
2001 07 29 07 METAR CYVR 290700Z 18002KT 15SM FEW010 BKN044 OVC070 16/11 A3009 RMK SF1SC5AC3 TR SF SLP188
2001 07 29 08 METAR CYVR 290800Z 22006KT 20SM FEW020 SCT045 BKN080 BKN200 16/10 A3008 RMK SC1SC3AC2CI1 SLP186
2001 07 29 09 METAR CYVR 290900Z 13007KT 20SM FEW025 FEW050 BKN080 BKN200 15/10 A3008 RMK SC1SC2AC3CI1 SLP185
2001 07 29 10 METAR CYVR 291000Z 11010KT 20SM FEW025 SCT050 BKN079 BKN200 14/11 A3007 RMK SC1SC2AC2CI1 SLP183
2001 07 29 11 METAR CYVR 291100Z 10009KT 20SM FEW025 BKN040 OVC080 13/11 A3006 RMK SC1SC4AC2 SLP179
2001 07 29 12 METAR CYVR 291200Z 10009KT 20SM FEW024 BKN042 BKN088 13/10 A3005 RMK SC1SC4AC2 SLP177
2001 07 29 13 METAR CYVR 291300Z 10009KT 30SM FEW020 BKN049 BKN082 BKN210 12/10 A3006 RMK SC2SC3AC2CI1 VSBY NE-SE 15 SLP178
2001 07 29 14 METAR CYVR 291400Z 09010KT 30SM FEW020 FEW050 BKN070 BKN085 13/11 A3006 RMK SC1SC2AC3AC2 VSBY NE-E 15 SLP178
2001 07 29 15 METAR CYVR 291500Z 10010KT 30SM FEW017 FEW050 BKN085 BKN210 14/11 A3007 RMK SC2SC1AC3CI2 VSBY N-E 15 SLP181
2001 07 29 16 METAR CYVR 291600Z 10010KT 30SM SCT016 BKN030 BKN085 14/11 A3008 RMK SC3SC3AC1 VSBY N-E 15 SLP185
2001 07 29 17 METAR CYVR 291700Z 12010KT 30SM BKN016 BKN085 15/10 A3008 RMK CU6AC2 TCU EMBDD VSBY N-E 15 SLP185
2001 07 29 18 METAR CYVR 291800Z 15007KT 30SM BKN019TCU BKN082 BKN210 15/11 A3008 RMK TCU6AC2CI1 VSBY N-E 15 SLP187
2001 07 29 19 METAR CYVR 291900Z 17005KT 30SM BKN022TCU BKN032 BKN082 16/11 A3009 RMK TCU5CU2AC1 OBS +5 SLP188
2001 07 29 20 METAR CYVR 292000Z 23007KT 30SM SCT026TCU BKN048 BKN210 18/11 A3008 RMK TCU3SC2CI2 SLP184
2001 07 29 21 METAR CYVR 292100Z 25008KT 30SM SCT028TCU SCT043 BKN210 17/12 A3007 RMK TCU3SC1CI1 SLP183
2001 07 29 22 METAR CYVR 292200Z 25009KT 30SM FEW030TCU SCT200 18/11 A3006 RMK TCU2CI1 SLP180
2001 07 29 23 METAR CYVR 292300Z 25008KT 30SM FEW030 FEW200 19/10 A3005 RMK CU1CI1 SLP174
2001 07 30 00 METAR CYVR 300000Z 30007KT 30SM FEW030 FEW200 19/11 A3004 RMK CU1CI1 SLP172
2001 07 30 01 METAR CYVR 300100Z 29009KT 30SM FEW035 SCT082 BKN200 18/11 A3003 RMK CU1AC3CI1 SLP169
2001 07 30 02 METAR CYVR 300200Z 28009KT 30SM FEW040 FEW082 SCT200 18/11 A3002 RMK SC1AC2CI1 SLP164
2001 07 30 03 METAR CYVR 300300Z 30009KT 30SM FEW040 SCT200 17/11 A3001 RMK SC1CI1 TR SC SLP161
2001 07 30 04 METAR CYVR 300400Z 29009KT 30SM FEW200 16/12 A3000 RMK CI1 SLP158
2001 07 30 05 METAR CYVR 300500Z 30011KT 30SM FEW200 16/12 A3000 RMK CI0 SLP157
2001 07 30 06 METAR CYVR 300600Z 31009KT 30SM SKC 15/12 A2999 RMK SLP154
2001 07 30 07 METAR CYVR 300700Z 01002KT 30SM SKC 15/12 A2998 RMK SLP153
2001 07 30 08 METAR CYVR 300800Z 03005KT 30SM SKC 14/11 A2999 RMK SLP154
2001 07 30 09 METAR CYVR 300900Z 35003KT 30SM SKC 14/11 A2999 RMK SLP154
2001 07 30 10 METAR CYVR 301000Z 00000KT 30SM SKC 13/11 A2999 RMK SLP154
2001 07 30 11 METAR CYVR 301100Z 04005KT 30SM SKC 12/10 A2999 RMK SLP155
2001 07 30 12 METAR CYVR 301200Z 04004KT 30SM SKC 12/10 A2999 RMK SLP156
2001 07 30 13 METAR CYVR 301300Z 00000KT 30SM FEW027 FEW270 12/10 A3000 RMK SC1CI0 SC CI TR SLP158
2001 07 30 14 METAR CYVR 301400Z 00000KT 30SM FEW018 FEW027 13/11 A3001 RMK CF2SC1 SLP162
2001 07 30 15 METAR CYVR 301500Z 12005KT 30SM FEW017 SCT023 SCT250 15/11 A3002 RMK CF1SC2CI1 SLP166
2001 07 30 16 METAR CYVR 301600Z 22004KT 30SM FEW017 SCT032 BKN260 16/12 A3002 RMK CU2SC2CI2 SLP167
2001 07 30 17 METAR CYVR 301700Z 25004KT 30SM SCT019 BKN260 18/13 A3002 RMK CU3CI1 SLP165
2001 07 30 18 METAR CYVR 301800Z 26007KT 30SM FEW018 SCT210 BKN260 17/13 A3002 RMK CU2CI1CI0 SLP164
2001 07 30 19 METAR CYVR 301900Z 26007KT 30SM FEW020 BKN210 17/13 A3001 RMK CU1CI1 MDT CU SLP163
2001 07 30 20 METAR CYVR 302000Z 25007KT 30SM FEW020 SCT210 18/13 A3001 RMK CU1CI1 SLP161
2001 07 30 21 METAR CYVR 302100Z 24008KT 30SM FEW025TCU FEW070 FEW210 18/14 A3001 RMK TCU1AC1CI1 SLP161
2001 07 30 22 METAR CYVR 302200Z 26007KT 30SM FEW030TCU FEW070 FEW220 19/14 A3000 RMK TCU1AC1CI1 SLP160
2001 07 30 23 METAR CYVR 302300Z 26007KT 30SM FEW030 FEW070 FEW220 19/14 A3000 RMK CU1AC1CI1 TCU ASOCTD SLP158
2001 07 31 00 METAR CYVR 310000Z 28007KT 30SM FEW040 FEW080 19/13 A2999 RMK CU1AC1 TCU ASOCTD SLP156
2001 07 31 01 METAR CYVR 310100Z 24005KT 30SM FEW040 FEW080 19/12 A2999 RMK CU1AC1 SLP154
2001 07 31 02 METAR CYVR 310200Z 24003KT 30SM FEW040 FEW080 19/13 A2998 RMK CU1AC1 SLP152
2001 07 31 03 METAR CYVR 310300Z 30003KT 30SM FEW030 FEW070 18/13 A2998 RMK CU1AC1 SLP152
2001 07 31 04 METAR CYVR 310400Z 00000KT 30SM FEW030 FEW064 18/12 A2998 RMK SC1SC2 SLP152
2001 07 31 05 METAR CYVR 310500Z 36002KT 30SM FEW030 BKN061 17/12 A3000 RMK SC1SC4 SLP157
2001 07 31 06 METAR CYVR 310600Z 35004KT 30SM FEW030 FEW070 17/12 A3000 RMK SC1AC2 SLP158
2001 07 31 07 METAR CYVR 310700Z 06003KT 30SM FEW070 16/11 A3000 RMK AC2 SLP158
2001 07 31 08 METAR CYVR 310800Z 03003KT 30SM SCT070 16/11 A3001 RMK AC4 SLP162
2001 07 31 09 METAR CYVR 310900Z 09004KT 30SM FEW080 BKN270 14/11 A3002 RMK AC2CI0 SLP164
2001 07 31 10 METAR CYVR 311000Z 11007KT 30SM FEW063 BKN077 BKN270 14/12 A3003 RMK SC2AC3CI0 SLP169
2001 07 31 11 METAR CYVR 311100Z 10008KT 30SM FEW060 SCT080 BKN270 13/11 A3003 RMK SC1AC2CI0 SLP169
2001 07 31 12 METAR CYVR 311200Z 10010KT 30SM FEW012 FEW030 FEW070 SCT270 13/11 A3004 RMK SF1SC1AC1CI0 SLP173
2001 07 31 13 METAR CYVR 311300Z 09011KT 30SM FEW014 BKN022 BKN085 14/11 A3005 RMK SC1SC6AC2 LWR SC TR SLP177
2001 07 31 14 METAR CYVR 311400Z 11012KT 30SM BKN035 BKN085 14/10 A3007 RMK SC5AC2 SLP183
2001 07 31 15 METAR CYVR 311500Z 11011KT 30SM BKN037 BKN085 14/11 A3008 RMK SC5AC1 SLP187
2001 07 31 16 METAR CYVR 311600Z 14011KT 30SM FEW023 BKN042 BKN085 15/11 A3009 RMK SC1SC4AC1 SLP190
2001 07 31 17 METAR CYVR 311700Z 13011KT 30SM FEW029 BKN038 16/10 A3010 RMK CU1SC6 SLP193
2001 07 31 18 METAR CYVR 311800Z 13009KT 30SM BKN028 BKN085 16/10 A3010 RMK SC6AC1 SLP194
2001 07 31 19 METAR CYVR 311900Z 15009KT 30SM BKN031 18/11 A3010 RMK SC5 SLP193
2001 07 31 20 METAR CYVR 312000Z 13011KT 30SM BKN034 19/12 A3010 RMK SC5 CU ASOCTD SLP194
2001 07 31 21 METAR CYVR 312100Z 13013KT 30SM FEW017 FEW034 19/11 A3010 RMK CF1CU2 CU ASOCTD SLP194
2001 07 31 22 METAR CYVR 312200Z 15008KT 30SM FEW015 SCT032 20/12 A3010 RMK CF2SC2 SLP193
2001 07 31 23 METAR CYVR 312300Z 17009KT 30SM FEW038 20/11 A3009 RMK CU2 SLP190
2001 08 01 00 METAR CYVR 010000Z 17012KT 30SM FEW038 FEW250 20/11 A3008 RMK CU1CI1 SLP186
2001 08 01 01 METAR CYVR 010100Z 14009G17KT 30SM FEW038 FEW120 SCT250 19/10 A3007 RMK CU1AC1CI1 SLP182
2001 08 01 02 METAR CYVR 010200Z 14012KT 30SM FEW120 BKN250 19/10 A3006 RMK AC1CI2 SLP180
2001 08 01 03 METAR CYVR 010300Z CCA 15008KT 15SM BKN200 18/10 A3005 RMK CI2 HZ SLP177
2001 08 01 04 METAR CYVR 010400Z 14007KT 20SM BKN200 17/10 A3006 RMK CI2 HZ SLP178
2001 08 01 05 METAR CYVR 010500Z 13006KT 30SM SCT200 16/10 A3006 RMK CI2 SLP178
2001 08 01 06 METAR CYVR 010600Z 10007KT 30SM SCT200 14/10 A3005 RMK CI2 SLP176
2001 08 01 07 METAR CYVR 010700Z 11007KT 30SM BKN250 13/10 A3005 RMK CI1 SLP177
2001 08 01 08 METAR CYVR 010800Z 11006KT 30SM FEW150 OVC250 14/10 A3005 RMK AC1CI2 SLP174
2001 08 01 09 METAR CYVR 010900Z 11007KT 30SM FEW150 OVC250 13/10 A3004 RMK AC1CI5 SLP171
2001 08 01 10 METAR CYVR 011000Z 11005KT 30SM FEW150 OVC240 13/10 A3003 RMK AC2CI5 SLP170
2001 08 01 11 METAR CYVR 011100Z 11007KT 30SM FEW090 SCT150 OVC240 14/10 A3002 RMK AC2AC2CI3 SLP166
2001 08 01 12 METAR CYVR 011200Z 12005KT 30SM BKN040 BKN090 OVC240 14/11 A3003 RMK SC6AC2CI0 SLP168
2001 08 01 14 METAR CYVR 011400Z 11008KT 30SM BKN043 OVC100 14/11 A3002 RMK SC6AC2 SLP166
2001 08 01 17 METAR CYVR 011700Z 14008KT 30SM SCT043 BKN083 BKN160 OVC240 17/12 A3003 RMK SC4AC2AC2CS1 SLP168
2001 08 01 17 METAR CYVR 011700Z 14008KT 30SM SCT043 BKN083 BKN160 OVC240 17/12 A3003 RMK
2001 08 01 19 METAR CYVR 011900Z 14007KT 30SM FEW047 SCT085 BKN150 BKN230 19/12 A3004 RMK SC1AC2AC2CU1 SLP172
2001 08 01 20 METAR CYVR 012000Z 14005KT 30SM FEW045 FEW085 BKN140 OVC230 18/11 A3005 RMK SC1AC2AC5CI1 SLP177
2001 08 01 21 METAR CYVR 012100Z 16006KT 30SM -RA FEW050 BKN075 BKN140 OVC230 18/12 A3006 RMK SC1AC4AC2CI1 R-- SLP180
2001 08 01 22 METAR CYVR 012200Z 13006KT 30SM FEW045 BKN073 BKN120 OVC230 19/12 A3005 RMK SC2AC4AC2CI1 SLP175
2001 08 01 23 METAR CYVR 012300Z 13010KT 20SM FEW045 BKN073 OVC120 18/11 A3005 RMK SC2AC4AC2 SLP174
2001 08 02 00 METAR CYVR 020000Z 11008KT 20SM FEW045 BKN075 OVC110 18/11 A3005 RMK SC2AC4AC2 VIRGA DSNT NE SLP174
2001 08 02 01 METAR CYVR 020100Z 14007KT 20SM FEW045 BKN080 BKN110 BKN140 19/11 A3004 RMK SC2AC3AC1AC1 VIRGA DSTNT NE SLP173
2001 08 02 02 METAR CYVR 020200Z 12007KT 20SM FEW045 BKN078 BKN100 BKN140 18/11 A3004 RMK SC2AC3AC1AC1 PCPN MTNS N SLP171
2001 08 02 03 METAR CYVR 020300Z 14009KT 20SM BKN069 BKN100 BKN140 18/11 A3004 RMK AC5AC2AC1 PCPN MTNS N SLP171
2001 08 02 04 METAR CYVR 020400Z 11007KT 20SM BKN060 BKN100 OVC140 18/11 A3003 RMK SC6AC2AC1 SLP168
2001 08 02 05 METAR CYVR 020500Z 09006KT 15SM -RA FEW040 OVC058 16/13 A3003 RMK SC2SC6 SLP168
2001 08 02 06 METAR CYVR 020600Z 10006KT 20SM FEW045 OVC062 16/12 A3002 RMK SC2SC6 SLP166
2001 08 02 07 METAR CYVR 020700Z 11003KT 15SM -SHRA FEW045 BKN055 OVC066 16/13 A3002 RMK SC2SC4AC2 SLP166
2001 08 02 08 METAR CYVR 020800Z 07005KT 8SM -SHRA FEW035 SCT055 OVC067 16/14 A3001 RMK SC2SC2AC4 SLP161
2001 08 02 09 METAR CYVR 020900Z 04006KT 8SM -RA FEW035 FEW045 OVC073 16/14 A3000 RMK SC2SC1AC6 SLP159
2001 08 02 10 METAR CYVR 021000Z 07006KT 12SM FEW020 FEW035 OVC057 16/14 A2999 RMK SC1SC2SC6 SLP156
2001 08 02 11 METAR CYVR 021100Z 09005KT 12SM FEW030 SCT045 OVC060 15/14 A2999 RMK SC1SC2SC5 SLP155
2001 08 02 12 METAR CYVR 021200Z CCA 09010KT 12SM FEW035 SCT050 BKN070 OVC150 15/14 A2997 RMK SC2SC2AC3AC2 INTMT -RA SLP147
2001 08 02 13 METAR CYVR 021300Z 10008KT 12SM -RA FEW025 BKN043 OVC075 15/14 A2998 RMK SC2SC3AC3 VRY LGT PCPN SLP151
2001 08 02 14 METAR CYVR 021400Z 14005KT 10SM -RA FEW016 FEW025 BKN041 OVC075 16/14 A3000 RMK SF1SC2SC4AC2 SLP157
2001 08 02 15 METAR CYVR 021500Z 17006KT 10SM -RA FEW014 SCT020 BKN040 OVC075 16/13 A3001 RMK SF1SC2SC4AC1 VRY LGT PCPN SLP161
2001 08 02 16 METAR CYVR 021600Z 12010KT 10SM -RA FEW014 FEW020 BKN045 OVC075 16/14 A3000 RMK SF1SC2SC3AC2 VSBY N QUAD 5 SLP159
2001 08 02 17 METAR CYVR 021700Z 10008KT 10SM -RA FEW020 BKN045 OVC080 16/14 A3001 RMK SC2SC3AC3 VSBY SW 20 SLP162
2001 08 02 18 METAR CYVR 021800Z 11007KT 10SM FEW014 SCT040 BKN080 OVC110 17/15 A3003 RMK SF2SC2AC2AC3 SLP169
2001 08 02 19 METAR CYVR 021900Z 12007KT 10SM -RA FEW014 SCT040 BKN055 OVC082 17/15 A3004 RMK SF1SC2SC2AC2 SLP172
2001 08 02 20 METAR CYVR 022000Z 11009KT 10SM FEW014 FEW040 BKN052 OVC090 17/15 A3004 RMK SF1SC2SC2AC3 INTMT -RA PCPN VRY LGT SLP172
2001 08 02 21 METAR CYVR 022100Z 09005KT 12SM -RA FEW012 BKN048 OVC090 17/15 A3004 RMK CF1SC4AC3 PCPN VRY LGT SLP173
2001 08 02 22 METAR CYVR 022200Z 08005KT 4SM -RA BR FEW012 FEW035 BKN045 OVC060 17/15 A3004 RMK CF2CU1SC5SC1 SLP172
2001 08 02 23 METAR CYVR 022300Z 10004KT 6SM -RA BR FEW010 FEW030 BKN045 OVC075 17/14 A3002 RMK CF2CF1SC5AC1 SLP167
2001 08 03 00 METAR CYVR 030000Z 07006KT 15SM FEW004 FEW010 SCT040 OVC072 17/15 A3001 RMK SF1CF2SC2AC4 SLP161
2001 08 03 01 METAR CYVR 030100Z 07005KT 10SM -RA FEW004 FEW010 SCT025 SCT037 BKN075 OVC100 18/16 A2999 RMK SF1CF1SC2SC1AC2AC2 VSBY LWR NE-SW RA VRY LGT SLP154
2001 08 03 02 METAR CYVR 030200Z 13003KT 10SM -RA FEW004 FEW012 SCT022 BKN078 OVC100 17/15 A2998 RMK SF1CF2SC2AC2AC2 SLP151
2001 08 03 03 METAR CYVR 030300Z 00000KT 6SM -RA BR FEW004 SCT012 BKN034 OVC078 17/16 A2997 RMK SF2CF2SC3AC1 SLP148
2001 08 03 04 METAR CYVR 030400Z 00000KT 6SM -RA BR FEW004 SCT012 OVC033 16/15 A2997 RMK SF2CF2SC4 SLP147
2001 08 03 05 METAR CYVR 030500Z 13005KT 6SM -RA BR FEW004 BKN008 OVC025 16/15 A2997 RMK SF2SF3SC3 CIG RGD SLP147
2001 08 03 06 METAR CYVR 030600Z 08008KT 6SM -RA BR FEW005 BKN008 BKN025 OVC045 16/15 A2993 RMK SF2SF3SC2SC2 CIG RGD SLP135
2001 08 03 06 METAR CYVR 030600Z 08008KT 6SM -RA BR FEW005 BKN008 BKN025 OVC045 16/15 A2993 RMK SF2SF3SC2SC2 CIG RGD SLP135
2001 08 03 08 METAR CYVR 030800Z 10011KT 15SM -RA FEW006 SCT016 SCT060 OVC084 16/15 A2991 RMK SF1SC2SC1AC4 SLP127
2001 08 03 09 METAR CYVR 030900Z 09004KT 8SM -RA FEW006 FEW016 SCT060 OVC100 16/15 A2988 RMK SF1SC2SC2AC4 SLP119
2001 08 03 10 METAR CYVR 031000Z 21006KT 4SM -RA BR FEW006 BKN025 OVC044 16/15 A2989 RMK SF2SC5SC2 SLP123
2001 08 03 11 METAR CYVR 031100Z 00000KT 3SM -RA BR SCT003 BKN007 OVC025 16/15 A2989 RMK SF3SF3SC2 SLP122
2001 08 03 12 METAR CYVR 031200Z 08008KT 4SM -RA BR FEW003 FEW007 BKN044 OVC055 16/15 A2988 RMK SF1SF2SC3SC2 SLP117
2001 08 03 13 METAR CYVR 031300Z 09010KT 3SM -RA BR FEW003 SCT007 BKN030 OVC060 16/15 A2988 RMK SF2SF2SC2SC2 VSBY HIER S-W SLP117
2001 08 03 14 METAR CYVR 031400Z 10008KT 8SM FEW007 BKN035 OVC060 16/15 A2989 RMK SF2SC3SC3 PCPN ALQDS SLP120
2001 08 03 15 METAR CYVR 031500Z 10009KT 10SM FEW010 BKN035 OVC060 16/15 A2989 RMK SF2SC3SC3 PCPN ALQDS SLP123
2001 08 03 16 METAR CYVR 031600Z 13009KT 10SM FEW010 BKN045 BKN060 BKN120 16/14 A2991 RMK SF2SC3SC2AC1 CU ASOCTD SW SLP128
2001 08 03 17 METAR CYVR 031700Z 11008KT 10SM -SHRA FEW010 BKN045 BKN060 BKN090 16/15 A2991 RMK SF2SC3SC2AC1 TCU EMBDD PCPN YVR/N-S VSBY SW 15 SLP128
2001 08 03 18 METAR CYVR 031800Z 12010KT 12SM FEW010 SCT040 BKN100 17/16 A2991 RMK SF1SC3AC3 TCU ASOCTD VSBY LWR N-E SLP127
2001 08 03 19 METAR CYVR 031900Z 12015KT 15SM FEW019 BKN030 BKN100 OVC250 19/15 A2990 RMK CF1CU4AC2CI0 TCU EMBDD SLP126
2001 08 03 20 METAR CYVR 032000Z 13014G19KT 15SM FEW017 BKN025 BKN100 19/15 A2989 RMK CF1CU4AC2 TCU EMBDD SLP123
2001 08 03 21 METAR CYVR 032100Z 13014KT 15SM FEW017 SCT025TCU BKN090 20/15 A2990 RMK CF1TCU4AC3 SLP124
2001 08 03 22 METAR CYVR 032200Z 15007KT 15SM -SHRA FEW016 BKN025TCU BKN090 20/15 A2989 RMK CF1TCU5AC2 SLP122
2001 08 03 23 METAR CYVR 032300Z 20010KT 10SM FEW012 BKN026TCU OVC080 18/14 A2990 RMK SF1TCU5AC2 OCNL RW- SHWRS ALQDS CIG AND VSBY LWR W-NE SLP125
2001 08 04 00 METAR CYVR 040000Z 00000KT 15SM FEW015 BKN043 BKN090 19/15 A2988 RMK CF2SC4AC2 SHWRS DSNT NW SLP119
2001 08 04 01 METAR CYVR 040100Z 22004KT 15SM -SHRA FEW015 FEW039 BKN054 OVC090 18/15 A2988 RMK CF1SC2SC4AC2 TCU ASOCTD SLP118
2001 08 04 02 METAR CYVR 040200Z 15004KT 15SM -SHRA FEW015 BKN054 OVC090 18/14 A2987 RMK CF1SC6AC2 PCPN VRY LGT BINOVC W SLP113
2001 08 04 03 METAR CYVR 040300Z 09009KT 15SM FEW015 SCT055 BKN080 BKN100 17/15 A2985 RMK CF1SC3AC2AC2 OCNL RW- CIG AND VSBY LWR NE-E SLP108
2001 08 04 04 METAR CYVR 040400Z 12004KT 15SM FEW020 BKN058 OVC095 17/15 A2987 RMK CF1SC6AC2 SLP113
2001 08 04 05 METAR CYVR 040500Z 00000KT 15SM -SHRA FEW015 SCT035 OVC059 16/15 A2988 RMK SF1SC2SC5 SLP117
2001 08 04 06 METAR CYVR 040600Z 05006KT 15SM FEW018 FEW040 BKN059 BKN090 16/15 A2987 RMK CF1SC2SC3AC2 SLP113
2001 08 04 07 METAR CYVR 040700Z 07005KT 15SM FEW020 SCT040 BKN055 16/14 A2986 RMK CF1SC2SC4 SLP111
2001 08 04 08 METAR CYVR 040800Z 00000KT 10SM -SHRA FEW020 BKN038 OVC060 15/14 A2987 RMK CF1SC5SC2 SLP113
2001 08 04 09 METAR CYVR 040900Z 22002KT 10SM -SHRA FEW020 BKN040 OVC065 15/14 A2987 RMK CF2SC5SC2 SLP116
2001 08 04 10 METAR CYVR 041000Z 10002KT 12SM FEW020 SCT042 OVC056 15/14 A2986 RMK CF1SC3SC4 SLP112
2001 08 04 11 METAR CYVR 041100Z 05006KT 15SM FEW020 SCT045 OVC065 15/14 A2986 RMK CF1SC2SC5 SLP112
2001 08 04 12 METAR CYVR 041200Z 11006KT 15SM FEW020 FEW045 BKN072 14/13 A2988 RMK CF1SC2AC5 SLP118
2001 08 04 13 METAR CYVR 041300Z 11008KT 10SM FEW007 SCT025 BKN070 BKN120 14/13 A2989 RMK SF2SC2AC2AC2 SLP123
2001 08 04 14 METAR CYVR 041400Z 11009KT 10SM FEW007 SCT025 BKN070 BKN120 14/13 A2991 RMK SF2SC2AC2AC2 SLP127
2001 08 04 15 METAR CYVR 041500Z 13012KT 10SM SCT009 SCT025 BKN060 BKN120 15/13 A2992 RMK SF3SC1SC2AC2 SLP133
2001 08 04 16 METAR CYVR 041600Z 13009KT 10SM -SHRA SCT009 BKN052 BKN085 15/13 A2993 RMK SF3SC2AC2 SHRWS VRY LGT SLP136
2001 08 04 17 METAR CYVR 041700Z 11010KT 15SM SCT009 BKN016 BKN050 BKN085 15/14 A2995 RMK SF2SC2SC2AC1 TCU ASOCTD VIS HIER W SLP142
2001 08 04 18 METAR CYVR 041800Z 13012KT 12SM -SHRA FEW009 SCT018 BKN075 16/14 A2995 RMK SF2SC2AC4 TCU ASOCTD VSBY HIER W SLP143
2001 08 04 19 METAR CYVR 041900Z 12009KT 20SM FEW010 SCT022 BKN070 BKN090 16/14 A2996 RMK SF2SC2AC2AC2 TCU ASOCTD SLP146
2001 08 04 20 METAR CYVR 042000Z 10011KT 20SM FEW010 FEW022 BKN064 BKN090 17/13 A2997 RMK CF1SC2SC2AC2 TCU ASOCTD SLP147
2001 08 04 21 METAR CYVR 042100Z 10009KT 30SM FEW012 FEW025 BKN075 BKN095 18/13 A2997 RMK CF1SC1AC3AC2 TCU ASOCTD SLP148
2001 08 04 22 METAR CYVR 042200Z 16010KT 30SM FEW012 SCT025TCU BKN072 BKN250 20/13 A2997 RMK CF2TCU2AC2CI0 SLP149
2001 08 04 23 METAR CYVR 042300Z 14004KT 30SM FEW028 BKN040TCU BKN070 19/11 A2998 RMK CU2TCU3AC2 SHWRS DSNT W SLP151
2001 08 05 00 METAR CYVR 050000Z 26004KT 30SM FEW025 BKN040TCU BKN070 20/11 A2999 RMK CU2TCU3AC2 SLP154
2001 08 05 01 METAR CYVR 050100Z 15004KT 30SM FEW025 SCT040TCU BKN070 19/11 A2999 RMK CU2TCU2AC3 SLP154
2001 08 05 02 METAR CYVR 050200Z 17004KT 30SM FEW040 BKN073 19/11 A2999 RMK CU2AC6 TCU ASOCTD SLP154
2001 08 05 03 METAR CYVR 050300Z 16004KT 30SM FEW040 BKN079 BKN210 18/12 A2999 RMK SC2AC4CI1 SLP155
2001 08 05 04 METAR CYVR 050400Z 09005KT 30SM FEW040 BKN079 BKN190 17/13 A3000 RMK SC1AC4CI2 SLP157
2001 08 05 05 METAR CYVR 050500Z 08006KT 30SM BKN080 BKN190 16/13 A3001 RMK AC5CI2 SLP161
2001 08 05 06 METAR CYVR 050600Z 08003KT 30SM SCT060 BKN080 BKN190 16/13 A3001 RMK SC3AC2CI1 SLP162
2001 08 05 07 METAR CYVR 050700Z 08004KT 20SM BKN058 BKN093 16/12 A3001 RMK SC6AC2 SLP161
2001 08 05 08 METAR CYVR 050800Z 09006KT 20SM BKN063 BKN096 16/12 A3001 RMK SC5AC2 SLP162
2001 08 05 09 METAR CYVR 050900Z 08007KT 20SM SCT055 BKN083 15/12 A3000 RMK SC3AC4 SLP159
2001 08 05 10 METAR CYVR 051000Z 07004KT 20SM BKN048 BKN085 16/12 A3001 RMK SC6AC2 SLP162
2001 08 05 11 METAR CYVR 051100Z 07006KT 20SM FEW045 SCT085 BKN180 15/12 A3000 RMK SC2AC2AC3 SLP160
2001 08 05 12 METAR CYVR 051200Z 10006KT 20SM FEW045 SCT085 BKN130 BKN210 14/11 A3000 RMK SC1AC2AC2CI1 SLP159
2001 08 05 13 METAR CYVR 051300Z 10005KT 20SM FEW045 FEW085 BKN130 BKN210 14/12 A3000 RMK SC1AC2AC3CI1 SLP159
2001 08 05 14 METAR CYVR 051400Z 09006KT 20SM FEW045 FEW085 BKN140 BKN210 15/12 A3000 RMK SC1AC2AC3CI2 SLP160
2001 08 05 15 METAR CYVR 051500Z 09007KT 30SM FEW050 FEW085 BKN140 BKN210 15/13 A3000 RMK SC1AC2AC3CI2 SLP160
2001 08 05 16 METAR CYVR 051600Z 10010KT 30SM SCT045 BKN064 BKN140 OVC210 16/13 A3000 RMK SC3SC2AC2CI2 SLP160
2001 08 05 17 METAR CYVR 051700Z 10008KT 30SM FEW045 SCT065 BKN130 OVC210 18/13 A3001 RMK SC2SC2AC3CI2 SLP161
2001 08 05 18 METAR CYVR 051800Z 11006KT 30SM SCT045 BKN060 OVC120 18/13 A3001 RMK SC3SC2AC2 SLP161
2001 08 05 19 METAR CYVR 051900Z 11006KT 30SM FEW045 SCT060 OVC110 19/13 A3001 RMK SC2SC2AC4 SLP162
2001 08 05 20 METAR CYVR 052000Z 11005KT 30SM FEW040 SCT060 OVC100 20/12 A3001 RMK SC2SC2AC5 SLP161
2001 08 05 21 METAR CYVR 052100Z 11004KT 15SM -SHRA FEW025 SCT040 BKN065 OVC100 18/15 A3002 RMK SC2SC2SC2AC2 SLP166
2001 08 05 22 METAR CYVR 052200Z 07005KT 5SM -RA BR FEW025 SCT040 BKN065 OVC100 17/14 A3002 RMK SC1SC2SC3AC2 SLP167
2001 08 05 23 METAR CYVR 052300Z 05011KT 4SM -RA BR FEW020 SCT035 BKN054 OVC065 17/15 A3002 RMK SF1SC2SC2SC2 SLP167
2001 08 06 00 METAR CYVR 060000Z 07009KT 15SM -RA FEW015 SCT035 BKN060 OVC110 17/15 A3003 RMK SF1SC2SC3AS2 SLP170
2001 08 06 01 METAR CYVR 060100Z 05008KT 12SM -RA FEW015 FEW035 OVC065 17/15 A3003 RMK SF1SC2SC6 SLP170
2001 08 06 02 METAR CYVR 060200Z 05008KT 15SM -SHRA FEW015 FEW035 BKN057 OVC100 17/15 A3003 RMK SF1SC2SC4AC2 SLP168
2001 08 06 03 METAR CYVR 060300Z 08009KT 15SM -SHRA FEW035 BKN055 OVC100 17/15 A3005 RMK SC2SC4AC2 SLP175
2001 08 06 04 METAR CYVR 060400Z 08008KT 15SM -SHRA SCT035 BKN059 OVC100 17/14 A3007 RMK SC3SC3AC2 SHRA VRY LGT SLP183
2001 08 06 05 METAR CYVR 060500Z 08009KT 15SM -SHRA SCT040 BKN076 OVC100 16/15 A3009 RMK SC3AC4AC1 SHRA VRY LGT SLP189
2001 08 06 06 METAR CYVR 060600Z 08007KT 15SM -SHRA SCT040 BKN056 OVC076 16/15 A3010 RMK SC3SC3AC2 SHRA VRY LGT SLP194
2001 08 06 07 METAR CYVR 060700Z 11009KT 10SM -DZ FEW025 OVC046 16/15 A3011 RMK SF2SC6 SLP197
2001 08 06 08 METAR CYVR 060800Z 10007KT 5SM -RADZ BR FEW023 SCT035 OVC045 16/15 A3012 RMK SF2SC2SC4 SLP200
2001 08 06 09 METAR CYVR 060900Z 09005KT 5SM -RA BR FEW011 SCT023 BKN032 OVC050 16/15 A3012 RMK SF1SF2SC2SC2 SLP200
2001 08 06 10 METAR CYVR 061000Z 11006KT 5SM -SHRA BR FEW011 BKN029 OVC060 16/15 A3013 RMK SF2SF3SC3 SLP202
2001 08 06 11 METAR CYVR 061100Z 08007KT 5SM BR FEW011 BKN030 BKN060 BKN080 16/15 A3013 RMK SF2SC3SC2AC1 OCNL -SHRA SLP204
2001 08 06 12 METAR CYVR 061200Z 11005KT 8SM FEW011 BKN028 BKN073 16/15 A3014 RMK SF2SC3AC2 SLP205
2001 08 06 13 METAR CYVR 061300Z 10004KT 8SM FEW010 BKN022 BKN070 16/15 A3015 RMK SF2SC4AC2 SLP209
2001 08 06 14 METAR CYVR 061400Z 10006KT 10SM FEW010 BKN019 BKN070 16/15 A3015 RMK SF2SC3AC2 SLP211
2001 08 06 15 METAR CYVR 061500Z 10007KT 10SM FEW013 BKN020 BKN070 16/15 A3017 RMK SF2SC4AC2 SLP216
2001 08 06 16 METAR CYVR 061600Z 11008KT 12SM FEW012 BKN021 BKN070 17/15 A3017 RMK SF2SC3AC1 SLP217
2001 08 06 17 METAR CYVR 061700Z 12009KT 10SM FEW010 BKN020 BKN032 18/15 A3018 RMK SF2SC4SC1 SLP220
2001 08 06 18 METAR CYVR 061800Z 13006KT 10SM FEW010 BKN023 BKN032 18/15 A3019 RMK SF2SC4SC2 SLP222
2001 08 06 19 METAR CYVR 061900Z 11007KT 10SM FEW010 SCT020 BKN028 BKN070 18/15 A3019 RMK SF2SC2SC2AC1 SLP223
2001 08 06 20 METAR CYVR 062000Z 11003KT 10SM FEW010 SCT025 BKN040 BKN070 20/16 A3019 RMK SF2SC2SC3AC1 SLP223
2001 08 06 21 METAR CYVR 062100Z 14003KT 10SM FEW012 SCT022 BKN042 BKN070 21/16 A3019 RMK SF2SC2SC2AC2 SLP224
2001 08 06 22 METAR CYVR 062200Z 00000KT 15SM FEW012 FEW025 BKN040 BKN075 21/16 A3020 RMK SF1SC2SC3AC2 TR SF SLP226
2001 08 06 23 METAR CYVR 062300Z 11005KT 20SM FEW017 BKN028 BKN040 BKN070 21/15 A3019 RMK CF1SC5SC1AC1 TCU ASOCTD SLP224
2001 08 07 00 METAR CYVR 070000Z 23002KT 30SM FEW016 BKN026TCU BKN070 22/16 A3019 RMK CF1TCU4AC2 SLP222
2001 08 07 01 METAR CYVR 070100Z 23007KT 30SM FEW018 SCT030TCU BKN080 22/16 A3019 RMK CF1TCU3AC1 SLP222
2001 08 07 02 METAR CYVR 070200Z 20007G15KT 30SM FEW020 FEW030TCU FEW080 22/15 A3019 RMK CF1TCU2AC1 TR CF AC SLP222
2001 08 07 03 METAR CYVR 070300Z 20005KT 30SM FEW030 FEW080 21/14 A3018 RMK SC2AC1 TR AC TCU TOPS SHWRS N AND NE SLP221
2001 08 07 04 METAR CYVR 070400Z 18005KT 30SM FEW028 SCT070 20/13 A3019 RMK SC1AC2 SLP222
2001 08 07 05 METAR CYVR 070500Z 30005KT 30SM FEW028 FEW068 17/14 A3020 RMK SC1AC1 SLP227
2001 08 07 06 METAR CYVR 070600Z 34004KT 30SM FEW025 SCT065 16/14 A3021 RMK SC1SC3 SLP228
2001 08 07 07 METAR CYVR 070700Z 04003KT 30SM FEW025 BKN070 16/14 A3021 RMK SC1AC4 SLP229
2001 08 07 08 METAR CYVR 070800Z 11003KT 30SM FEW025 BKN070 16/14 A3021 RMK SC1AC4 SLP230
2001 08 07 09 METAR CYVR 070900Z 31006KT 30SM FEW025 BKN060 15/14 A3021 RMK SC1SC5 SLP231
2001 08 07 10 METAR CYVR 071000Z 31004KT 30SM FEW025 SCT060 15/14 A3022 RMK SC1SC4 SLP234
2001 08 07 11 METAR CYVR 071100Z 30007KT 30SM FEW025 SCT060 15/13 A3024 RMK SC1SC3 SLP239
2001 08 07 12 METAR CYVR 071200Z 29008KT 30SM FEW025 SCT060 15/14 A3024 RMK SC1SC3 SLP239
2001 08 07 13 METAR CYVR 071300Z 31009KT 30SM FEW012 FEW030 SCT060 15/14 A3025 RMK CF1SC1SC2 SLP242
2001 08 07 14 METAR CYVR 071400Z 31009KT 30SM FEW012 FEW030 FEW060 SCT230 16/14 A3026 RMK CF1SC1SC1CI1 SLP247
2001 08 07 15 METAR CYVR 071500Z 32007KT 30SM FEW010 FEW030 SCT060 BKN220 16/14 A3027 RMK CF2SC1SC2CI0 SLP251
2001 08 07 16 METAR CYVR 071600Z 31011KT 30SM FEW010 FEW030 SCT060 BKN220 17/15 A3028 RMK CF1SC2SC2CI0 TCU ASOCTD SLP252
2001 08 07 17 METAR CYVR 071700Z 31013KT 30SM FEW010 FEW030 BKN060 BKN220 17/15 A3028 RMK CF1SC2SC2CI0 TCU ASOCTD SLP255
2001 08 07 18 METAR CYVR 071800Z 30013KT 30SM FEW011 FEW032 SCT040 BKN060 18/14 A3029 RMK CF1SC2SC1SC2 SLP256
2001 08 07 19 METAR CYVR 071900Z 29013KT 30SM FEW010 FEW040 SCT055 19/15 A3028 RMK CF2SC1SC2 SLP254
2001 08 07 20 METAR CYVR 072000Z 30010KT 30SM FEW015 FEW060 FEW220 20/15 A3028 RMK SC1SC1CI0 SLP252
2001 08 07 21 METAR CYVR 072100Z 29011KT 30SM FEW025 FEW060 SCT250 19/15 A3027 RMK SC1SC1CI0 SLP249
2001 08 07 22 METAR CYVR 072200Z 31011KT 30SM FEW042 FEW060 FEW270 20/15 A3025 RMK CU1SC1CI0 SLP244
2001 08 07 23 METAR CYVR 072300Z 30011KT 30SM FEW045 FEW060 FEW270 21/15 A3024 RMK CU1SC1CI1 TR CLD SLP240
2001 08 08 00 METAR CYVR 080000Z 31010KT 30SM FEW048 FEW060 FEW270 20/15 A3022 RMK CU1SC1CI1 TR CLD SLP234
2001 08 08 01 METAR CYVR 080100Z 30009KT 30SM FEW050 20/14 A3021 RMK CU1 SLP228
2001 08 08 02 METAR CYVR 080200Z 31007KT 30SM FEW050 20/14 A3019 RMK CU1 SLP224
2001 08 08 03 METAR CYVR 080300Z 30009KT 30SM SKC 19/14 A3018 RMK SLP220
2001 08 08 04 METAR CYVR 080400Z 30007KT 30SM SKC 17/13 A3019 RMK SLP222
2001 08 08 05 METAR CYVR 080500Z 33005KT 30SM SKC 17/14 A3019 RMK SLP222
2001 08 08 06 METAR CYVR 080600Z 34005KT 30SM SKC 16/13 A3019 RMK SLP222
2001 08 08 07 METAR CYVR 080700Z 02002KT 30SM SKC 17/13 A3019 RMK SLP224
2001 08 08 08 METAR CYVR 080800Z 00000KT 30SM FEW075 15/12 A3020 RMK AC1 SLP225
2001 08 08 09 METAR CYVR 080900Z 29002KT 30SM SKC 15/12 A3020 RMK SLP225
2001 08 08 10 METAR CYVR 081000Z 30009KT 30SM SKC 15/13 A3020 RMK SLP225
2001 08 08 11 METAR CYVR 081100Z 30012KT 30SM SKC 16/14 A3020 RMK SLP225
2001 08 08 12 METAR CYVR 081200Z 30015KT 30SM SKC 16/14 A3020 RMK SLP225
2001 08 08 13 METAR CYVR 081300Z 31009KT 30SM SKC 15/14 A3020 RMK SLP227
2001 08 08 14 METAR CYVR 081400Z 27015KT 30SM SKC 16/14 A3021 RMK SLP230
2001 08 08 15 METAR CYVR 081500Z 30016KT 30SM SKC 17/15 A3022 RMK SLP233
2001 08 08 16 METAR CYVR 081600Z 30014G19KT 30SM SKC 17/14 A3021 RMK SLP231
2001 08 08 17 METAR CYVR 081700Z 30016G21KT 30SM SKC 18/14 A3021 RMK SLP231
2001 08 08 18 METAR CYVR 081800Z 30016KT 30SM SKC 19/15 A3020 RMK SLP227
2001 08 08 19 METAR CYVR 081900Z 29018KT 30SM SKC 19/15 A3019 RMK SLP224
2001 08 08 20 METAR CYVR 082000Z 31016KT 30SM SKC 20/16 A3017 RMK SLP216
2001 08 08 21 METAR CYVR 082100Z 30016KT 30SM SKC 20/16 A3014 RMK SLP207
2001 08 08 22 METAR CYVR 082200Z 31015KT 30SM SKC 22/16 A3013 RMK SLP201
2001 08 08 23 METAR CYVR 082300Z 30014KT 30SM SKC 22/15 A3010 RMK SLP194
2001 08 09 00 METAR CYVR 090000Z 30013G18KT 30SM SKC 22/15 A3008 RMK SLP187
2001 08 09 01 METAR CYVR 090100Z 31012KT 30SM SKC 21/15 A3007 RMK SLP181
2001 08 09 02 METAR CYVR 090200Z 31011KT 30SM SKC 20/14 A3005 RMK SLP174
2001 08 09 03 METAR CYVR 090300Z 32011KT 30SM SKC 19/14 A3004 RMK SLP171
2001 08 09 04 METAR CYVR 090400Z 32011KT 30SM SKC 19/14 A3003 RMK SLP170
2001 08 09 05 METAR CYVR 090500Z 32010KT 30SM SKC 20/13 A3003 RMK SLP168
2001 08 09 06 METAR CYVR 090600Z 33007KT 30SM SKC 18/15 A3002 RMK SLP165
2001 08 09 07 METAR CYVR 090700Z 31006KT 30SM SKC 18/15 A3002 RMK SLP166
2001 08 09 08 METAR CYVR 090800Z 34005KT 30SM SKC 17/14 A3002 RMK SLP167
2001 08 09 09 METAR CYVR 090900Z 31011KT 30SM SKC 17/15 A3003 RMK SLP169
2001 08 09 10 METAR CYVR 091000Z 31010KT 30SM SKC 17/15 A3003 RMK SLP170
2001 08 09 11 METAR CYVR 091100Z 32011KT 30SM SKC 16/15 A3004 RMK SLP171
2001 08 09 12 METAR CYVR 091200Z 31010KT 30SM SKC 16/14 A3004 RMK SLP171
2001 08 09 13 METAR CYVR 091300Z 31010KT 30SM SKC 16/14 A3004 RMK SLP173
2001 08 09 14 METAR CYVR 091400Z 31010KT 30SM SKC 16/14 A3004 RMK SLP173
2001 08 09 15 METAR CYVR 091500Z 31011KT 30SM SKC 17/15 A3005 RMK SLP175
2001 08 09 16 METAR CYVR 091600Z 31014KT 30SM SKC 18/15 A3005 RMK SLP174
2001 08 09 17 METAR CYVR 091700Z 31012KT 30SM SKC 19/15 A3004 RMK SLP173
2001 08 09 18 METAR CYVR 091800Z 30015KT 30SM SKC 20/15 A3003 RMK SLP169
2001 08 09 19 METAR CYVR 091900Z 31012KT 30SM SKC 20/15 A3002 RMK SLP167
2001 08 09 20 METAR CYVR 092000Z 32012KT 30SM SKC 21/15 A3001 RMK SLP163
2001 08 09 21 METAR CYVR 092100Z 30013KT 30SM SKC 22/16 A3000 RMK SLP158
2001 08 09 22 METAR CYVR 092200Z 31014KT 30SM SKC 24/16 A2998 RMK SLP153
2001 08 09 23 METAR CYVR 092300Z 31015KT 30SM SKC 24/15 A2997 RMK SLP148
2001 08 10 00 METAR CYVR 100000Z 31013KT 30SM SKC 24/15 A2995 RMK SLP142
2001 08 10 01 METAR CYVR 100100Z 31011KT 30SM SKC 23/15 A2994 RMK SLP137
2001 08 10 02 METAR CYVR 100200Z 31010KT 30SM SKC 22/15 A2992 RMK SLP132
2001 08 10 03 METAR CYVR 100300Z 29008KT 30SM SKC 21/15 A2991 RMK SLP128
2001 08 10 04 METAR CYVR 100400Z 32006KT 30SM SKC 19/14 A2992 RMK SLP130
2001 08 10 05 METAR CYVR 100500Z 31005KT 30SM SKC 18/14 A2992 RMK SLP132
2001 08 10 06 METAR CYVR 100600Z 00000KT 30SM SKC 18/15 A2992 RMK SLP133
2001 08 10 07 METAR CYVR 100700Z 34004KT 30SM SKC 16/14 A2993 RMK SLP135
2001 08 10 08 METAR CYVR 100800Z 33002KT 30SM SKC 18/13 A2994 RMK SLP139
2001 08 10 09 METAR CYVR 100900Z 00000KT 30SM SKC 17/13 A2995 RMK SLP142
2001 08 10 L METAR CYVR NIL
2001 08 10 11 METAR CYVR 101100Z 00000KT 30SM SKC 16/13 A2997 RMK SLP147
2001 08 10 12 METAR CYVR 101200Z 00000KT 30SM SKC 15/13 A2997 RMK SLP149
2001 08 10 13 METAR CYVR 101300Z 00000KT 30SM SKC 15/12 A2998 RMK SLP152
2001 08 10 14 METAR CYVR 101400Z 00000KT 30SM SKC 17/13 A3000 RMK SLP158
2001 08 10 15 METAR CYVR 101500Z 30002KT 30SM SKC 19/15 A3001 RMK SLP161
2001 08 10 16 METAR CYVR 101600Z 29002KT 30SM SKC 21/16 A3002 RMK HZ SLP164
2001 08 10 17 METAR CYVR 101700Z 27004KT 30SM SKC 22/17 A3002 RMK HZ SLP167
2001 08 10 18 METAR CYVR 101800Z 30005KT 30SM SKC 23/15 A3002 RMK HZ SLP167
2001 08 10 19 METAR CYVR 101900Z 28007KT 30SM SKC 23/14 A3003 RMK HZ SLP168
2001 08 10 20 METAR CYVR 102000Z 28005KT 30SM SKC 24/14 A3002 RMK HZ SLP167
2001 08 10 21 METAR CYVR 102100Z 28005KT 30SM SKC 24/15 A3002 RMK HZ SLP165
2001 08 10 22 METAR CYVR 102200Z 28003KT 30SM SKC 24/15 A3001 RMK HZ SLP161
2001 08 10 23 METAR CYVR 102300Z 26005KT 30SM SKC 24/15 A2999 RMK HZ SLP156
2001 08 11 00 METAR CYVR 110000Z 27004KT 30SM SKC 25/14 A2998 RMK HZ SLP151
2001 08 11 01 METAR CYVR 110100Z 30004KT 30SM SKC 24/15 A2997 RMK HZ SLP147
2001 08 11 02 METAR CYVR 110200Z 27002KT 30SM SKC 24/15 A2996 RMK HZ SLP144
2001 08 11 03 METAR CYVR 110300Z 22004KT 30SM FEW300 22/17 A2995 RMK CI1 HZ SLP142
2001 08 11 04 METAR CYVR 110400Z 20002KT 30SM FEW300 21/16 A2996 RMK CI1 HZ SLP146
2001 08 11 05 METAR CYVR 110500Z 11002KT 30SM FEW300 20/16 A2997 RMK CI1 SLP147
2001 08 11 06 METAR CYVR 110600Z 09004KT 30SM SKC 19/16 A2997 RMK SLP149
2001 08 11 07 METAR CYVR 110700Z 10003KT 30SM SKC 18/16 A2997 RMK SLP150
2001 08 11 08 METAR CYVR 110800Z 00000KT 30SM SKC 18/16 A2999 RMK SLP154
2001 08 11 09 METAR CYVR 110900Z 00000KT 30SM SKC 17/14 A2999 RMK SLP156
2001 08 11 10 METAR CYVR 111000Z 12003KT 30SM SKC 16/14 A3000 RMK SLP158
2001 08 11 11 METAR CYVR 111100Z 10003KT 30SM SKC 16/15 A3001 RMK SLP161
2001 08 11 12 METAR CYVR 111200Z 10006KT 30SM SKC 15/14 A3002 RMK SLP164
2001 08 11 13 METAR CYVR 111300Z 01002KT 30SM SKC 16/15 A3002 RMK VSBY LWR W SLP166
2001 08 11 14 METAR CYVR 111400Z 00000KT 20SM SKC 16/14 A3003 RMK HZ SLP169
2001 08 11 15 METAR CYVR 111500Z 00000KT 20SM SKC 19/15 A3005 RMK HZ SLP174
2001 08 11 16 METAR CYVR 111600Z 23002KT 30SM SKC 20/15 A3004 RMK SLP172
2001 08 11 17 METAR CYVR 111700Z 27005KT 30SM SKC 21/16 A3003 RMK SLP170
2001 08 11 18 METAR CYVR 111800Z 27007KT 30SM SKC 20/16 A3004 RMK SLP171
2001 08 11 19 METAR CYVR 111900Z 30007KT 30SM SKC 21/16 A3003 RMK SLP170
2001 08 11 20 METAR CYVR 112000Z 30006KT 20SM SKC 23/16 A3002 RMK SLP165
2001 08 11 21 METAR CYVR 112100Z 30005KT 20SM SKC 22/16 A3001 RMK SLP161
2001 08 11 22 METAR CYVR 112200Z 25006KT 20SM SKC 23/16 A3000 RMK SLP157
2001 08 11 23 METAR CYVR 112300Z 27006KT 20SM SKC 22/16 A2997 RMK SLP150
2001 08 12 00 METAR CYVR 120000Z 28005KT 20SM SKC 22/15 A2995 RMK SLP143
2001 08 12 01 METAR CYVR 120100Z 28005KT 20SM SKC 21/16 A2994 RMK SLP138
2001 08 12 02 METAR CYVR 120200Z 26003KT 20SM SKC 22/16 A2993 RMK SLP135
2001 08 12 03 METAR CYVR 120300Z 00000KT 20SM SKC 21/16 A2992 RMK SLP133
2001 08 12 04 METAR CYVR 120400Z 20003KT 20SM SKC 20/15 A2993 RMK SLP136
2001 08 12 05 METAR CYVR 120500Z 15004KT 20SM SKC 20/16 A2995 RMK SLP140
2001 08 12 06 METAR CYVR 120600Z 10003KT 20SM SKC 18/15 A2995 RMK SLP142
2001 08 12 07 METAR CYVR 120700Z 09004KT 20SM SKC 18/16 A2995 RMK SLP143
2001 08 12 08 METAR CYVR 120800Z 09004KT 20SM SKC 17/15 A2996 RMK SLP144
2001 08 12 09 METAR CYVR 120900Z 09004KT 20SM SKC 16/15 A2996 RMK SLP146
2001 08 12 10 METAR CYVR 121000Z 11003KT 20SM SKC 16/14 A2997 RMK SLP148
2001 08 12 11 METAR CYVR 121100Z 00000KT 20SM SKC 16/14 A2998 RMK SLP151
2001 08 12 12 METAR CYVR 121200Z 00000KT 20SM SKC 16/14 A2998 RMK SLP153
2001 08 12 13 METAR CYVR 121300Z 09002KT 20SM SKC 15/13 A2999 RMK HAZE SLP154
2001 08 12 14 METAR CYVR 121400Z 10003KT 20SM FEW140 16/14 A3000 RMK AC1 HAZE SLP157
2001 08 12 15 METAR CYVR 121500Z 15004KT 15SM SKC 18/15 A3001 RMK HAZE SLP163
2001 08 12 16 METAR CYVR 121600Z 14002KT 15SM FEW140 20/16 A3002 RMK AC1 HAZE SLP164
2001 08 12 17 METAR CYVR 121700Z 23004KT 15SM FEW140 FEW220 21/16 A3002 RMK AC1CI1 HAZE SLP164
2001 08 12 18 METAR CYVR 121800Z 24007KT 15SM FEW140 SCT240 22/17 A3002 RMK AC1CI2 HAZE SLP164
2001 08 12 19 METAR CYVR 121900Z 24005KT 15SM FEW140 SCT240 21/16 A3001 RMK AC1CI3 HAZE SLP163
2001 08 12 20 METAR CYVR 122000Z 25006KT 20SM FEW240 23/17 A3000 RMK CI2 HAZE SLP160
2001 08 12 21 METAR CYVR 122100Z 24007KT 20SM FEW240 22/17 A3000 RMK CI2 HAZE SLP158
2001 08 12 22 METAR CYVR 122200Z 24006KT 20SM FEW240 23/17 A2999 RMK CI2 HZ SLP154
2001 08 12 23 METAR CYVR 122300Z 28006KT 20SM FEW150 FEW240 23/18 A2997 RMK AC1CI2 HZ SLP150
2001 08 13 00 METAR CYVR 130000Z 28005KT 20SM FEW150 SCT240 23/16 A2996 RMK AC1CI2 HZ SLP146
2001 08 13 01 METAR CYVR 130100Z 27005KT 20SM FEW150 FEW240 23/15 A2996 RMK AC1CI1 HZ SLP145
2001 08 13 02 METAR CYVR 130200Z 31003KT 20SM FEW150 FEW240 23/16 A2995 RMK AC1CI1 SLP141
2001 08 13 03 METAR CYVR 130300Z 32002KT 20SM FEW150 FEW240 22/15 A2995 RMK AC2CI1 SLP140
2001 08 13 04 METAR CYVR 130400Z 18002KT 20SM FEW150 FEW240 22/15 A2995 RMK AC2CI1 SLP142
2001 08 13 05 METAR CYVR 130500Z 00000KT 20SM FEW150 FEW240 21/16 A2997 RMK AC1CI1 SLP147
2001 08 13 06 METAR CYVR 130600Z 02002KT 20SM FEW240 20/16 A2997 RMK CI1 SLP148
2001 08 13 07 METAR CYVR 130700Z 00000KT 15SM SKC 19/16 A2998 RMK SLP152
2001 08 13 08 METAR CYVR 130800Z 13002KT 15SM FEW240 18/16 A3000 RMK CI1 SLP160
2001 08 13 09 METAR CYVR 130900Z 10007KT 15SM FEW240 16/14 A3001 RMK CI1 SLP162
2001 08 13 10 METAR CYVR 131000Z 11005KT 15SM FEW150 FEW240 16/14 A3002 RMK AC1CI0 SLP164
2001 08 13 11 METAR CYVR 131100Z 16003KT 15SM FEW150 17/15 A3003 RMK AC1 SLP168
2001 08 13 12 METAR CYVR 131200Z 00000KT 15SM FEW150 FEW240 16/15 A3004 RMK AC2CI0 SLP173
2001 08 13 13 METAR CYVR 131300Z 00000KT 15SM MIFG FEW150 FEW240 16/14 A3005 RMK AC1CI1 SLP175
2001 08 13 14 METAR CYVR 131400Z 14004KT 15SM FEW150 16/15 A3007 RMK AC1 VSBY LWR W SLP183
2001 08 13 15 METAR CYVR 131500Z 11008KT 15SM FEW150 17/14 A3009 RMK AC1 VSBY LWR W SLP189
2001 08 13 16 METAR CYVR 131600Z 14005KT 15SM FEW150 18/14 A3010 RMK AC1 SLP192
2001 08 13 17 METAR CYVR 131700Z 15004KT 15SM FEW150 20/15 A3010 RMK AC1 SLP194
2001 08 13 18 METAR CYVR 131800Z 16005KT 15SM FEW150 20/15 A3011 RMK AC1 SLP196
2001 08 13 19 METAR CYVR 131900Z 23010G15KT 15SM FEW150 22/16 A3011 RMK AC1 SLP195
2001 08 13 20 METAR CYVR 132000Z 22009G15KT 15SM FEW150 23/16 A3010 RMK AC1 HZ SLP193
2001 08 13 21 METAR CYVR 132100Z 22008KT 15SM FEW150 23/17 A3010 RMK AC1 HZ SLP191
2001 08 13 22 METAR CYVR 132200Z 23008KT 15SM FEW150 23/17 A3009 RMK ACC1 HZ SLP189
2001 08 13 23 METAR CYVR 132300Z 23006KT 15SM SKC 24/16 A3007 RMK HZ SLP183
2001 08 14 00 METAR CYVR 140000Z 23007KT 15SM SKC 24/17 A3006 RMK HZ SLP178
2001 08 14 01 METAR CYVR 140100Z 24005KT 15SM SKC 23/17 A3005 RMK HZ SLP174
2001 08 14 02 METAR CYVR 140200Z 22004KT 15SM SKC 22/16 A3004 RMK HZ SLP171
2001 08 14 03 METAR CYVR 140300Z 21004KT 15SM SKC 23/15 A3003 RMK HZ SLP170
2001 08 14 04 METAR CYVR 140400Z 15002KT 15SM SKC 21/15 A3005 RMK HZ SLP177
2001 08 14 05 METAR CYVR 140500Z 10008KT 15SM SKC 18/15 A3007 RMK SLP182
2001 08 14 06 METAR CYVR 140600Z 12005KT 15SM SKC 17/14 A3008 RMK SLP184
2001 08 14 07 METAR CYVR 140700Z 14006KT 15SM SKC 17/14 A3009 RMK SLP188
2001 08 14 08 METAR CYVR 140800Z 13005KT 15SM SKC 16/14 A3010 RMK SLP193
2001 08 14 09 METAR CYVR 140900Z 11006KT 15SM SKC 15/13 A3011 RMK SLP195
2001 08 14 10 METAR CYVR 141000Z 13004KT 15SM SKC 15/13 A3011 RMK SLP197
2001 08 14 11 METAR CYVR 141100Z 14003KT 15SM SKC 14/12 A3012 RMK SLP198
2001 08 14 12 METAR CYVR 141200Z 15004KT 15SM SKC 15/13 A3012 RMK SLP199
2001 08 14 13 METAR CYVR 141300Z 12002KT 15SM SKC 14/13 A3013 RMK SLP201
2001 08 14 14 METAR CYVR 141400Z 13004KT 15SM SKC 15/13 A3013 RMK SLP204
2001 08 14 15 METAR CYVR 141500Z 13002KT 15SM FEW250 16/14 A3013 RMK CI1 SLP204
2001 08 14 16 METAR CYVR 141600Z CCA 17002KT 10SM FEW250 18/14 A3013 RMK CI1 HZ SLP204
2001 08 14 17 METAR CYVR 141700Z 25005KT 10SM FEW015 FEW250 19/16 A3013 RMK SF1CI1 HZ SLP202
2001 08 14 18 METAR CYVR 141800Z 26005KT 8SM FEW015 FEW250 20/16 A3012 RMK SF1CI1 HZ SLP200
2001 08 14 19 METAR CYVR 141900Z 29009KT 8SM FEW010 20/17 A3011 RMK SF2 SLP196
2001 08 14 20 METAR CYVR 142000Z 27009KT 8SM FEW010 20/17 A3010 RMK SF1 HZ SLP191
2001 08 14 21 METAR CYVR 142100Z 28006KT 15SM SKC 20/16 A3009 RMK HZ SLP188
2001 08 14 22 METAR CYVR 142200Z 27006KT 15SM FEW045 21/16 A3006 RMK CU1 HZ TR/CU SLP180
2001 08 14 23 METAR CYVR 142300Z 27006KT 20SM FEW045TCU 21/16 A3004 RMK TCU1 HZ TCU/TR DSTN NE SLP171
2001 08 15 00 METAR CYVR 150000Z 25005KT 20SM FEW045 21/17 A3002 RMK CU1 TCU TOP DSTN E COTRA W SLP164
2001 08 15 01 METAR CYVR 150100Z 24005KT 20SM SKC 22/16 A3000 RMK HZ SLP157
2001 08 15 02 METAR CYVR 150200Z 21005KT 20SM SKC 22/16 A2998 RMK SLP153
2001 08 15 03 METAR CYVR 150300Z 19004KT 20SM SKC 22/15 A2998 RMK SLP152
2001 08 15 04 METAR CYVR 150400Z 00000KT 20SM SKC 21/15 A2999 RMK SLP154
2001 08 15 05 METAR CYVR 150500Z 12002KT 20SM SKC 18/14 A3000 RMK SLP157
2001 08 15 06 METAR CYVR 150600Z 10006KT 20SM SKC 18/15 A3000 RMK SLP160
2001 08 15 07 METAR CYVR 150700Z 10009KT 15SM SKC 17/15 A3001 RMK SLP162
2001 08 15 08 METAR CYVR 150800Z 11006KT 15SM SKC 16/14 A3001 RMK SLP163
2001 08 15 09 METAR CYVR 150900Z 16004KT 15SM SKC 17/15 A3002 RMK SLP166
2001 08 15 10 METAR CYVR 151000Z 14005KT 15SM SKC 16/15 A3003 RMK SLP168
2001 08 15 11 METAR CYVR 151100Z 12005KT 15SM SKC 15/14 A3003 RMK SLP170
2001 08 15 13 METAR CYVR 151300Z 10008KT 15SM FEW015 14/12 A3005 RMK SC1 HZ SLP174
2001 08 15 14 METAR CYVR 151400Z 12005KT 15SM FEW015 15/13 A3006 RMK SC1 HZ SLP178
2001 08 15 15 METAR CYVR 151500Z 10004KT 12SM FEW015 16/13 A3006 RMK SC1 HZ SLP179
2001 08 15 16 METAR CYVR 151600Z 00000KT 12SM FEW015 FEW240 18/14 A3006 RMK SC1CI1 HZ SLP178
2001 08 15 17 METAR CYVR 151700Z 32004KT 12SM FEW015 FEW240 20/15 A3005 RMK CF1CI1 HZ SLP174
2001 08 15 18 METAR CYVR 151800Z 31006KT 12SM FEW015 BKN240 21/16 A3004 RMK CF1CI0 HZ SLP173
2001 08 15 19 METAR CYVR 151900Z 24007KT 12SM FEW020 FEW240 21/16 A3004 RMK CF1CI1 HZ SLP172
2001 08 15 20 METAR CYVR 152000Z 29006KT 20SM FEW240 21/17 A3003 RMK CI0 HZ SLP168
2001 08 15 21 METAR CYVR 152100Z 26007KT 20SM FEW240 21/16 A3002 RMK CI1 HZ SLP166
2001 08 15 22 METAR CYVR 152200Z 28006KT 20SM FEW240 22/16 A3001 RMK CI1 HZ SLP162
2001 08 15 23 METAR CYVR 152300Z 26006KT 20SM FEW240 22/17 A2999 RMK CI1 HZ SLP156
2001 08 16 00 METAR CYVR 160000Z 24006KT 20SM FEW240 22/17 A2997 RMK CI1 HZ SLP150
2001 08 16 01 METAR CYVR 160100Z 23003KT 20SM FEW040 FEW240 22/17 A2996 RMK CU1CI1 HZ SLP146
2001 08 16 02 METAR CYVR 160200Z 28002KT 20SM FEW040 FEW240 22/17 A2995 RMK CU1CI1 HZ. SLP142
2001 08 16 03 METAR CYVR 160300Z 27002KT 20SM SCT240 20/17 A2995 RMK CI1 HZ SLP141
2001 08 16 04 METAR CYVR 160400Z 20004KT 20SM FEW240 21/17 A2995 RMK CI1 HZ SLP143
2001 08 16 05 METAR CYVR 160500Z 14006KT 20SM SKC 19/15 A2997 RMK HZ SLP149
2001 08 16 06 METAR CYVR 160600Z 10006KT 20SM SKC 17/15 A2998 RMK SLP153
2001 08 16 07 METAR CYVR 160700Z 13007KT 20SM SKC 17/14 A3000 RMK SLP159
2001 08 16 08 METAR CYVR 160800Z 11007KT 20SM SKC 16/14 A3000 RMK SLP160
2001 08 16 09 METAR CYVR 160900Z 14006KT 20SM SKC 16/14 A3002 RMK SLP166
2001 08 16 10 METAR CYVR 161000Z 10012KT 20SM SKC 15/13 A3003 RMK SLP170
2001 08 16 11 METAR CYVR 161100Z 11011G16KT 20SM SKC 15/13 A3005 RMK SLP174
2001 08 16 12 METAR CYVR 161200Z 11010KT 20SM SCT090 15/13 A3006 RMK AC2 SLP179
2001 08 16 13 METAR CYVR 161300Z 10011KT 20SM FEW044 FEW095 SCT230 15/12 A3007 RMK SC1AC2CI0 SLP182
2001 08 16 14 METAR CYVR 161400Z 10013KT 20SM FEW009 FEW044 SCT095 BKN230 14/12 A3009 RMK ST2SC1AC2CI0 HZ+BR SLP188
2001 08 16 15 METAR CYVR 161500Z 11015G20KT 20SM SCT010 BKN045 BKN095 BKN230 15/13 A3009 RMK ST4SC1AC1CI1 ST LYR INVADING FRM E SLP190
2001 08 16 16 METAR CYVR 161600Z 13013G19KT 20SM BKN013 BKN024 OVC045 15/12 A3011 RMK SC6SC1SC2 BINOVC CU EMBDD SLP195
2001 08 16 17 METAR CYVR 161700Z 14010KT 20SM BKN015 BKN024 OVC045 16/12 A3011 RMK SC6SC1SC2 CU EMBDD SLP196
2001 08 16 18 METAR CYVR 161800Z 13010G15KT 20SM FEW010 FEW017 SCT043 BKN095 BKN230 17/13 A3012 RMK CF1SC2CU2AC1CI0 CIG+VSBY LWR N-E SLP198
2001 08 16 19 METAR CYVR 161900Z 12010G15KT 20SM FEW018 FEW043 SCT095 BKN230 18/13 A3012 RMK CF1CU2AC1CI0 SLP198
2001 08 16 20 METAR CYVR 162000Z 10008G16KT 15SM FEW019 FEW044 FEW095 BKN230 19/14 A3011 RMK CF1CU2AC1CI1 HZ SLP196
2001 08 16 21 METAR CYVR 162100Z 12012KT 15SM FEW019 FEW034 SCT095 OVC230 19/14 A3011 RMK CF1CU2AC2CS3 HZ SLP197
2001 08 16 22 METAR CYVR 162200Z 14011KT 15SM FEW034 FEW095 BKN230 19/13 A3011 RMK CU1AC1CS3 HZ SLP195
2001 08 16 23 METAR CYVR 162300Z 15013KT 15SM FEW034 BKN230 19/13 A3009 RMK CU1CS3 HZ SLP189
2001 08 17 00 METAR CYVR 170000Z 14012KT 15SM FEW034 BKN230 19/13 A3009 RMK CU1CS3 HZ SLP189
2001 08 17 01 METAR CYVR 170100Z 14011G17KT 15SM BKN230 18/13 A3008 RMK CS2 HZ SLP186
2001 08 17 02 METAR CYVR 170200Z 12011KT 15SM SCT230 17/12 A3008 RMK CI2 HZ SLP186
2001 08 17 03 METAR CYVR 170300Z 12008KT 15SM FEW140 FEW230 16/13 A3008 RMK AC1CI1 HZ N-SE SLP187
2001 08 17 04 METAR CYVR 170400Z 11013KT 15SM FEW140 FEW230 15/12 A3010 RMK AC1CI0 HZ N-E SLP191
2001 08 17 05 METAR CYVR 170500Z 12012KT 15SM SCT023 15/12 A3011 RMK SF3 SLP195
2001 08 17 06 METAR CYVR 170600Z 10011KT 15SM FEW023 SCT060 15/12 A3011 RMK SF2SC2 SLP195
2001 08 17 07 METAR CYVR 170700Z 10012KT 15SM FEW020 FEW055 SCT065 14/11 A3012 RMK SF1SC2SC1 SLP198
2001 08 17 08 METAR CYVR 170800Z 10013KT 15SM FEW020 SCT055 14/11 A3012 RMK SF1SC3 SLP198
2001 08 17 09 METAR CYVR 170900Z 11010KT 15SM FEW020 BKN050 14/11 A3012 RMK SF2SC4 SLP199
2001 08 17 10 METAR CYVR 171000Z 10013KT 12SM BKN013 OVC050 14/11 A3012 RMK SF6SC2 SLP199
2001 08 17 11 METAR CYVR 171100Z 10011KT 12SM BKN013 OVC050 14/11 A3013 RMK SF6SC2 SLP203
2001 08 17 12 METAR CYVR 171200Z 11009KT 12SM FEW013 SCT017 BKN046 14/11 A3014 RMK SF2SF2SC3 SLP205
2001 08 17 13 METAR CYVR 171300Z 10010G15KT 12SM BKN014 BKN020 OVC047 14/11 A3014 RMK SC6SC2SC1 SLP206
2001 08 17 14 METAR CYVR 171400Z 11011KT 15SM OVC012 14/11 A3015 RMK SC8 CIG RGD SLP211
2001 08 17 15 METAR CYVR 171500Z 10013KT 15SM BKN013 OVC046 14/12 A3015 RMK SC7SC1 CIG RGD CU EMBDD SLP211
2001 08 17 16 METAR CYVR 171600Z 10009KT 15SM BKN013 OVC043 15/11 A3016 RMK SC7SC1 CIG RGD SLP213
2001 08 17 17 METAR CYVR 171700Z 12008KT 15SM BKN014 OVC042 15/12 A3016 RMK SC7SC1 BINOVC W SLP213
2001 08 17 18 METAR CYVR 171800Z 11008KT 15SM BKN013 BKN018 OVC042 15/12 A3017 RMK SF5SC2SC2 SLP216
2001 08 17 19 METAR CYVR 171900Z 14009KT 15SM BKN015 OVC025 16/12 A3018 RMK SC6SC2 SLP218
2001 08 17 20 METAR CYVR 172000Z 10009KT 20SM FEW014 BKN020 OVC028 17/13 A3016 RMK CF2CU6SC1 BINOVC S SLP213
2001 08 17 21 METAR CYVR 172100Z 10009KT 20SM FEW015 SCT021 BKN089 BKN250 18/13 A3016 RMK CF1CU3AC1CI1 TR CI SLP212
2001 08 17 22 METAR CYVR 172200Z 11004KT 25SM FEW015 FEW020 FEW090 SCT250 19/13 A3015 RMK SC1CU1AC1CI1 SLP211
2001 08 17 23 METAR CYVR 172300Z 21008G15KT 20SM FEW015 SCT025 BKN080 19/14 A3015 RMK SC2SC2AC3 SLP209
2001 08 18 00 METAR CYVR 180000Z 20008KT 25SM FEW030 FEW050 BKN075 20/13 A3014 RMK SC2SC1AC1 SLP205
2001 08 18 01 METAR CYVR 180100Z 20004KT 25SM FEW030 FEW080 20/13 A3013 RMK SC1AC1 CU ASOCTD SLP202
2001 08 18 02 METAR CYVR 180200Z 13004KT 30SM FEW040 FEW080 20/13 A3011 RMK SC1AC1 CU ASOCTD SLP197
2001 08 18 03 METAR CYVR 180300Z 12007KT 30SM FEW040 FEW080 19/13 A3011 RMK SC1AC1 SLP195
2001 08 18 04 METAR CYVR 180400Z 10005KT 30SM FEW040 FEW080 16/13 A3012 RMK SC1AC1 SLP199
2001 08 18 05 METAR CYVR 180500Z 10004KT 30SM FEW040 FEW080 16/12 A3012 RMK SC1AC1 SLP199
2001 08 18 06 METAR CYVR 180600Z 10006KT 30SM FEW040 FEW065 15/13 A3011 RMK SC1SC1 SLP197
2001 08 18 07 METAR CYVR 180700Z 11009KT 20SM FEW060 14/12 A3011 RMK SC1 SLP197
2001 08 18 08 METAR CYVR 180800Z 12005KT 20SM SKC 15/11 A3012 RMK SLP200
2001 08 18 09 METAR CYVR 180900Z 12005KT 20SM SKC 15/11 A3012 RMK SLP200
2001 08 18 10 METAR CYVR 181000Z 12006KT 20SM SKC 14/11 A3013 RMK SLP202
2001 08 18 11 METAR CYVR 181100Z 10006KT 20SM FEW035 12/10 A3013 RMK SC1 SLP202
2001 08 18 12 METAR CYVR 181200Z 09005KT 20SM FEW035 FEW060 12/10 A3013 RMK SC1SC1 SLP203
2001 08 18 13 METAR CYVR 181300Z 09007KT 20SM FEW015 FEW030 SCT060 12/10 A3013 RMK SF1SC2SC1 SLP203
2001 08 18 14 METAR CYVR 181400Z 09008KT 20SM FEW015 FEW030 SCT080 13/10 A3014 RMK SF2SC1AC2 ACC ASOCTD SLP206
2001 08 18 15 METAR CYVR 181500Z 11009KT 15SM BKN020 OVC080 14/12 A3015 RMK SC6AC1 ACC ASOCTD SLP211
2001 08 18 16 METAR CYVR 181600Z 13006KT 15SM BKN020 BKN080 16/13 A3016 RMK SC6AC1 ACC ASOCTD SLP214
2001 08 18 17 METAR CYVR 181700Z 15004KT 15SM BKN021 BKN080 BKN210 17/12 A3017 RMK SC5AC1CI1 SLP217
2001 08 18 18 METAR CYVR 181800Z 14005KT 15SM BKN027 BKN080 18/11 A3018 RMK SC5AC2 SLP219
2001 08 18 19 METAR CYVR 181900Z 18006KT 20SM FEW030 BKN060 BKN080 20/12 A3018 RMK SC2SC2AC1 SLP220
2001 08 18 20 METAR CYVR 182000Z 23005KT 20SM FEW030 BKN060 BKN080 21/12 A3018 RMK CU2SC3AC1 SLP219
2001 08 18 21 METAR CYVR 182100Z 21004G17KT 20SM FEW030 BKN060 BKN080 20/11 A3018 RMK CU2SC3AC1 SLP221
2001 08 18 22 METAR CYVR 182200Z 22007G16KT 20SM FEW030 BKN050 BKN090 21/12 A3018 RMK CF2SC3AC2 TCU ASOCTD SLP220
2001 08 18 23 METAR CYVR 182300Z 21002KT 20SM FEW030 BKN055 BKN090 21/11 A3018 RMK CF2SC3AC2 TCU ASOCTD SLP218
2001 08 19 00 METAR CYVR 190000Z 20003KT 20SM FEW030 SCT055 BKN090 21/11 A3017 RMK CF2SC2AC2 TCU ASOCTD SLP216
2001 08 19 01 METAR CYVR 190100Z 15007KT 20SM FEW030 SCT055 BKN085 20/13 A3017 RMK CF1SC2AC2 TCU ASOCTD N QUAD SLP215
2001 08 19 02 METAR CYVR 190200Z 13005KT 20SM SCT055 BKN090 20/12 A3016 RMK SC3AC2 TCU ASOCTD SLP212
2001 08 19 03 METAR CYVR 190300Z 17006KT 20SM SCT050 BKN090 19/11 A3016 RMK SC3AC2 SLP214
2001 08 19 04 METAR CYVR 190400Z 14004KT 20SM FEW055 SCT090 18/12 A3017 RMK SC2AC2 SLP216
2001 08 19 05 METAR CYVR 190500Z 00000KT 20SM FEW055 FEW090 16/12 A3018 RMK SC1AC2 SLP218
2001 08 19 06 METAR CYVR 190600Z 09002KT 20SM FEW055 FEW090 15/11 A3017 RMK SC1AC1 SLP217
2001 08 19 07 METAR CYVR 190700Z 09005KT 20SM FEW075 14/11 A3018 RMK AC1 SLP219
2001 08 19 08 METAR CYVR 190800Z 07006KT 20SM FEW075 14/11 A3018 RMK AC2 SLP221
2001 08 19 09 METAR CYVR 190900Z 08006KT 20SM FEW075 14/11 A3018 RMK AC2 SLP221
2001 08 19 10 METAR CYVR 191000Z 09004KT 20SM FEW070 13/10 A3018 RMK AC2 SLP219
2001 08 19 11 METAR CYVR 191100Z 09003KT 20SM FEW026 BKN070 13/11 A3018 RMK SC2AC3 SLP221
2001 08 19 12 METAR CYVR 191200Z 11007KT 15SM FEW015 FEW032 BKN070 13/11 A3018 RMK ST1SC2AC4 SLP220
2001 08 19 13 METAR CYVR 191300Z 11006KT 20SM FEW030 SCT075 BKN250 13/10 A3018 RMK SC2AC2CI2 COTRA SLP219
2001 08 19 14 METAR CYVR 191400Z 11008KT 20SM FEW018 BKN030 BKN075 OVC250 13/11 A3018 RMK SC2SC3AC2CI1 SLP221
2001 08 19 15 METAR CYVR 191500Z 11008KT 20SM FEW023 BKN030 BKN080 OVC250 14/11 A3019 RMK SC2SC3AC2CI1 SLP222
2001 08 19 16 METAR CYVR 191600Z 12007KT 20SM FEW018 BKN038 BKN050 OVC080 14/11 A3018 RMK CF2SC5SC1AC1 CU BLDG MTNS N-NE SLP221
2001 08 19 17 METAR CYVR 191700Z 11007KT 30SM BKN016 BKN038 BKN080 BKN250 16/12 A3019 RMK CF5CU1AC1CI0 SLP222
2001 08 19 18 METAR CYVR 191800Z 18004KT 30SM BKN020 BKN250 18/13 A3018 RMK CU5CI0 TCU ASOCTD DSTN N SLP221
2001 08 19 19 METAR CYVR 191900Z 22006KT 30SM SCT020 SCT080 BKN250 19/14 A3018 RMK CU3AC1CI0 TCU ASOCTD. SLP218
2001 08 19 20 METAR CYVR 192000Z 24006KT 30SM FEW037 SCT090 SCT250 BKN280 20/14 A3016 RMK CU2AC1CC0CI0 SLP214
2001 08 19 21 METAR CYVR 192100Z 23006KT 30SM FEW043 FEW100 SCT250 21/14 A3015 RMK CU2AC1CI0 SLP210
2001 08 19 22 METAR CYVR 192200Z 25009KT 30SM FEW040 FEW100 SCT250 21/13 A3014 RMK CU2AC1CI0 TCU ASOCTD SLP205
2001 08 19 23 METAR CYVR 192300Z 23008G16KT 30SM FEW040TCU FEW090 SCT250 20/12 A3012 RMK TCU1AC2CI0 SLP199
2001 08 20 00 METAR CYVR 200000Z 23007KT 30SM FEW045TCU FEW090 SCT250 20/12 A3010 RMK TCU1AC2CI1 SLP193
2001 08 20 01 METAR CYVR 200100Z 23004KT 30SM FEW045TCU FEW090 SCT250 20/10 A3009 RMK TCU1AC2CI0 SLP188
2001 08 20 02 METAR CYVR 200200Z 28003KT 30SM FEW045TCU FEW090 FEW250 19/11 A3007 RMK TCU1AC1CI0 SLP182
2001 08 20 03 METAR CYVR 200300Z 33002KT 30SM FEW050 FEW090 FEW250 18/09 A3005 RMK SC1AC1CI1 SLP175
2001 08 20 04 METAR CYVR 200400Z 34003KT 30SM FEW055 FEW090 17/10 A3005 RMK SC1AC1 SLP175
2001 08 20 05 METAR CYVR 200500Z 01002KT 30SM FEW090 16/11 A3004 RMK AC1 SLP172
2001 08 20 06 METAR CYVR 200600Z 09004KT 30SM FEW080 16/11 A3003 RMK AC1 SLP170
2001 08 20 07 METAR CYVR 200700Z 12002KT 20SM FEW090 16/12 A3002 RMK AC1 SLP167
2001 08 20 08 METAR CYVR 200800Z 10003KT 20SM FEW025 FEW090 14/11 A3002 RMK SC1AC2 TR SC NE SLP164
2001 08 20 09 METAR CYVR 200900Z 10006KT 20SM FEW055 FEW090 13/11 A3001 RMK SC1AC1 TR CLDS SLP161
2001 08 20 10 METAR CYVR 201000Z 12003KT 20SM FEW055 FEW090 13/11 A3000 RMK SC2AC1 TR AC FU LYR NE SLP159
2001 08 20 11 METAR CYVR 201100Z 09004KT 20SM FEW055 FEW140 13/11 A3000 RMK SC1AC1 SLP158
2001 08 20 12 METAR CYVR 201200Z 09006KT 20SM FEW024 FEW062 SCT130 12/10 A2999 RMK SC2SC1AC1 SLP156
2001 08 20 13 METAR CYVR 201300Z 11005KT 20SM FEW025 BKN055 BKN120 13/11 A2998 RMK SC2SC3AC1 SLP153
2001 08 20 14 METAR CYVR 201400Z 11009KT 20SM FEW025 BKN058 BKN075 13/11 A2998 RMK SC1SC3AC2 SLP153
2001 08 20 15 METAR CYVR 201500Z 11006KT 30SM FEW008 FEW020 SCT050 BKN078 14/11 A3000 RMK CF1SC2SC2AC2 TR CF CIG LWR NW SLP157
2001 08 20 16 METAR CYVR 201600Z 14009KT 30SM FEW008 FEW020 SCT050 BKN075 15/12 A3000 RMK CF1SC2SC2AC2 TR CF SLP157
2001 08 20 17 METAR CYVR 201700Z 13011KT 30SM FEW008 SCT012 BKN025 BKN050 16/12 A2999 RMK CF1CF2CU2SC1 THN LYR 2500 FT SLP155
2001 08 20 18 METAR CYVR 201800Z CCA 15012KT 30SM FEW018 SCT038 BKN250 17/12 A2999 RMK CF2CU2CI0 CC ASOCTD SLP155
2001 08 20 19 METAR CYVR 201900Z 13007KT 30SM FEW021 SCT042 BKN250 18/12 A2999 RMK SF2CU2CI0 SLP154
2001 08 20 20 METAR CYVR 202000Z 12007KT 30SM FEW021 SCT042 BKN250 19/13 A2998 RMK CF2CU2CI0 SLP151
2001 08 20 21 METAR CYVR 202100Z 13005KT 30SM SCT028 SCT250 20/13 A2997 RMK CU3CI0 SLP147
2001 08 20 22 METAR CYVR 202200Z 15010KT 30SM FEW025 SCT040 SCT250 21/13 A2995 RMK CU2CU2CI0 SLP143
2001 08 20 23 METAR CYVR 202300Z 17011KT 30SM FEW035 SCT075 BKN220 21/11 A2994 RMK CU2AC1CI1 TCU ASOCTD SLP139
2001 08 21 00 METAR CYVR 210000Z 16010G15KT 30SM FEW040 SCT055 BKN220 21/11 A2993 RMK SC2SC1CI1 CU ASOCTD SLP136
2001 08 21 01 METAR CYVR 210100Z 14011KT 25SM FEW040 FEW055 BKN180 20/10 A2992 RMK SC2SC1AC2 SLP133
2001 08 21 02 METAR CYVR 210200Z 13009KT 25SM SCT040 BKN220 19/11 A2991 RMK SC3CI1 SLP129
2001 08 21 03 METAR CYVR 210300Z 14007KT 25SM FEW040 SCT060 BKN200 18/10 A2991 RMK SC2SC2CI1 SLP127
2001 08 21 04 METAR CYVR 210400Z 12003KT 20SM SCT060 BKN120 BKN220 17/11 A2991 RMK SC3AC2CI1 SLP129
2001 08 21 05 METAR CYVR 210500Z 10007KT 20SM SCT060 BKN110 BKN220 16/11 A2991 RMK SC3AC2CI0 SLP128
2001 08 21 06 METAR CYVR 210600Z 10007KT 20SM SCT060 BKN110 BKN220 16/11 A2990 RMK SC3AC2CI0 SLP126
2001 08 21 07 METAR CYVR 210700Z 10009KT 15SM -RA FEW035 SCT061 BKN094 OVC220 16/12 A2989 RMK SF1SC2AC3CI2 RA VRY LGT SLP122
2001 08 21 08 METAR CYVR 210800Z 09006KT 15SM -SHRA FEW034 SCT060 BKN091 OVC220 16/12 A2988 RMK SF1SC3AC3CI1 SLP117
2001 08 21 09 METAR CYVR 210900Z 11005KT 15SM -SHRA FEW031 SCT047 OVC072 16/12 A2986 RMK SF2SC2AC4 SLP112
2001 08 21 10 METAR CYVR 211000Z 11007KT 15SM -RA FEW030 BKN045 OVC072 16/12 A2985 RMK SF2SC3AC2 SLP108
2001 08 21 11 METAR CYVR 211100Z 09012KT 15SM -RA FEW020 SCT030 BKN044 OVC071 15/12 A2984 RMK SF1SF2SC3AC2 RA VRY LGT SLP105
2001 08 21 12 METAR CYVR 211200Z 10010KT 15SM -RA FEW019 FEW030 SCT042 OVC065 15/13 A2984 RMK SF1SC2SC2AC4 BR PTCHS SLP103
2001 08 21 13 METAR CYVR 211300Z 10010G17KT 15SM -RA FEW015 SCT038 OVC054 14/13 A2983 RMK SF1SC3SC4 SLP100
2001 08 21 14 METAR CYVR 211400Z 09009KT 10SM -RA FEW015 SCT030 OVC056 14/13 A2984 RMK SF2SC2SC4 SLP103
2001 08 21 15 METAR CYVR 211500Z 12012G17KT 8SM -RA SCT015 BKN021 OVC058 14/13 A2984 RMK SF3SC4SC1 SLP103
2001 08 21 16 METAR CYVR 211600Z 12013KT 6SM -RA BR BKN015 OVC021 14/13 A2984 RMK SF5SC3 SLP103
2001 08 21 17 METAR CYVR 211700Z 11014G19KT 6SM -RA BR FEW008 BKN014 OVC021 14/13 A2984 RMK SF2SF4NS2 SLP105
2001 08 21 18 METAR CYVR 211800Z 13017G28KT 10SM -RA FEW008 BKN014 OVC022 14/13 A2984 RMK SF1SF4SC3 SLP104
2001 08 21 19 METAR CYVR 211900Z 14014G20KT 15SM FEW008 SCT015 BKN020 OVC045 14/13 A2985 RMK SF2SF2SC3SC2 SLP107
2001 08 21 20 METAR CYVR 212000Z 12015G21KT 20SM FEW012 OVC021 16/13 A2982 RMK SF2SC6 SLP099
2001 08 21 21 METAR CYVR 212100Z 14013G18KT 6SM -RA BR FEW012 OVC020 16/13 A2984 RMK SF2SC6 SLP103
2001 08 21 22 METAR CYVR 212200Z 12015KT 6SM -RA BR FEW012 OVC022 15/14 A2981 RMK SF2SC6 SLP093
2001 08 21 23 METAR CYVR 212300Z 12011KT 6SM -RA BR FEW012 BKN026 OVC072 15/14 A2980 RMK SF2SC6AC1 SLP091
2001 08 22 00 METAR CYVR 220000Z 13012KT 5SM -RA BR FEW010 BKN022 OVC062 15/14 A2980 RMK SF2SC4SC2 SLP090
2001 08 22 01 METAR CYVR 220100Z 13011KT 5SM -RA BR FEW008 SCT012 BKN022 OVC052 16/15 A2979 RMK SF2SF2SC3SC2 SLP088
2001 08 22 02 METAR CYVR 220200Z 11010KT 6SM -RA BR FEW007 SCT012 BKN018 OVC052 16/15 A2977 RMK SF1SF2SC4SC1 SLP082
2001 08 22 03 METAR CYVR 220300Z 11009KT 5SM -RA BR FEW006 SCT013 OVC020 16/15 A2977 RMK SF2SF2SC4 SLP080
2001 08 22 04 METAR CYVR 220400Z 14010G16KT 5SM -RA BR FEW007 SCT014 OVC021 16/15 A2978 RMK SF2SF2SC5 SLP085
2001 08 22 05 METAR CYVR 220500Z 12010KT 8SM -RA FEW007 FEW014 SCT028 OVC074 16/15 A2978 RMK SF1SF1SC2AC4 VRY LGT PCPN SLP083
2001 08 22 06 METAR CYVR 220600Z 13013KT 6SM -RA BR FEW015 FEW030 OVC068 15/14 A2978 RMK SF1SC2AC6 SLP084
2001 08 22 07 METAR CYVR 220700Z 11014KT 6SM -RA BR FEW010 FEW025 SCT050 BKN062 15/14 A2977 RMK SF1SC2SC2SC3 SLP081
2001 08 22 08 METAR CYVR 220800Z 12013G19KT 10SM FEW010 FEW025 SCT050 BKN070 16/15 A2976 RMK SF1SC2SC2AC3 INTMT -RA. SLP079
2001 08 22 09 METAR CYVR 220900Z 13017G22KT 10SM FEW010 SCT021 BKN070 16/15 A2976 RMK SF1SC3AC3 SLP077
2001 08 22 10 METAR CYVR 221000Z 13013G18KT 4SM -SHRA BR FEW010 BKN021TCU OVC056 16/14 A2976 RMK CF1TCU6SC2 SLP077
2001 08 22 11 METAR CYVR 221100Z 12009KT 15SM BKN019 BKN055 16/14 A2977 RMK SC5SC2 SLP080
2001 08 22 12 METAR CYVR 221200Z 11008KT 15SM FEW010 BKN019 BKN055 16/15 A2975 RMK SF1SC4SC2 SLP073
2001 08 22 13 METAR CYVR 221300Z 13009KT 3SM SHRA BR SCT008 OVC014TCU 16/15 A2975 RMK CF3TCU5 SLP074
2001 08 22 14 METAR CYVR 221400Z 18005KT 6SM -SHRA BR SCT008 OVC014TCU 16/15 A2976 RMK CF4TCU4 RERA. SLP079
2001 08 22 15 METAR CYVR 221500Z 10011KT 7SM -SHRA FEW004 FEW007 SCT015 BKN070 OVC100 16/15 A2974 RMK CF1CF2CU2AC2AC2 RERA PRESFR TCU ASOCTD SLP071
2001 08 22 16 METAR CYVR 221600Z 16009KT 10SM FEW005 FEW009 SCT015 BKN080 OVC110 16/15 A2977 RMK CF1CF2CU2AC2AC2 TCU ASOCTD CIG AND VSBY LWR NE-E SLP082
2001 08 22 17 METAR CYVR 221700Z 15010G17KT 6SM -SHRA BR FEW006 SCT012 BKN025 OVC044 16/15 A2977 RMK SF2CF2SC2SC2 SLP082
2001 08 22 18 METAR CYVR 221800Z 11009KT 10SM -SHRA FEW006 FEW012 BKN025 OVC050 17/16 A2978 RMK SF1CF2SC3SC2 PCPN VRY LGT SLP085
2001 08 22 19 METAR CYVR 221900Z 12008KT 6SM -SHRA BR FEW006 BKN014 BKN025 OVC050 17/15 A2979 RMK SF2SF3SC2SC1 VSBY SW 12 SLP086
2001 08 22 20 METAR CYVR 222000Z 21006KT 5SM -SHRA BR FEW005 BKN013 BKN023 OVC040 16/15 A2979 RMK SF2SF3SC2SC1 SLP087
2001 08 22 21 METAR CYVR 222100Z 00000KT 6SM -SHRA BR FEW006 FEW013 SCT020 BKN049 OVC080 16/15 A2978 RMK SF1CF2SC2SC3AC1 SLP085
2001 08 22 22 METAR CYVR 222200Z 13005KT 15SM -SHRA FEW007 FEW018 BKN045 OVC080 16/15 A2979 RMK SF1CF2SC5AC1 VSBY E 6 SW 30 SLP087
2001 08 22 23 METAR CYVR 222300Z 11006KT 15SM -SHRA FEW006 SCT022 BKN040 OVC100 17/16 A2979 RMK SF1SC2SC3AC2 VSBY NE-E 6 SHWRS OCNL SLP086
2001 08 23 00 METAR CYVR 230000Z 10009KT 10SM -SHRA FEW006 FEW011 SCT022 BKN038 OVC090 16/15 A2979 RMK SF2SF1SC2SC3AC1 /R10/ SLP087
2001 08 23 01 METAR CYVR 230100Z 08007KT 15SM -SHRA FEW007 FEW019 SCT030 BKN055 BKN090 16/14 A2978 RMK SF1SC2SC2SC2AC1 PCPN VRY LGT SLP085
2001 08 23 02 METAR CYVR 230200Z 16008KT 20SM FEW009 SCT035 BKN053 OVC090 16/15 A2980 RMK SF1SC2SC3AC2 SLP092
2001 08 23 03 METAR CYVR 230300Z 16006KT 10SM -SHRA FEW006 SCT022 BKN035 OVC080 16/14 A2981 RMK SF1SC3SC2AC2 VSBY NE 5 SLP093
2001 08 23 04 METAR CYVR 230400Z 16004KT 6SM -SHRA BR FEW005 FEW012 BKN024 OVC050 15/14 A2981 RMK SF2SF1SC3SC2 VSBY HIER W SLP094
2001 08 23 05 METAR CYVR 230500Z 12009KT 6SM -SHRA BR SCT006 BKN012 BKN025 OVC050 15/14 A2982 RMK SF4SF2SC2SC1 SLP098
2001 08 23 06 METAR CYVR 230600Z 12008KT 15SM FEW006 FEW012 SCT025 BKN060 BKN100 14/13 A2982 RMK SF1SF2SC2SC2AC1 VSBY NE6 SLP096
2001 08 23 07 METAR CYVR 230700Z 14005KT 15SM FEW008 SCT020 BKN080 14/13 A2983 RMK SF2SF2AC2 SLP101
2001 08 23 08 METAR CYVR 230800Z 11009KT 10SM SCT008 BKN060 14/13 A2983 RMK SF4SC2 SLP102
2001 08 23 09 METAR CYVR 230900Z 13010KT 15SM FEW008 SCT075 BKN140 13/12 A2985 RMK SF2AC2AC2 SLP107
2001 08 23 10 METAR CYVR 231000Z 13010KT 15SM FEW008 FEW070 BKN100 BKN140 13/12 A2986 RMK SF1AC2AC3AC2 SLP110
2001 08 23 11 METAR CYVR 231100Z 11009KT 10SM -SHRA FEW007 BKN050 OVC100 13/12 A2987 RMK SF2SC4AC2 SLP113
2001 08 23 12 METAR CYVR 231200Z 13010KT 6SM -SHRA SCT006 BKN040 OVC100 14/13 A2988 RMK SF3SC3AC2 SLP117
2001 08 23 13 METAR CYVR 231300Z 12010KT 8SM -SHRA FEW006 SCT040 OVC075 13/12 A2987 RMK SF2SC2AC4 SLP116
2001 08 23 14 METAR CYVR 231400Z 11011KT 12SM FEW006 FEW040 BKN070 OVC120 13/12 A2987 RMK SF2SC1AC4AC2 BINOVC W SHWRS DSNT NW-NE SLP116
2001 08 23 15 METAR CYVR 231500Z 14008KT 10SM -SHRA FEW006 SCT034 BKN047 OVC070 14/13 A2990 RMK SF2SC2SC3AC1 SLP125
2001 08 23 16 METAR CYVR 231600Z 13005KT 6SM -SHRA BR FEW006 BKN015 BKN032 OVC045 14/12 A2991 RMK SF2SF4SC2SC1 SLP129
2001 08 23 17 METAR CYVR 231700Z 15011KT 12SM FEW006 BKN015 BKN022 OVC050 14/12 A2993 RMK SF2SF4SC2SC1 SHWRS N SLP134
2001 08 23 18 METAR CYVR 231800Z 13010KT 12SM -SHRA FEW006 FEW014 SCT025 SCT045 OVC076 15/13 A2993 RMK SF1SF2SC1SC1AC4 PCPN VRY LGT BINOVC SW SLP136
2001 08 23 19 METAR CYVR 231900Z 13011KT 15SM -SHRA FEW006 FEW013 SCT025 BKN063 OVC077 15/13 A2994 RMK SF2SF1SC2SC2AC2 PCPN VRY LGT SLP139
2001 08 23 20 METAR CYVR 232000Z 13011KT 15SM FEW006 FEW015 SCT048 BKN063 OVC076 16/13 A2995 RMK SF1CF2SC2SC2AC2 SLP142
2001 08 23 21 METAR CYVR 232100Z 14012KT 15SM -SHRA FEW006 FEW015 SCT050 BKN060 OVC070 16/12 A2996 RMK SF1CF2SC2SC2AC2 SLP144
2001 08 23 22 METAR CYVR 232200Z 14011KT 12SM -SHRA FEW006 FEW015 BKN055 OVC075 16/13 A2997 RMK SF1CF2SC2AC3 TCU ASOCTD SLP147
2001 08 23 23 METAR CYVR 232300Z 11004KT 12SM -SHRA FEW006 FEW015 BKN050 OVC075 16/13 A2998 RMK SF1CF2SC3AC2 TCU ASOCTD SHWRS VRY LGT SLP151
2001 08 24 00 METAR CYVR 240000Z 09005KT 10SM -SHRA FEW008 SCT015 BKN040TCU OVC060 16/14 A2998 RMK SF2CF2TCU3SC2 SLP153
2001 08 24 01 METAR CYVR 240100Z 10008KT 10SM -SHRA FEW008 SCT015 BKN043TCU BKN064 15/14 A2999 RMK SF2CF2TCU2SC2 SLP155
2001 08 24 02 METAR CYVR 240200Z 12006KT 10SM FEW008 FEW015 BKN045 BKN070 BKN200 15/13 A3000 RMK SF1CF2SC2AC2CI1 TCU ASOCTD SLP157
2001 08 24 03 METAR CYVR 240300Z 11007KT 12SM FEW008 FEW015 SCT050 BKN080 BKN200 15/13 A3001 RMK SF1CF2SC2AC2CI1 TCU ASOCTD SLP162
2001 08 24 04 METAR CYVR 240400Z 12007KT 15SM FEW012 FEW050 BKN078 BKN200 15/13 A3003 RMK SF1SC2AC3CI2 SLP168
2001 08 24 05 METAR CYVR 240500Z 00000KT 15SM FEW012 FEW050 BKN081 15/12 A3003 RMK SF1SC2AC4 CB DSNT E-SE SLP168
2001 08 24 06 METAR CYVR 240600Z 12006KT 15SM FEW012 FEW050 BKN080 14/12 A3004 RMK SF1SC2AC3 SLP172
2001 08 24 07 METAR CYVR 240700Z 10009KT 15SM FEW012 FEW064 BKN072 OVC090 14/12 A3006 RMK SF1SC2AC5AC1 SLP178
2001 08 24 08 METAR CYVR 240800Z 09009KT 15SM FEW012 FEW064 BKN078 OVC090 14/12 A3007 RMK SF1SC2AC4AC2 SLP182
2001 08 24 09 METAR CYVR 240900Z 13008KT 15SM FEW012 SCT064 BKN082 14/13 A3007 RMK SF1SC2AC4 SLP183
2001 08 24 10 METAR CYVR 241000Z 10006KT 15SM FEW012 FEW080 SCT100 13/12 A3009 RMK SF1AC2AC1 SLP188
2001 08 24 11 METAR CYVR 241100Z 07007KT 15SM FEW012 SCT080 BKN098 13/12 A3010 RMK SF1AC2AC3 SLP192
2001 08 24 12 METAR CYVR 241200Z 10006KT 15SM -SHRA FEW012 BKN084 13/12 A3010 RMK SF1AC4 SLP191
2001 08 24 13 METAR CYVR 241300Z 11008KT 15SM FEW012 BKN059 BKN085 13/12 A3010 RMK SF2SC4AC1 SLP194
2001 08 24 14 METAR CYVR 241400Z 09008KT 15SM FEW012 SCT059 BKN085 13/12 A3013 RMK SF1SC3AC2 SLP201
2001 08 24 15 METAR CYVR 241500Z 09008KT 15SM FEW012 BKN052 BKN085 15/13 A3013 RMK SF1SC4AC2 SLP204
2001 08 24 16 METAR CYVR 241600Z 11008KT 15SM SCT012 BKN047 BKN085 15/13 A3015 RMK SF3SC3AC1 SLP210
2001 08 24 17 METAR CYVR 241700Z 14008KT 15SM SCT012 BKN050 BKN077 16/13 A3016 RMK SF3SC2AC2 SLP213
2001 08 24 18 METAR CYVR 241800Z 17006KT 15SM FEW012 SCT050 BKN077 BKN250 17/13 A3017 RMK SF2CU2AC2CI1 SLP216
2001 08 24 19 METAR CYVR 241900Z 16009KT 20SM FEW012 FEW050TCU SCT100 BKN250 18/13 A3017 RMK CF1TCU2AC2CI0 SLP217
2001 08 24 20 METAR CYVR 242000Z 14005KT 20SM FEW040TCU SCT080 BKN100 19/13 A3017 RMK TCU2AC2AC2 SLP217
2001 08 24 21 METAR CYVR 242100Z 18006KT 20SM FEW040 BKN092 BKN250 20/13 A3017 RMK CU2AC2CI0 SLP215
2001 08 24 22 METAR CYVR 242200Z 23008KT 30SM FEW040 SCT092 BKN250 21/12 A3016 RMK CU2AC2CI0 SLP212
2001 08 24 23 METAR CYVR 242300Z 18002KT 30SM FEW040 SCT090 BKN250 20/10 A3015 RMK CU2AC2CI2 SLP208
2001 08 25 00 METAR CYVR 250000Z 27004KT 30SM FEW040 BKN090 BKN220 19/12 A3013 RMK SC2AC4CI1 SLP204
2001 08 25 01 METAR CYVR 250100Z 00000KT 30SM FEW040 SCT090 BKN120 19/11 A3013 RMK SC1AC2AC4 SLP202
2001 08 25 02 METAR CYVR 250200Z 31004KT 30SM FEW060 SCT090 BKN110 18/12 A3013 RMK SC1AC2AC4 SLP203
2001 08 25 03 METAR CYVR 250300Z 36002KT 30SM FEW060 SCT075 BKN110 18/11 A3013 RMK SC1AC2AC4 SLP202
2001 08 25 04 METAR CYVR 250400Z 04004KT 30SM FEW060 FEW075 BKN110 18/11 A3013 RMK SC1AC2AC5 SLP201
2001 08 25 05 METAR CYVR 250500Z 01003KT 30SM FEW060 SCT075 BKN110 17/13 A3013 RMK SC1AC3AC3 SLP202
2001 08 25 06 METAR CYVR 250600Z 07002KT 30SM FEW075 BKN120 BKN230 16/12 A3013 RMK AC2AC4CI1 SLP202
2001 08 25 07 METAR CYVR 250700Z 07002KT 30SM FEW070 BKN120 BKN230 15/11 A3013 RMK AC2AC4CI2 SLP203
2001 08 25 08 METAR CYVR 250800Z 06003KT 30SM FEW070 SCT120 BKN240 15/11 A3014 RMK AC2AC2CI2 SLP205
2001 08 25 09 METAR CYVR 250900Z 06003KT 30SM FEW070 SCT120 OVC240 15/10 A3013 RMK AC2AC2CI3 SLP203
2001 08 25 10 METAR CYVR 251000Z 10002KT 30SM FEW070 FEW120 SCT160 BKN240 14/11 A3013 RMK AC1AC2AC2CI2 SLP203
2001 08 25 11 METAR CYVR 251100Z 08003KT 30SM FEW080 FEW150 BKN240 14/10 A3014 RMK AC1AC2CI2 SLP206
2001 08 25 12 METAR CYVR 251200Z 36002KT 30SM FEW070 FEW150 BKN240 13/10 A3014 RMK AC1AC1CI2 SLP206
2001 08 25 13 METAR CYVR 251300Z 11005KT 30SM FEW070 FEW150 BKN230 13/10 A3013 RMK AC1AC1CS3 SLP202
2001 08 25 14 METAR CYVR 251400Z 11003KT 30SM FEW090 SCT150 BKN230 13/11 A3014 RMK AC1AC2CS2 SLP205
2001 08 25 15 METAR CYVR 251500Z 36002KT 30SM FEW090 SCT150 BKN230 15/11 A3014 RMK AC1AC2CS2 SLP207
2001 08 25 16 METAR CYVR 251600Z 09002KT 30SM FEW090 FEW150 BKN250 17/11 A3014 RMK AC1AC2CS3 SLP206
2001 08 25 17 METAR CYVR 251700Z 34004KT 30SM FEW065 SCT150 BKN250 18/11 A3013 RMK SC1AC2CS1 SLP201
2001 08 25 18 METAR CYVR 251800Z 27007KT 30SM SCT150 BKN250 17/11 A3013 RMK AC3CI1 SLP201
2001 08 25 19 METAR CYVR 251900Z 31010KT 30SM FEW060 FEW150 BKN200 BKN250 19/13 A3011 RMK SC1AC1CS3CI1 HALO. SLP195
2001 08 25 20 METAR CYVR 252000Z 28009KT 30SM FEW150 BKN200 BKN250 18/14 A3010 RMK AC2CS3CI1 SLP194
2001 08 25 21 METAR CYVR 252100Z 30009KT 30SM FEW150 BKN180 BKN250 18/13 A3009 RMK AC2AC3CI1 SLP190
2001 08 25 22 METAR CYVR 252200Z 31009KT 30SM FEW150 BKN180 OVC250 18/12 A3008 RMK AC2AC4CI2 SLP184
2001 08 25 23 METAR CYVR 252300Z 31008KT 30SM FEW140 BKN190 OVC250 18/13 A3005 RMK AC2AS3CI2 SLP177
2001 08 26 00 METAR CYVR 260000Z 32009KT 30SM FEW140 BKN190 BKN250 18/13 A3003 RMK AC2AS2CI2 SLP170
2001 08 26 01 METAR CYVR 260100Z 30008KT 30SM FEW140 BKN180 BKN250 18/14 A3002 RMK AC2AC3CI2 SLP166
2001 08 26 02 METAR CYVR 260200Z 30010KT 30SM FEW140 SCT180 BKN210 18/14 A3000 RMK AC1AC2CI0 SLP158
2001 08 26 03 METAR CYVR 260300Z 31010KT 30SM FEW120 FEW190 SCT240 16/14 A2999 RMK AC1AC1CI1 SLP156
2001 08 26 04 METAR CYVR 260400Z 32011KT 30SM FEW180 FEW240 16/14 A3000 RMK AC1CI1 SLP159
2001 08 26 05 METAR CYVR 260500Z 31010KT 30SM FEW180 FEW240 16/14 A2999 RMK AC1CI1 SLP156
2001 08 26 06 METAR CYVR 260600Z 30010KT 30SM FEW180 FEW240 16/14 A2999 RMK AC1CI1 SLP156
2001 08 26 07 METAR CYVR 260700Z 31012KT 30SM FEW240 15/14 A3000 RMK CI1 SLP159
2001 08 26 08 METAR CYVR 260800Z 32010KT 30SM FEW240 15/14 A3000 RMK CI1 SLP159
2001 08 26 09 METAR CYVR 260900Z 33005KT 30SM SKC 14/13 A3000 RMK SLP158
2001 08 26 10 METAR CYVR 261000Z 15003KT 30SM SKC 15/14 A3000 RMK SLP157
2001 08 26 11 METAR CYVR 261100Z 06002KT 30SM SKC 12/11 A3001 RMK SLP163
2001 08 26 12 METAR CYVR 261200Z 07005KT 30SM FEW240 12/11 A3001 RMK CI1 SLP163
2001 08 26 13 METAR CYVR 261300Z 10004KT 30SM MIFG FEW150 SCT240 13/12 A3002 RMK AC2CI1 SLP165
2001 08 26 14 METAR CYVR 261400Z 14003KT 30SM FEW150 SCT250 13/12 A3003 RMK AC1CI2 SLP169
2001 08 26 15 METAR CYVR 261500Z 13005KT 30SM FEW150 SCT240 15/13 A3005 RMK AC1CI2 SLP176
2001 08 26 16 METAR CYVR 261600Z 11004KT 30SM FEW150 SCT240 17/14 A3005 RMK AC1CI1 FG BNK DSNT S SLP175
2001 08 26 17 METAR CYVR 261700Z 11008KT 30SM FEW150 FEW240 18/15 A3005 RMK AC1CI1 TR AC VIS S QUAD 8 FG BNK SLP175
2001 08 26 18 METAR CYVR 261800Z 14008KT 30SM FEW015 FEW240 19/15 A3005 RMK SF1CI1 F BNK SE-NW OVR WATER SLP177
2001 08 26 19 METAR CYVR 261900Z 16007KT 30SM FEW015 FEW250 20/14 A3005 RMK SF1CI1 F BNK SW-NW OVR WATER SLP176
2001 08 26 20 METAR CYVR 262000Z 23008KT 30SM FEW250 22/15 A3004 RMK CI1 SLP171
2001 08 26 21 METAR CYVR 262100Z 23007G20KT 30SM FEW250 22/16 A3003 RMK CI1 SLP170
2001 08 26 22 METAR CYVR 262200Z 26006KT 30SM FEW250 22/16 A3002 RMK CI0 SLP164
2001 08 26 23 METAR CYVR 262300Z 27005KT 30SM FEW250 20/16 A3001 RMK CI0 SLP162
2001 08 27 00 METAR CYVR 270000Z 25003KT 30SM FEW160 FEW250 21/14 A2999 RMK AC0CI0 AC/CI TR SLP155
2001 08 27 01 METAR CYVR 270100Z 24005KT 30SM FEW160 FEW250 21/16 A2998 RMK AC0CI0 SLP152
2001 08 27 02 METAR CYVR 270200Z 21002KT 30SM FEW250 21/15 A2997 RMK CI0 SLP150
2001 08 27 03 METAR CYVR 270300Z 00000KT 30SM FEW250 19/15 A2998 RMK CI0 SLP152
2001 08 27 05 METAR CYVR 270500Z 09006KT 30SM FEW250 16/13 A3001 RMK CI0 SLP162
2001 08 27 06 METAR CYVR 270600Z 10005KT 30SM FEW250 17/13 A3002 RMK CI0 SLP167
2001 08 27 07 METAR CYVR 270700Z 12007KT 30SM FEW250 17/13 A3004 RMK CI1 SLP171
2001 08 27 08 METAR CYVR 270800Z 10009KT 30SM FEW250 15/12 A3006 RMK CI1 SLP178
2001 08 27 09 METAR CYVR 270900Z 12007KT 30SM FEW060 14/12 A3007 RMK SC1 SLP183
2001 08 27 10 METAR CYVR 271000Z 11008KT 30SM SKC 15/12 A3008 RMK SLP184
2001 08 27 11 METAR CYVR 271100Z 13008KT 30SM SKC 14/12 A3010 RMK SLP191
2001 08 27 12 METAR CYVR 271200Z 11008KT 30SM FEW250 13/11 A3011 RMK CI1 SLP195
2001 08 27 13 METAR CYVR 271300Z 11009KT 30SM FEW060 FEW130 BKN270 12/10 A3012 RMK SC1AC1CI0 SLP198
2001 08 27 14 METAR CYVR 271400Z 11011KT 30SM FEW090 SCT220 BKN280 14/11 A3013 RMK AC1CI2CI0 SLP203
2001 08 27 15 METAR CYVR 271500Z 10010KT 30SM FEW090 SCT170 BKN280 15/12 A3014 RMK AC1AC3CI0 SLP207
2001 08 27 16 METAR CYVR 271600Z 11013KT 30SM FEW090 SCT170 BKN280 16/13 A3015 RMK AC1AC3CI0 SLP209
2001 08 27 17 METAR CYVR 271700Z 11012G17KT 30SM FEW072 SCT170 BKN280 18/13 A3016 RMK AC2AC2CI0 SLP213
2001 08 27 18 METAR CYVR 271800Z 13009KT 30SM FEW055 FEW070 SCT130 BKN280 19/14 A3016 RMK CF1AC2AC2CI1 SLP213
2001 08 27 19 METAR CYVR 271900Z 13007KT 30SM FEW055 SCT070 BKN140 BKN280 21/13 A3016 RMK CF1AC4AC2CI0 SLP212
2001 08 27 20 METAR CYVR 272000Z 15012KT 30SM FEW055 BKN070 BKN140 BKN280 21/12 A3015 RMK CF1AC5AC2CI0 ACC EMBDD SLP211
2001 08 27 21 METAR CYVR 272100Z 14008KT 30SM FEW055 SCT060 BKN080 BKN140 BKN280 21/13 A3015 RMK CU1SC3AC2AC2CI1 SLP208
2001 08 27 22 METAR CYVR 272200Z 14009KT 20SM FEW049 FEW062 BKN095 BKN190 OVC260 21/12 A3013 RMK CF1SC2AC2AC2CC1 ACC EMBDD SLP203
2001 08 27 22 METAR CYVR 272200Z 14009KT 20SM FEW049 FEW062 BKN095 BKN190 OVC260 21/12 A3013 RMK CF1SC2AC2AC2CC1 ACC EMBDD SLP203
2001 08 28 00 METAR CYVR 280000Z 22006KT 20SM FEW044 FEW057 SCT078 BKN180 OVC260 22/13 A3010 RMK CU1SC1AC3AC2CI1 ACC ASOCTD BINOVC E TR CU SLP194
2001 08 28 01 METAR CYVR 280100Z 23007KT 20SM FEW044 FEW065 SCT100 BKN160 OVC240 21/14 A3010 RMK CU1SC2AC2AC2CI1 ACC ASOCTD BINOVC TR CU SLP192
2001 08 28 02 METAR CYVR 280200Z 28005KT 20SM FEW040 FEW062 SCT096 BKN140 OVC250 19/14 A3010 RMK SC1SC2AC2AC2CI2 ACC ASOCTD SHRA W-NW SLP192
2001 08 28 03 METAR CYVR 280300Z 32007KT 20SM FEW040 FEW058 SCT089 BKN140 OVC250 18/13 A3010 RMK SC1SC2AC2AC2CI2 ACC ASOCTD CIG+VSBY LWR W SLP193
2001 08 28 04 METAR CYVR 280400Z 31009KT 20SM FEW030 FEW057 BKN070 BKN120 OVC240 17/15 A3011 RMK SF1SC2AC2AC2CI2 VIRGA N TR SF SLP197
2001 08 28 05 METAR CYVR 280500Z 33005KT 10SM -SHRA FEW016 SCT030 BKN054 BKN070 OVC110 17/15 A3011 RMK SF2SC2SC2AC2AC2 BR PTCHS ALQDS CIG+VSBY LWR N SLP196
2001 08 28 06 METAR CYVR 280600Z 36003KT 6SM -SHRA BR FEW013 SCT033 BKN040 BKN070 OVC120 16/15 A3011 RMK ST2SC2SC2AC2AC2 SLP196
2001 08 28 07 METAR CYVR 280700Z 02002KT 10SM -SHRA FEW015 SCT035 BKN048 OVC120 17/16 A3009 RMK SF1SC2SC3AC2 SLP190
2001 08 28 08 METAR CYVR 280800Z 29004KT 8SM -SHRA FEW015 BKN036 BKN050 OVC120 17/16 A3010 RMK SF1SC4SC2AC2 SLP191
2001 08 28 09 METAR CYVR 280900Z 29004KT 8SM -SHRA FEW015 SCT022 BKN036 BKN050 OVC120 16/16 A3010 RMK SF1SF2SC2SC1AC2 SLP191
2001 08 28 10 METAR CYVR 281000Z 30007KT 8SM FEW015 BKN025 BKN050 OVC120 16/16 A3010 RMK SF2SF3SC2AC2 SLP192
2001 08 28 11 METAR CYVR 281100Z 31006KT 8SM FEW003 BKN016 OVC070 16/15 A3009 RMK SF2SF3AC2 SLP190
2001 08 28 12 METAR CYVR 281200Z 31006KT 10SM FEW004 SCT015 BKN059 16/15 A3009 RMK SF1SF2SC2 SLP188
2001 08 28 13 METAR CYVR 281300Z 31006KT 5SM BR SCT002 BKN038 OVC060 16/15 A3008 RMK SF4SC2SC2 VSBY N-NE 2 S-W 8 SLP187
2001 08 28 14 METAR CYVR 281400Z 32009KT 8SM BKN004 BKN038 16/15 A3009 RMK SF6SC2 VSBY N-E 4 SLP189
2001 08 28 15 METAR CYVR 281500Z 30010KT 8SM FEW002 OVC003 16/15 A3010 RMK SF2SF6 VSBY LWR N SLP192
2001 08 28 16 METAR CYVR 281600Z 31008KT 8SM FEW002 OVC004 17/16 A3009 RMK SF2SF6 VSBY HIR NE SLP190
2001 08 28 17 METAR CYVR 281700Z 31010KT 8SM SCT003 BKN007 17/16 A3010 RMK SF3SF4 SLP191
2001 08 28 18 METAR CYVR 281800Z 30010KT 8SM SCT004 BKN007 17/16 A3010 RMK SF3SF4 SLP193
2001 08 28 19 METAR CYVR 281900Z 30010KT 10SM FEW004 BKN009 BKN056 18/16 A3010 RMK SF2SF3SC2 SLP191
2001 08 28 20 METAR CYVR 282000Z 30010KT 12SM FEW003 FEW009 FEW058 19/17 A3008 RMK CF1CU1SC1 VSBY HIR SW-W MDT CU ASOCTD SLP186
2001 08 28 21 METAR CYVR 282100Z 30012KT 20SM FEW015 FEW050 20/16 A3008 RMK CU1SC1 TR CLD SLP184
2001 08 28 22 METAR CYVR 282200Z 30011KT 20SM FEW015 SCT050 20/17 A3006 RMK CU2SC2 TCU TOPS ALQDS SLP180
2001 08 28 23 METAR CYVR 282300Z 30010KT 30SM FEW030 FEW045 20/16 A3004 RMK CF1CU2 TCU TOPS W-E SLP172
2001 08 29 00 METAR CYVR 290000Z 30011KT 30SM FEW040 FEW050TCU SCT240 20/16 A3003 RMK CU1TCU1CI1 SLP168
2001 08 29 01 METAR CYVR 290100Z 30009KT 30SM FEW045 FEW240 20/16 A3001 RMK CU1CI0 SLP162
2001 08 29 02 METAR CYVR 290200Z 30005KT 30SM FEW045 FEW240 19/16 A2999 RMK CU1CI0 SLP156
2001 08 29 03 METAR CYVR 290300Z 29006KT 30SM FEW240 17/15 A2998 RMK CI1 SLP152
2001 08 29 04 METAR CYVR 290400Z 29008KT 30SM FEW240 18/15 A2999 RMK CI2 SLP154
2001 08 29 05 METAR CYVR 290500Z 29007KT 30SM FEW240 17/15 A2998 RMK CI1 SLP152
2001 08 29 06 METAR CYVR 290600Z 30007KT 30SM SKC 17/15 A2998 RMK SLP151
2001 08 29 07 METAR CYVR 290700Z 01002KT 30SM FEW100 FEW240 16/15 A2997 RMK AC1CI0 SLP150
2001 08 29 08 METAR CYVR 290800Z 32002KT 30SM FEW240 16/14 A2998 RMK CI0 SLP151
2001 08 29 09 METAR CYVR 290900Z 00000KT 30SM FEW240 15/14 A2997 RMK CI0 SLP150
2001 08 29 10 METAR CYVR 291000Z 00000KT 30SM FEW240 15/14 A2997 RMK CI0 SLP150
2001 08 29 11 METAR CYVR 291100Z 00000KT 30SM FEW240 15/14 A2997 RMK CI0 SLP149
2001 08 29 12 METAR CYVR 291200Z 33002KT 20SM MIFG FEW240 14/12 A2997 RMK CI0 SLP149
2001 08 29 13 METAR CYVR 291300Z 32003KT 20SM PRFG FEW002 FEW015 SCT038 SCT240 15/14 A2997 RMK SF1SF1SC2CI1 FG BNK W VSBY W 3/4 REST OF FIELD MIFG SLP150
2001 08 29 14 METAR CYVR 291400Z 34002KT 20SM FEW002 SCT038 SCT240 15/15 A2998 RMK SF1SC2CI1 VSBY N-NE 2 IN LOW CLD SLP152
2001 08 29 15 METAR CYVR 291500Z 30003KT 20SM FEW002 SCT005 BKN038 17/16 A2998 RMK ST2SF2SC4 VSBY N 2 IN LO CLD SLP151
2001 08 29 16 METAR CYVR 291600Z 30006KT 10SM SCT004 BKN035 BKN240 17/16 A2998 RMK SF4SC1CI1 SLP151
2001 08 29 17 METAR CYVR 291700Z 28006KT 10SM FEW002 SCT004 17/16 A2998 RMK SF2SF2 VSBY W-N 2 SLP152
2001 08 29 18 METAR CYVR 291800Z 29007KT 10SM FEW002 BKN004 17/16 A2997 RMK SF2SF5 VSBY NW 2 IN LO CLD SLP150
2001 08 29 19 METAR CYVR 291900Z 27008KT 20SM FEW004 FEW035 SCT240 19/17 A2996 RMK SF2CU1CI2 TR CU SLP145
2001 08 29 20 METAR CYVR 292000Z 29008KT 20SM FEW003 FEW035 FEW240 19/16 A2995 RMK SF1CU1CI2 TR CU SLP142
2001 08 29 21 METAR CYVR 292100Z 29007KT 30SM PRFG FEW001 FEW003 FEW035 BKN240 18/16 A2994 RMK SF2SF1CU1CI2 VSBY W 1 1/2 IN FG SLP137
2001 08 29 22 METAR CYVR 292200Z 31004KT 30SM PRFG FEW003 FEW035 BKN240 18/16 A2992 RMK FG1SF1CU1CI2 VSBY S-W 1/2 W-NW 11/2 SLP131
2001 08 29 23 METAR CYVR 292300Z 30007KT 30SM PRFG FEW003 FEW040 BKN240 19/16 A2990 RMK FG1SF1CU1CI2 VSBY SW-NW 2 HZ E SLP125
2001 08 30 00 METAR CYVR 300000Z 30006KT 30SM FEW040 BKN240 20/17 A2988 RMK CU1CI2 HZ E SLP117
2001 08 30 01 METAR CYVR 300100Z 31004KT 30SM FEW040 BKN240 20/16 A2986 RMK CU1CI2 4 COTRA HZ E SLP111
2001 08 30 02 METAR CYVR 300200Z 29004KT 30SM FEW040 SCT220 BKN240 18/16 A2984 RMK CU1CI1CI2 3 COTRA HZ E SLP105
2001 08 30 03 METAR CYVR 300300Z 00000KT 30SM FEW040 SCT220 BKN240 18/16 A2983 RMK CU1CI2CI2 TR CU HZ E COTRA SLP102
2001 08 30 04 METAR CYVR 300400Z 00000KT 30SM SCT220 BKN240 18/16 A2983 RMK CI2CI2 SLP102
2001 08 30 05 METAR CYVR 300500Z 17004KT 20SM SCT220 BKN240 18/16 A2983 RMK CI2CI2 SLP101
2001 08 30 06 METAR CYVR 300600Z 18002KT 20SM MIFG SCT220 BKN240 17/16 A2983 RMK CI2CI2 SLP101
2001 08 30 07 METAR CYVR 300700Z 09002KT 30SM BKN270 16/15 A2983 RMK CI0 SLP102
2001 08 30 08 METAR CYVR 300800Z 10005KT 30SM BKN270 15/15 A2983 RMK CI2 SLP102
2001 08 30 09 METAR CYVR 300900Z 11004KT 30SM BKN270 15/14 A2983 RMK CI5 MIFG SLP102
2001 08 30 10 METAR CYVR 301000Z 11003KT 30SM OVC270 15/14 A2983 RMK CI4 MIFG SLP102
2001 08 30 11 METAR CYVR 301100Z 10004KT 30SM FEW220 BKN270 14/14 A2983 RMK CI2CI0 MIFG SLP101
2001 08 30 12 METAR CYVR 301200Z 11005KT 30SM FEW220 BKN270 14/13 A2983 RMK CI1CI0 MIFG SLP101
2001 08 30 13 METAR CYVR 301300Z 11004KT 30SM FEW220 FEW270 14/13 A2984 RMK CC0CI0 MIFG SLP103
2001 08 30 14 METAR CYVR 301400Z 14005KT 30SM FEW130 FEW220 BKN270 15/14 A2984 RMK AC1CC0CI0 SLP105
2001 08 30 15 METAR CYVR 301500Z 09007KT 30SM FEW040 FEW130 SCT220 BKN270 16/14 A2985 RMK SC1AC1CC0CI1 F BNK DSTN N OVR CITY SLP108
2001 08 30 16 METAR CYVR 301600Z 13008KT 30SM FEW043 FEW130 SCT220 BKN270 17/02 A2985 RMK SC1AC1CC0CI0 HZ SLP109
2001 08 30 17 METAR CYVR 301700Z 13008KT 30SM FEW130 SCT220 BKN270 18/15 A2987 RMK AC1CI1CI1 SLP113
2001 08 30 18 METAR CYVR 301800Z 12010KT 30SM FEW130 SCT220 BKN270 20/16 A2986 RMK AC2CC0CI1 HZ SLP111
2001 08 30 19 METAR CYVR 301900Z 15012KT 30SM FEW052 FEW083 SCT130 SCT220 OVC270 20/15 A2987 RMK CU1AC1AC1CC1CI1 SLP115
2001 08 30 20 METAR CYVR 302000Z 14012KT 30SM FEW053 SCT091 BKN120 BKN270 20/14 A2987 RMK CU1AC1AC2CI1 SLP115
2001 08 30 21 METAR CYVR 302100Z 13007KT 30SM FEW053 BKN074 BKN120 BKN270 21/15 A2988 RMK CU1AC4AC1CI0 SLP119
2001 08 30 22 METAR CYVR 302200Z 13005KT 30SM BKN068 BKN270 23/13 A2987 RMK AC5CI1 ACC ASOCTD SLP116
2001 08 30 23 METAR CYVR 302300Z 10007KT 30SM FEW060 BKN090 BKN140 BKN270 22/11 A2986 RMK SC2AC3AC2CI1 ACC ASOCTD. SLP112
2001 08 31 00 METAR CYVR 310000Z 10007KT 30SM FEW060 FEW090 BKN120 BKN270 22/13 A2986 RMK SC2AC1AC3CI1 CU ASOCTD LWR LYR. TR LWR AC. SLP111
2001 08 31 01 METAR CYVR 310100Z 11007KT 30SM VCSH FEW065 SCT090 SCT120 BKN270 22/13 A2985 RMK SC2AC1AC1CI1 TCU EMBDD. ACC+CC ASOCTD. SHWRS NW+NE. SLP108
2001 08 31 02 METAR CYVR 310200Z 11008KT 30SM VCSH SCT065 BKN120 BKN270 22/14 A2984 RMK SC3AC2CI1 TCU EMBDD. ACC ASOCTD. SHWRS N. SLP105
2001 08 31 03 METAR CYVR 310300Z 12006KT 30SM FEW040 FEW055 BKN064 BKN120 BKN270 22/13 A2983 RMK CF1SC2SC3ACC1CI1 TCU EMBDD. SLP101
2001 08 31 04 METAR CYVR 310400Z 13005KT 30SM FEW025 BKN045 BKN064 BKN120 BKN270 21/14 A2983 RMK SC1SC6SC1AC1CI0 TR LWR SC OVR STRTS. SLP102
2001 08 31 05 METAR CYVR 310500Z 13007KT 30SM BKN047 BKN120 BKN270 20/13 A2983 RMK SC6AC1CI1 SLP101
2001 08 31 06 METAR CYVR 310600Z 10010KT 30SM BKN050 BKN120 BKN270 19/13 A2982 RMK SC5AC1CI1 SLP099
2001 08 31 07 METAR CYVR 310700Z 12007KT 30SM BKN047 BKN120 OVC270 18/13 A2983 RMK SC6AC2CI1 SLP101
2001 08 31 08 METAR CYVR 310800Z 11010KT 15SM -SHRA BKN050 BKN080 BKN220 16/14 A2983 RMK SC5AC2CI1 SLP102
2001 08 31 09 METAR CYVR 310900Z 10008KT 15SM SCT052 OVC090 16/14 A2984 RMK SC4AC4 SLP106
2001 08 31 10 METAR CYVR 311000Z 10009KT 20SM BKN047 OVC090 16/14 A2984 RMK SC6AC2 SLP106
2001 08 31 11 METAR CYVR 311100Z 10010KT 20SM BKN048 OVC090 16/14 A2985 RMK SC7AC1 SLP109
2001 08 31 12 METAR CYVR 311200Z 10009KT 20SM SCT050 BKN090 BKN220 16/14 A2987 RMK SC3AC2CI0 SLP114
2001 08 31 13 METAR CYVR 311300Z 09009KT 30SM FEW055 FEW110 SCT240 15/14 A2987 RMK SC1AC1CI0 SLP116
2001 08 31 14 METAR CYVR 311400Z 10008KT 30SM FEW055 FEW110 FEW240 15/13 A2989 RMK SC1AC1CI0 SLP123
2001 08 31 15 METAR CYVR 311500Z 13006KT 30SM FEW054 SCT100 SCT240 17/14 A2991 RMK SC1AC1CI0 SLP127
2001 08 31 16 METAR CYVR 311600Z 18007KT 30SM BKN047 BKN100 BKN240 18/14 A2992 RMK SC5AC1CI1 SLP132
2001 08 31 17 METAR CYVR 311700Z 19008KT 30SM SCT040 BKN100 BKN240 19/12 A2993 RMK SC3AC2CI0 TCU ASOCTD DSNT NW-NE SLP134
2001 08 31 18 METAR CYVR 311800Z 18011KT 30SM FEW046 SCT100 OVC250 20/12 A2994 RMK CU2AC1CI1 TCU ASOCTD SLP139
2001 08 31 19 METAR CYVR 311900Z 16011G18KT 30SM BKN047 BKN100 OVC250 20/12 A2994 RMK CU5AC1CI0 SLP138
2001 08 31 20 METAR CYVR 312000Z 19012KT 30SM SCT044 BKN100 OVC250 20/11 A2994 RMK CU3AC2CI1 SLP137
2001 08 31 21 METAR CYVR 312100Z 21002KT 30SM FEW045 SCT100 BKN250 20/12 A2994 RMK CU2AC2CI1 SLP139
2001 08 31 22 METAR CYVR 312200Z 17010G15KT 30SM FEW045 SCT100 BKN250 21/11 A2994 RMK CU2AC2CI1 SLP138
2001 08 31 23 METAR CYVR 312300Z 18009KT 30SM BKN048 BKN100 BKN220 20/11 A2993 RMK CU5AC1CI0 SLP136
2001 09 01 00 METAR CYVR 010000Z CCA 13006KT 30SM BKN040 OVC058 19/11 A2992 RMK SC5SC3 SHWRS MNTS N SLP130
2001 09 01 01 METAR CYVR 010100Z 18003KT 30SM SCT043 BKN080 OVC200 19/12 A2990 RMK SC3AC1CI2 SLP124
2001 09 01 02 METAR CYVR 010200Z 16002KT 30SM SCT045 BKN068 OVC200 19/12 A2989 RMK SC3AC2CI1 SLP121
2001 09 01 03 METAR CYVR 010300Z 22004KT 30SM -SHRA FEW038 OVC059 18/15 A2988 RMK SC2SC6 CIG+VSBY LWR W-NW SLP119
2001 09 01 04 METAR CYVR 010400Z 13004KT 15SM -SHRA FEW025 OVC050 17/14 A2987 RMK SF2SC6 SLP113
2001 09 01 05 METAR CYVR 010500Z 08003KT 15SM -SHRA FEW025 BKN050 OVC068 16/15 A2985 RMK SF1SC6AC1 SLP109
2001 09 01 06 METAR CYVR 010600Z 10008KT 20SM FEW030 OVC056 16/14 A2982 RMK SF2SC6 SLP098
2001 09 01 07 METAR CYVR 010700Z 09008KT 15SM SCT030 BKN050 OVC070 16/14 A2980 RMK SC3SC3AC2 SLP090
2001 09 01 08 METAR CYVR 010800Z 10009KT 15SM FEW030 OVC050 16/14 A2979 RMK SC2SC6 OCNL -SHRA SLP087
2001 09 01 09 METAR CYVR 010900Z 13012KT 3SM -RA BR FEW025 OVC048 15/14 A2978 RMK SC2SC6 SLP084
2001 09 01 10 METAR CYVR 011000Z 14012KT 6SM -RA BR FEW025 BKN045 OVC064 15/14 A2977 RMK SC2SC5SC2 SLP081
2001 09 01 11 METAR CYVR 011100Z 14007KT 8SM -RA FEW020 SCT030 BKN045 OVC120 15/14 A2977 RMK SF2SC2SC3AC1 SLP082
2001 09 01 12 METAR CYVR 011200Z 18009KT 8SM -RA FEW009 SCT035 BKN078 OVC090 15/14 A2977 RMK SF1SC2AC3AC2 SLP081
2001 09 01 13 METAR CYVR 011300Z 22008G16KT 12SM -RA FEW009 SCT035 BKN068 OVC085 15/11 A2978 RMK SF1SC2AC4AC2 SLP083
2001 09 01 14 METAR CYVR 011400Z 13006KT 15SM FEW009 BKN045 BKN085 15/13 A2979 RMK SF1SC5AC2 SLP089
2001 09 01 15 METAR CYVR 011500Z 13007KT 15SM FEW009 BKN045 BKN100 BKN180 15/13 A2981 RMK SF1SC4AC2CI0 SLP095
2001 09 01 16 METAR CYVR 011600Z 13006KT 15SM FEW012 FEW030 SCT080 BKN220 16/13 A2983 RMK SF1SC2AC1CI0 SLP102
2001 09 01 17 METAR CYVR 011700Z 21010KT 20SM FEW012 FEW030 FEW100 SCT220 17/13 A2984 RMK SF1SC1AC1CI0 CU ASOCTD SLP104
2001 09 01 18 METAR CYVR 011800Z 23013G22KT 20SM FEW025 FEW100 FEW220 18/12 A2987 RMK CU1AC1CI0 TCU ASOCTD SLP113
2001 09 01 19 METAR CYVR 011900Z 23011KT 25SM FEW030 FEW080 19/11 A2989 RMK CU1AC1 TCU ASOCTD MTNS N SLP123
2001 09 01 20 METAR CYVR 012000Z 25006KT 25SM FEW040 FEW075 SCT220 19/11 A2992 RMK CU2AC1CI0 TCU ASOCTD MTNS N SLP131
2001 09 01 21 METAR CYVR 012100Z 29006KT 25SM FEW045 FEW070 SCT220 20/11 A2994 RMK SC2AC1CI0 TCU ASOCTD SLP137
2001 09 01 22 METAR CYVR 012200Z 26005KT 30SM FEW045 BKN220 20/10 A2995 RMK CU2CI2 SLP140
2001 09 01 23 METAR CYVR 012300Z 22006KT 30SM FEW045 BKN220 20/09 A2995 RMK CU2CI2 SLP143
2001 09 02 00 METAR CYVR 020000Z 20008KT 30SM FEW045 SCT075 BKN220 20/09 A2996 RMK CU2AC2CI2 SLP145
2001 09 02 01 METAR CYVR 020100Z 20007KT 30SM FEW045 FEW220 20/08 A2996 RMK CU1CI1 SLP145
2001 09 02 02 METAR CYVR 020200Z 21005KT 30SM FEW045 FEW080 SCT220 19/09 A2997 RMK CU1AC1CI1 SLP147
2001 09 02 03 METAR CYVR 020300Z 18006KT 30SM FEW045 FEW080 BKN140 BKN220 18/10 A2996 RMK CU1AC2AS2CI0 SLP146
2001 09 02 04 METAR CYVR 020400Z 22008KT 30SM FEW045 BKN240 18/11 A2998 RMK SC1CI6 SLP152
2001 09 02 05 METAR CYVR 020500Z 26009KT 20SM FEW045 FEW110 BKN230 17/10 A2997 RMK SC1AC1CI6 SLP150
2001 09 02 06 METAR CYVR 020600Z 28008KT 20SM FEW045 FEW110 BKN220 16/11 A2998 RMK SC1AC1CI6 SLP152
2001 09 02 07 METAR CYVR 020700Z 09007KT 20SM FEW045 BKN180 BKN210 14/10 A2998 RMK SC1AC5CI2 TR SC SLP153
2001 09 02 08 METAR CYVR 020800Z 09009KT 20SM FEW080 BKN170 BKN250 14/11 A2998 RMK AC1AC5CI2 TR LWR AC SLP152
2001 09 02 09 METAR CYVR 020900Z 09008KT 20SM FEW190 BKN230 13/10 A2998 RMK CI2CI3 SLP152
2001 09 02 10 METAR CYVR 021000Z 11009KT 20SM FEW190 BKN260 13/10 A2998 RMK CI1CI2 SLP152
2001 09 02 11 METAR CYVR 021100Z 09006KT 20SM FEW170 SCT190 BKN250 12/09 A2998 RMK AC2CI2CI2 SLP152
2001 09 02 12 METAR CYVR 021200Z 09007KT 20SM FEW120 BKN190 BKN260 12/09 A2997 RMK AC1CC5CI2 TR AC SLP148
2001 09 02 13 METAR CYVR 021300Z 07005KT 20SM FEW120 SCT180 SCT260 12/09 A2996 RMK AC1CC3CI1 TR AC SLP146
2001 09 02 14 METAR CYVR 021400Z 09003KT 20SM FEW090 BKN170 BKN250 12/10 A2997 RMK AC1AC4CI2 SLP147
2001 09 02 15 METAR CYVR 021500Z 10005KT 30SM FEW050 FEW080 SCT110 BKN170 BKN250 13/10 A2997 RMK SC1AC1AC2AC2CI1 SLP149
2001 09 02 16 METAR CYVR 021600Z 14004KT 30SM FEW050 SCT085 BKN160 BKN250 14/11 A2997 RMK CU1AC2AC2CI2 SLP149
2001 09 02 17 METAR CYVR 021700Z 11005KT 30SM FEW050 SCT085 BKN160 BKN250 15/12 A2997 RMK SC2AC1AC2CI2 CU ASOCTD. SLP147
2001 09 02 18 METAR CYVR 021800Z 09004KT 30SM FEW050 FEW085 SCT160 BKN220 17/12 A2996 RMK CU1AC1AC2CI2 SLP145
2001 09 02 19 METAR CYVR 021900Z 11004KT 30SM FEW050 BKN160 BKN220 18/10 A2994 RMK CU1AC5CI2 SLP137
2001 09 02 20 METAR CYVR 022000Z 20002KT 30SM FEW042 SCT160 BKN220 19/10 A2994 RMK CU1AC3CI2 SLP137
2001 09 02 21 METAR CYVR 022100Z 21009G17KT 30SM FEW042 BKN160 BKN220 19/11 A2993 RMK CU1AC5CI2 SLP134
2001 09 02 22 METAR CYVR 022200Z 20008KT 30SM FEW040 BKN150 BKN220 19/11 A2992 RMK CU1AC6CI1 SLP131
2001 09 02 23 METAR CYVR 022300Z 15005KT 30SM FEW040 BKN150 BKN220 19/11 A2989 RMK CU1AC6CI2 TR CU SLP123
2001 09 03 00 METAR CYVR 030000Z 10005KT 30SM FEW040 SCT150 BKN220 19/10 A2987 RMK CU1AC4CI2 TR CU SLP115
2001 09 03 01 METAR CYVR 030100Z 14005KT 30SM FEW040 BKN150 BKN200 19/10 A2986 RMK SC1AC5CI2 TR SC SLP111
2001 09 03 02 METAR CYVR 030200Z 12007KT 30SM FEW040 BKN150 BKN220 18/10 A2984 RMK SC1AC6CI2 TR SC SLP106
2001 09 03 03 METAR CYVR 030300Z 12005KT 30SM FEW040 BKN140 OVC200 18/10 A2984 RMK SC1AC6CI2 TR SC SLP103
2001 09 03 04 METAR CYVR 030400Z 12004KT 30SM SCT058 BKN110 OVC200 18/10 A2985 RMK SC3AC4CI1 SLP109
2001 09 03 05 METAR CYVR 030500Z 12005KT 20SM SCT060 OVC100 17/11 A2985 RMK SC4AC4 SLP107
2001 09 03 06 METAR CYVR 030600Z 13005KT 20SM SCT050 OVC090 17/12 A2984 RMK SC4AC4 SLP104
2001 09 03 07 METAR CYVR 030700Z 21006KT 20SM -RA BKN047 OVC095 17/13 A2984 RMK SC5AC3 R- VRY LGT SLP106
2001 09 03 08 METAR CYVR 030800Z 22004KT 20SM -RA BKN043 OVC095 16/12 A2985 RMK SC5AC3 SLP107
2001 09 03 09 METAR CYVR 030900Z 25004KT 20SM -RA BKN043 OVC095 16/10 A2985 RMK SC5AC3 SLP108
2001 09 03 10 METAR CYVR 031000Z 06006KT 20SM -RA SCT042 OVC064 15/12 A2986 RMK SC4SC4 SLP111
2001 09 03 11 METAR CYVR 031100Z 10005KT 15SM -RA OVC053 14/12 A2986 RMK SC8 SLP112
2001 09 03 12 METAR CYVR 031200Z 09009KT 12SM -RA OVC040 14/12 A2987 RMK SC8 SLP115
2001 09 03 13 METAR CYVR 031300Z 14008KT 12SM -RA FEW020 OVC038 14/11 A2992 RMK SF2SC6 SLP132
2001 09 03 14 METAR CYVR 031400Z 09009KT 15SM SCT020 BKN037 OVC220 14/11 A2994 RMK SC4SC3CI0 SLP139
2001 09 03 15 METAR CYVR 031500Z 08006KT 15SM BKN018 BKN038 OVC220 15/12 A2997 RMK SC5SC2CI0 SLP150
2001 09 03 16 METAR CYVR 031600Z 10008KT 15SM SCT018 BKN035 15/12 A3000 RMK SC4SC2 CIG VIS HIER SW SLP157
2001 09 03 17 METAR CYVR 031700Z 12006KT 20SM SCT015 BKN030 16/13 A3002 RMK SC3SC2 SLP166
2001 09 03 18 METAR CYVR 031800Z 13005KT 20SM SCT017 BKN035 17/13 A3004 RMK SC3SC2 SLP171
2001 09 03 19 METAR CYVR 031900Z 11005KT 30SM FEW020 SCT040 BKN220 17/12 A3005 RMK SC2SC2CI0 SLP176
2001 09 03 20 METAR CYVR 032000Z 15008KT 30SM FEW025 SCT045 BKN220 18/12 A3007 RMK SC2SC2CI0 TCU ASOCTD SLP181
2001 09 03 21 METAR CYVR 032100Z 12006KT 30SM FEW025 FEW045 SCT220 18/11 A3007 RMK SC1SC2CI0 SLP182
2001 09 03 22 METAR CYVR 032200Z 16003KT 30SM FEW025 FEW045 SCT220 19/11 A3007 RMK SC1SC2CI0 SLP182
2001 09 03 23 METAR CYVR 032300Z 11005KT 30SM FEW040 SCT200 BKN240 19/10 A3007 RMK SC2CI1CI0 SLP181
2001 09 04 00 METAR CYVR 040000Z 19004KT 30SM FEW030 FEW200 SCT240 19/10 A3006 RMK SC2CI0CI0 SLP180
2001 09 04 01 METAR CYVR 040100Z 17005KT 30SM FEW030 SCT200 BKN240 19/09 A3006 RMK SC1CI0CI1 TR SC SLP179
2001 09 04 02 METAR CYVR 040200Z 19003KT 30SM FEW030 BKN200 18/08 A3005 RMK SC1CI2 TR SC SLP175
2001 09 04 03 METAR CYVR 040300Z 15003KT 30SM FEW030 OVC210 17/08 A3004 RMK SC1CI4 TR SC SLP172
2001 09 04 04 METAR CYVR 040400Z 00000KT 30SM OVC200 16/09 A3004 RMK CI3 SLP173
2001 09 04 05 METAR CYVR 040500Z 04003KT 30SM BKN210 15/10 A3003 RMK CI2 SLP169
2001 09 04 07 METAR CYVR 040700Z 00000KT 30SM FEW160 OVC230 14/10 A3002 RMK AC2CI2 SLP164
2001 09 04 08 METAR CYVR 040800Z 08005KT 30SM BKN180 OVC230 14/10 A3001 RMK AC6CI1 SLP161
2001 09 04 09 METAR CYVR 040900Z 09003KT 30SM BKN160 OVC230 14/10 A3001 RMK AC6CI1 SLP162
2001 09 04 10 METAR CYVR 041000Z 02002KT 30SM OVC160 14/09 A3001 RMK AC8 SLP162
2001 09 04 11 METAR CYVR 041100Z 11003KT 30SM OVC160 14/10 A3000 RMK AC8 SLP158
2001 09 04 12 METAR CYVR 041200Z 00000KT 30SM BKN160 OVC240 13/10 A3001 RMK AC6CI1 SLP161
2001 09 04 13 METAR CYVR 041300Z 00000KT 30SM FEW017 BKN150 OVC240 14/10 A3001 RMK SC2AC5CI1 SLP162
2001 09 04 14 METAR CYVR 041400Z 11003KT 30SM FEW011 SCT018 BKN110 OVC160 13/10 A3002 RMK SF2SC2AC3AC2 SLP166
2001 09 04 15 METAR CYVR 041500Z 10006KT 30SM FEW011 FEW020 BKN110 OVC240 14/11 A3002 RMK SF1SC2AC4CI1 SLP165
2001 09 04 16 METAR CYVR 041600Z 13005KT 30SM FEW011 SCT018 BKN130 OVC240 15/11 A3002 RMK SF1SC2AC3CI1 SLP166
2001 09 04 17 METAR CYVR 041700Z 00000KT 30SM FEW011 SCT018 BKN140 BKN230 16/12 A3004 RMK SF1SC2AC2CI2 SLP171
2001 09 04 18 METAR CYVR 041800Z 24004KT 30SM SCT018 BKN140 BKN240 17/12 A3004 RMK SC3AC2CI2 SLP171
2001 09 04 19 METAR CYVR 041900Z 31003KT 30SM FEW020 SCT140 BKN230 17/13 A3004 RMK SC2AC2CI2 SLP171
2001 09 04 20 METAR CYVR 042000Z 23007KT 30SM FEW020 SCT140 BKN230 17/14 A3004 RMK SC2AC2CI2 SLP171
2001 09 04 21 METAR CYVR 042100Z 24005KT 30SM FEW030 SCT140 BKN230 18/13 A3003 RMK SC2AC2CI2 SLP169
2001 09 04 22 METAR CYVR 042200Z 21008G15KT 30SM FEW038 BKN260 19/11 A3002 RMK CU2CI2 SLP166
2001 09 04 23 METAR CYVR 042300Z 17005KT 30SM FEW042 BKN260 19/10 A3001 RMK CU1CI3 SLP162
2001 09 05 00 METAR CYVR 050000Z 17009KT 30SM FEW025 FEW045 FEW110 SCT260 19/11 A3000 RMK CF1CU1AC1CI1 TR CF AC SLP158
2001 09 05 01 METAR CYVR 050100Z 17006KT 30SM FEW045 FEW110 FEW260 19/10 A2999 RMK CU1AC1CI1 SLP155
2001 09 05 02 METAR CYVR 050200Z 14008KT 30SM FEW045 FEW070 SCT130 SCT260 17/11 A2999 RMK CU1AC1AC3CI0 SLP155
2001 09 05 03 METAR CYVR 050300Z 11007KT 30SM FEW040CB FEW070 SCT150 SCT260 15/11 A2999 RMK CB1AC1AC2CI0 TWR RPRTS LTG DSNT W SLP156
2001 09 05 04 METAR CYVR 050400Z 10008KT 30SM FEW040CB FEW070 FEW150 15/10 A3000 RMK CB1AC1AC2 LTG DSNT W SLP159
2001 09 05 05 METAR CYVR 050500Z 10006KT 30SM FEW070 BKN140 BKN210 14/10 A3001 RMK AC1AC5CI1 SLP161
2001 09 05 06 METAR CYVR 050600Z 34003KT 30SM FEW025 FEW070 BKN120 BKN210 14/10 A3002 RMK CF1AC2AC4CI0 LTG DSNT NW PST HR SLP164
2001 09 05 07 METAR CYVR 050700Z 32013KT 30SM FEW022 SCT070 BKN120 BKN230 15/12 A3002 RMK CF2AC2AC3CI0 SLP167
2001 09 05 08 METAR CYVR 050800Z 35005KT 30SM FEW025 BKN080 BKN120 BKN230 14/10 A3002 RMK CF2AC3AC1CI0 SLP166
2001 09 05 09 METAR CYVR 050900Z 11007KT 30SM FEW030 BKN075 BKN140 BKN230 14/08 A3003 RMK SC2AC3AC1CI0 SLP169
2001 09 05 10 METAR CYVR 051000Z 08002KT 30SM FEW024 SCT080 BKN150 BKN230 12/08 A3005 RMK SC2AC2AC1CI0 SLP174
2001 09 05 11 METAR CYVR 051100Z 11003KT 30SM FEW020 FEW035 BKN090 BKN150 13/08 A3005 RMK SC2SC1AC3AC1 SLP177
2001 09 05 12 METAR CYVR 051200Z 12003KT 30SM SCT022 BKN037 BKN100 13/08 A3006 RMK SC4SC2AC2 SLP180
2001 09 05 13 METAR CYVR 051300Z 12005KT 25SM SCT022 SCT040 BKN095 BKN220 12/08 A3007 RMK SC3SC1AC2CI0 SLP183
2001 09 05 14 METAR CYVR 051400Z 11007KT 25SM FEW020 SCT035 BKN100 BKN220 12/08 A3009 RMK SC2SC2AC2CI0 SLP190
2001 09 05 15 METAR CYVR 051500Z 11006KT 20SM BKN025 BKN100 13/09 A3011 RMK SC5AC2 SLP195
2001 09 05 16 METAR CYVR 051600Z 11005KT 20SM BKN030 BKN100 13/09 A3013 RMK SC6AC1 SLP201
2001 09 05 17 METAR CYVR 051700Z 18003KT 20SM BKN022 BKN035 15/10 A3014 RMK SC6SC1 SLP205
2001 09 05 18 METAR CYVR 051800Z 26003KT 20SM SCT015 BKN022 BKN030 15/10 A3015 RMK SC3SC2SC1 SLP210
2001 09 05 19 METAR CYVR 051900Z 28014KT 20SM BKN030 BKN045 15/11 A3016 RMK SC5SC0 SLP213
2001 09 05 20 METAR CYVR 052000Z 29009KT 20SM FEW030 BKN045 16/11 A3016 RMK SC2SC1 SLP212
2001 09 05 21 METAR CYVR 052100Z 27009KT 25SM FEW030 SCT220 17/12 A3016 RMK SC2CI0 TCU ASOCTD SLP212
2001 09 05 22 METAR CYVR 052200Z 30005KT 30SM FEW030 FEW220 17/12 A3015 RMK SC1CI0 TCU TOPS N-NE SLP210
2001 09 05 23 METAR CYVR 052300Z 25005KT 30SM FEW030 FEW220 17/11 A3015 RMK SC1CI1 TCU ASOCTD SLP209
2001 09 06 00 METAR CYVR 060000Z 25006KT 30SM FEW030 FEW220 17/10 A3015 RMK SC1CI1 TCU ASOCTD SLP208
2001 09 06 01 METAR CYVR 060100Z 25005KT 30SM FEW030 FEW220 17/11 A3014 RMK SC1CI1 SLP207
2001 09 06 02 METAR CYVR 060200Z 21006KT 30SM FEW030 FEW220 17/10 A3014 RMK SC1CI1 SLP206
2001 09 06 03 METAR CYVR 060300Z 16004KT 30SM FEW030 FEW220 16/10 A3015 RMK SC1CI1 SLP208
2001 09 06 04 METAR CYVR 060400Z 14002KT 30SM FEW030 FEW220 15/09 A3017 RMK SC1CI1 SLP215
2001 09 06 05 METAR CYVR 060500Z 09004KT 30SM FEW030 FEW220 14/10 A3018 RMK SC1CI1 SLP219
2001 09 06 06 METAR CYVR 060600Z 10005KT 30SM FEW030 FEW140 FEW220 13/10 A3017 RMK SC1AC1CI0 SLP217
2001 09 06 07 METAR CYVR 060700Z 10008KT 30SM FEW078 FEW220 13/10 A3018 RMK AC1CI1 SLP220
2001 09 06 08 METAR CYVR 060800Z 09006KT 30SM FEW078 12/10 A3019 RMK AC1 SLP222
2001 09 06 09 METAR CYVR 060900Z 10007KT 30SM FEW073 12/10 A3019 RMK AC1 SLP222
2001 09 06 10 METAR CYVR 061000Z 10009KT 30SM BKN068 BKN250 12/09 A3019 RMK AC5CI1 SLP222
2001 09 06 11 METAR CYVR 061100Z 09007KT 30SM SCT068 BKN250 11/09 A3019 RMK AC3CI2 SLP222
2001 09 06 12 METAR CYVR 061200Z 08007KT 30SM FEW030 SCT068 BKN230 11/09 A3020 RMK SC1AC2CI2 SLP227
2001 09 06 13 METAR CYVR 061300Z 08008KT 30SM FEW030 FEW080 BKN220 12/09 A3020 RMK SC1AC2CI4 SLP226
2001 09 06 14 METAR CYVR 061400Z 09008KT 30SM FEW030 FEW100 BKN140 OVC220 12/09 A3021 RMK SC1AC2AC3CI2 SLP228
2001 09 06 15 METAR CYVR 061500Z 09008KT 30SM FEW027 BKN095 BKN170 OVC220 12/10 A3021 RMK SC1AC4AC3CI1 TR SC SLP229
2001 09 06 16 METAR CYVR 061600Z 10008KT 30SM FEW025 SCT090 BKN170 OVC220 13/10 A3020 RMK SC1AC2AC3CS2 SLP226
2001 09 06 17 METAR CYVR 061700Z 10008KT 30SM SCT013 SCT025 BKN090 OVC220 14/11 A3023 RMK SC3SC1AC3CS1 SLP235
2001 09 06 18 METAR CYVR 061800Z 11010KT 30SM FEW017 BKN028 BKN090 OVC220 14/10 A3023 RMK SF2SC3AC2CI2 SLP238
2001 09 06 19 METAR CYVR 061900Z 11009KT 30SM FEW017 BKN024 OVC090 15/10 A3023 RMK SF1SC6AC2 SLP238
2001 09 06 20 METAR CYVR 062000Z 11006KT 30SM BKN021 BKN110 OVC230 15/11 A3023 RMK SC5AC2CI1 SLP235
2001 09 06 21 METAR CYVR 062100Z 22008KT 30SM BKN020 BKN110 OVC230 16/12 A3023 RMK SC5AC2CI0 SLP238
2001 09 06 22 METAR CYVR 062200Z 23004KT 30SM SCT022 BKN082 BKN140 17/12 A3023 RMK CU3AC2AC2 SLP236
2001 09 06 23 METAR CYVR 062300Z 23008KT 30SM FEW025 SCT052 BKN065 BKN140 OVC250 17/11 A3023 RMK CU2SC2SC2AC1CI0 SLP235
2001 09 07 00 METAR CYVR 070000Z 23009KT 30SM FEW025 SCT050 BKN061 BKN100 17/11 A3021 RMK CU2SC2SC3AC1 SLP230
2001 09 07 01 METAR CYVR 070100Z 23008KT 30SM FEW030 FEW048 BKN057 16/11 A3021 RMK CU1SC2SC5 SLP230
2001 09 07 02 METAR CYVR 070200Z 25006G15KT 30SM FEW030 FEW053 16/10 A3020 RMK SC1SC2 SLP225
2001 09 07 03 METAR CYVR 070300Z 20004KT 30SM FEW030 FEW055 15/10 A3020 RMK SC1SC2 SLP225
2001 09 07 04 METAR CYVR 070400Z 11005KT 30SM SCT034 BKN055 14/10 A3020 RMK SC4SC1 SLP225
2001 09 07 05 METAR CYVR 070500Z 10005KT 30SM SCT032 BKN046 13/11 A3020 RMK SC3SC4 SLP225
2001 09 07 06 METAR CYVR 070600Z 20002KT 30SM FEW035 FEW045 13/11 A3019 RMK SC1SC2 SLP224
2001 09 07 07 METAR CYVR 070700Z 14002KT 30SM FEW035 FEW050 12/10 A3019 RMK SC1SC2 SLP223
2001 09 07 08 METAR CYVR 070800Z 07003KT 20SM FEW016 SCT035 12/10 A3020 RMK SF2SC2 SLP226
2001 09 07 09 METAR CYVR 070900Z 00000KT 20SM FEW016 SCT035 13/11 A3020 RMK SF2SC2 SLP227
2001 09 07 10 METAR CYVR 071000Z 09002KT 20SM SCT016 13/11 A3021 RMK SF4 SLP230
2001 09 07 11 METAR CYVR 071100Z 00000KT 20SM FEW016 12/11 A3022 RMK SF2 SLP233
2001 09 07 12 METAR CYVR 071200Z 11003KT 20SM FEW016 BKN029 12/10 A3023 RMK SF2SC4 SLP237
2001 09 07 13 METAR CYVR 071300Z 09004KT 20SM BKN029 12/10 A3025 RMK SC6 SLP244
2001 09 07 14 METAR CYVR 071400Z 00000KT 30SM FEW028 13/11 A3027 RMK SC2 SLP250
2001 09 07 15 METAR CYVR 071500Z 05004KT 30SM FEW030 FEW045 13/11 A3030 RMK SC2SC1 SLP259
2001 09 07 16 METAR CYVR 071600Z 09002KT 30SM FEW018 FEW032 15/11 A3031 RMK SC1SC2 SLP264
2001 09 07 17 METAR CYVR 071700Z 29007KT 30SM SCT025 SCT040 15/11 A3032 RMK CU3SC1 SLP268
2001 09 07 18 METAR CYVR 071800Z 30012KT 30SM FEW024 FEW045 16/12 A3034 RMK CU2SC1 SLP272
2001 09 07 19 METAR CYVR 071900Z 29014KT 30SM FEW025 16/12 A3034 RMK CU2 SLP273
2001 09 07 20 METAR CYVR 072000Z 30015KT 30SM FEW030 17/12 A3033 RMK CF1 SLP271
2001 09 07 21 METAR CYVR 072100Z 30012KT 30SM FEW040 17/11 A3033 RMK CU1 SLP270
2001 09 07 22 METAR CYVR 072200Z 28011KT 30SM FEW045 18/12 A3031 RMK CU1 SLP265
2001 09 07 23 METAR CYVR 072300Z 30012KT 30SM FEW045 18/12 A3030 RMK CU1 SLP260
2001 09 08 00 METAR CYVR 080000Z 29010KT 30SM FEW045 18/13 A3028 RMK CU1 TR CU SLP254
2001 09 08 01 METAR CYVR 080100Z 30008KT 30SM FEW040 17/13 A3027 RMK SC1 TR SC SLP250
2001 09 08 02 METAR CYVR 080200Z 29007KT 30SM SKC 17/13 A3026 RMK SLP245
2001 09 08 03 METAR CYVR 080300Z 30007KT 30SM SKC 14/11 A3024 RMK SLP241
2001 09 08 04 METAR CYVR 080400Z 30006KT 30SM SKC 14/12 A3024 RMK SLP241
2001 09 08 05 METAR CYVR 080500Z 32002KT 30SM SKC 15/12 A3024 RMK SLP240
2001 09 08 06 METAR CYVR 080600Z 02004KT 30SM SKC 13/11 A3024 RMK SLP239
2001 09 08 07 METAR CYVR 080700Z 34005KT 30SM SKC 13/10 A3024 RMK SLP240
2001 09 08 08 METAR CYVR 080800Z 32002KT 30SM SKC 12/10 A3025 RMK SLP242
2001 09 08 09 METAR CYVR 080900Z 06002KT 30SM SKC 13/11 A3024 RMK SLP241
2001 09 08 10 METAR CYVR 081000Z 00000KT 30SM SKC 12/10 A3023 RMK SLP238
2001 09 08 11 METAR CYVR 081100Z 00000KT 30SM SKC 11/09 A3023 RMK SLP236
2001 09 08 12 METAR CYVR 081200Z 36003KT 30SM SKC 11/10 A3022 RMK SLP234
2001 09 08 13 METAR CYVR 081300Z 00000KT 30SM MIFG SKC 11/10 A3023 RMK SLP235
2001 09 08 14 METAR CYVR 081400Z 36003KT 30SM FEW250 11/10 A3022 RMK CI1 TR CLD SLP234
2001 09 08 15 METAR CYVR 081500Z 00000KT 30SM FEW012 FEW250 13/11 A3022 RMK SF1CI1 TR CLDS SLP234
2001 09 08 16 METAR CYVR 081600Z 30003KT 30SM FEW015 FEW250 15/11 A3021 RMK SC1CI1 SLP230
2001 09 08 17 METAR CYVR 081700Z 30010KT 30SM FEW018 FEW250 15/12 A3021 RMK CF1CI0 SLP229
2001 09 08 18 METAR CYVR 081800Z 29011KT 30SM FEW024 FEW250 16/13 A3020 RMK CF2CI1 SLP226
2001 09 08 19 METAR CYVR 081900Z 31007KT 30SM FEW025 FEW250 16/12 A3018 RMK CF1CI1 SLP220
2001 09 08 20 METAR CYVR 082000Z 30007KT 30SM FEW030 FEW250 17/12 A3016 RMK CF1CI1 SLP213
2001 09 08 21 METAR CYVR 082100Z 29007KT 30SM FEW035 FEW250 17/12 A3014 RMK CF1CI1 TR CLD SLP206
2001 09 08 22 METAR CYVR 082200Z 27008KT 30SM FEW040 17/13 A3012 RMK SC1 TR CLD SLP198
2001 09 08 23 METAR CYVR 082300Z 30008KT 30SM FEW040 17/13 A3010 RMK SC1 TR CLD SLP191
2001 09 09 00 METAR CYVR 090000Z 28007KT 30SM FEW040 18/13 A3007 RMK SC1 TR CLD SLP182
2001 09 09 01 METAR CYVR 090100Z 24006KT 30SM FEW040 18/13 A3005 RMK SC1 TR CLD SLP175
2001 09 09 02 METAR CYVR 090200Z 23004KT 30SM SKC 17/12 A3004 RMK SLP171
2001 09 09 03 METAR CYVR 090300Z 27004KT 30SM SKC 16/12 A3002 RMK SLP165
2001 09 09 04 METAR CYVR 090400Z 00000KT 30SM SKC 15/12 A3003 RMK SLP168
2001 09 09 05 METAR CYVR 090500Z 29006KT 30SM SKC 15/11 A3002 RMK SLP165
2001 09 09 06 METAR CYVR 090600Z 30010KT 30SM SKC 14/11 A3002 RMK SLP164
2001 09 09 07 METAR CYVR 090700Z 29012G17KT 30SM SKC 14/11 A3001 RMK SLP162
2001 09 09 08 METAR CYVR 090800Z 30013KT 30SM SKC 14/12 A3001 RMK SLP163
2001 09 09 09 METAR CYVR 090900Z 03003KT 30SM SKC 12/10 A3001 RMK SLP162
2001 09 09 10 METAR CYVR 091000Z 36005KT 30SM SKC 12/10 A3001 RMK SLP163
2001 09 09 11 METAR CYVR 091100Z 35006KT 30SM SKC 11/09 A3001 RMK SLP163
2001 09 09 12 METAR CYVR 091200Z 34005KT 30SM FEW013 12/10 A3002 RMK SF2 SLP164
2001 09 09 13 METAR CYVR 091300Z 33008KT 30SM FEW013 SCT210 13/11 A3002 RMK SF2CI0 SLP164
2001 09 09 14 METAR CYVR 091400Z 31010KT 30SM SCT210 12/11 A3001 RMK CI2 BCFG N SLP162
2001 09 09 15 METAR CYVR 091500Z 31012KT 30SM SCT230 14/12 A3001 RMK CI2 BCFG OVR BURRAD INLET SLP161
2001 09 09 16 METAR CYVR 091600Z 30014KT 30SM FEW013 SCT230 14/12 A3000 RMK SF1CI2 SLP160
2001 09 09 17 METAR CYVR 091700Z 30015KT 30SM FEW015 SCT220 15/12 A3001 RMK SF1CI2 TR SF SLP162
2001 09 09 18 METAR CYVR 091800Z 29016KT 30SM FEW040 SCT250 15/12 A3000 RMK SF1CI1 SLP160
2001 09 09 19 METAR CYVR 091900Z 29018KT 30SM FEW040 FEW250 16/12 A3000 RMK SF1CI0 SLP158
2001 09 09 20 METAR CYVR 092000Z 31016KT 30SM FEW040 FEW250 16/12 A2998 RMK SF1CI0 SLP152
2001 09 09 21 METAR CYVR 092100Z 30017KT 30SM FEW040 FEW250 16/12 A2997 RMK SF1CI0 SLP149
2001 09 09 22 METAR CYVR 092200Z 30013KT 30SM FEW045 FEW250 17/13 A2995 RMK CU1CI0 SLP141
2001 09 09 23 METAR CYVR 092300Z 30014KT 30SM FEW050 FEW250 17/12 A2993 RMK CU1CI0 SLP135
2001 09 10 00 METAR CYVR 100000Z 30012KT 30SM FEW050 FEW250 17/12 A2992 RMK CU1CI0 SLP131
2001 09 10 01 METAR CYVR 100100Z 30013KT 30SM FEW055 FEW250 17/13 A2991 RMK SC1CI0 SLP127
2001 09 10 02 METAR CYVR 100200Z 30010KT 30SM FEW055 FEW250 16/13 A2990 RMK SC1CI0 SLP125
2001 09 10 03 METAR CYVR 100300Z 31009KT 30SM FEW250 15/12 A2989 RMK CI0 SLP123
2001 09 10 04 METAR CYVR 100400Z 33006KT 30SM SKC 14/11 A2990 RMK SLP125
2001 09 10 05 METAR CYVR 100500Z 30004KT 30SM SKC 14/11 A2990 RMK SLP125
2001 09 10 06 METAR CYVR 100600Z 28011KT 30SM SKC 15/11 A2990 RMK SLP125
2001 09 10 07 METAR CYVR 100700Z 29014KT 30SM SKC 14/11 A2991 RMK SLP127
2001 09 10 08 METAR CYVR 100800Z 31007KT 30SM SKC 13/11 A2992 RMK SLP133
2001 09 10 09 METAR CYVR 100900Z 33007KT 30SM SKC 13/10 A2993 RMK SLP135
2001 09 10 10 METAR CYVR 101000Z 32015KT 30SM SKC 14/11 A2994 RMK SLP137
2001 09 10 11 METAR CYVR 101100Z 33008KT 30SM SKC 12/10 A2995 RMK SLP140
2001 09 10 12 METAR CYVR 101200Z 31004KT 30SM SKC 12/10 A2994 RMK SLP138
2001 09 10 13 METAR CYVR 101300Z 36003KT 30SM FEW230 11/09 A2995 RMK CI1 SLP143
2001 09 10 14 METAR CYVR 101400Z 33007KT 30SM FEW120 SCT230 12/10 A2997 RMK AC1CI1 SLP149
2001 09 10 15 METAR CYVR 101500Z 31013KT 30SM FEW120 SCT230 14/11 A2998 RMK AC1CI1 BCFG NW SLP152
2001 09 10 16 METAR CYVR 101600Z 30012KT 30SM FEW120 FEW230 14/11 A2999 RMK AC1CI1 AC TR BCFG NW SLP154
2001 09 10 17 METAR CYVR 101700Z 30010KT 30SM FEW020 FEW230 15/11 A2999 RMK CU1CI0 SLP155
2001 09 10 18 METAR CYVR 101800Z 30009KT 30SM FEW020 FEW230 16/11 A3000 RMK CU1CI0 SLP158
2001 09 10 19 METAR CYVR 101900Z 31010KT 30SM FEW020 FEW230 16/12 A3000 RMK CU1CI0 TR CU SLP159
2001 09 10 20 METAR CYVR 102000Z 30010KT 30SM FEW020 SCT230 17/12 A3000 RMK SF1CI1 TR SF SLP159
2001 09 10 21 METAR CYVR 102100Z 30008KT 30SM SCT230 17/11 A3000 RMK CI2 TR CF OVR MTNS N SLP157
2001 09 10 22 METAR CYVR 102200Z 27006KT 30SM FEW035 FEW230 17/11 A2999 RMK CF1CI1 SLP155
2001 09 10 23 METAR CYVR 102300Z 30005KT 30SM FEW052 FEW230 18/12 A2999 RMK CU1CI0 SLP156
2001 09 11 00 METAR CYVR 110000Z 28005KT 30SM FEW055 FEW230 17/12 A2999 RMK CU1CI0 SLP154
2001 09 11 01 METAR CYVR 110100Z 29003KT 30SM FEW055 FEW230 17/12 A2998 RMK CU1CI0 SLP152
2001 09 11 02 METAR CYVR 110200Z 28005KT 30SM FEW230 16/12 A2999 RMK CI0 SLP154
2001 09 11 03 METAR CYVR 110300Z 00000KT 30SM FEW230 15/12 A3000 RMK CI1 SLP160
2001 09 11 04 METAR CYVR 110400Z 29002KT 30SM SKC 15/12 A3001 RMK SLP162
2001 09 11 05 METAR CYVR 110500Z 28003KT 30SM SKC 15/12 A3001 RMK SLP162
2001 09 11 06 METAR CYVR 110600Z 00000KT 30SM SKC 14/12 A3002 RMK SLP164
2001 09 11 07 METAR CYVR 110700Z 00000KT 30SM MIFG SKC 13/11 A3002 RMK SLP167
2001 09 11 08 METAR CYVR 110800Z 00000KT 30SM BCFG SKC 12/11 A3002 RMK SLP167
2001 09 11 09 METAR CYVR 110900Z 10004KT 30SM SKC 12/11 A3003 RMK SLP170
2001 09 11 10 METAR CYVR 111000Z 09002KT 30SM MIFG SKC 12/11 A3005 RMK SLP174
2001 09 11 11 METAR CYVR 111100Z 35003KT 30SM MIFG SKC 12/11 A3005 RMK SLP176
2001 09 11 12 METAR CYVR 111200Z 01003KT 30SM MIFG SKC 12/11 A3005 RMK SLP176
2001 09 11 13 METAR CYVR 111300Z 00000KT 30SM FEW250 12/11 A3006 RMK CI1 SLP178
2001 09 11 14 METAR CYVR 111400Z 02002KT 30SM FEW110 SCT250 12/11 A3006 RMK AC1CI2 TR AC. SLP180
2001 09 11 15 METAR CYVR 111500Z 00000KT 30SM FEW110 BKN250 13/12 A3007 RMK AC1CI2 SLP183
2001 09 11 16 METAR CYVR 111600Z 31006KT 30SM FEW110 BKN250 16/14 A3007 RMK AC1CI4 SLP183
2001 09 11 17 METAR CYVR 111700Z 29007KT 30SM FEW040 FEW110 SCT250 16/13 A3007 RMK CF1AC1CI2 TR CF. SLP183
2001 09 11 18 METAR CYVR 111800Z 29008KT 30SM FEW040 FEW110 BKN250 16/13 A3008 RMK CF1AC1CI2 TR CF. SLP184
2001 09 11 19 METAR CYVR 111900Z 30008KT 30SM FEW040 SCT250 18/14 A3006 RMK CF1CI2 TR CF. SLP179
2001 09 11 20 METAR CYVR 112000Z 29010KT 30SM FEW040 FEW250 18/14 A3005 RMK CF1CI2 TR CF. SLP176
2001 09 11 21 METAR CYVR 112100Z 29009KT 30SM FEW040 FEW250 19/14 A3003 RMK CF1CI2 TR CF. SLP170
2001 09 11 22 METAR CYVR 112200Z 30009KT 30SM FEW040 FEW250 19/14 A3001 RMK CU1CI1 TR CLD SLP163
2001 09 11 23 METAR CYVR 112300Z 30009KT 30SM FEW040 FEW250 19/14 A3000 RMK CU1CI1 TR CLD SLP160
2001 09 12 00 METAR CYVR 120000Z 30009KT 30SM FEW080 FEW250 19/14 A2999 RMK ACC1CI0 TR ACC NW SLP155
2001 09 12 01 METAR CYVR 120100Z 30006KT 30SM FEW250 18/14 A2996 RMK CI1 TR CLD SLP145
2001 09 12 02 METAR CYVR 120200Z 29006KT 30SM FEW120 FEW250 17/13 A2996 RMK AC1CI1 TR AC SLP144
2001 09 12 03 METAR CYVR 120300Z 31006KT 30SM FEW120 FEW250 16/13 A2996 RMK AC1CI1 TR AC SLP144
2001 09 12 04 METAR CYVR 120400Z 29007KT 30SM FEW250 16/14 A2996 RMK CI1 SLP146
2001 09 12 05 METAR CYVR 120500Z 31005KT 30SM SKC 15/13 A2996 RMK SLP145
2001 09 12 06 METAR CYVR 120600Z 33006KT 30SM SKC 15/13 A2996 RMK SLP146
2001 09 12 07 METAR CYVR 120700Z 31006KT 30SM FEW230 14/13 A2997 RMK CI1 SLP149
2001 09 12 08 METAR CYVR 120800Z 32006KT 30SM FEW160 14/13 A2997 RMK AC1 SLP150
2001 09 12 09 METAR CYVR 120900Z 35002KT 30SM FEW160 FEW250 15/13 A2997 RMK AC1CI1 SLP148
2001 09 12 10 METAR CYVR 121000Z 35003KT 30SM SCT160 13/12 A2997 RMK AC2 SLP150
2001 09 12 11 METAR CYVR 121100Z 00000KT 30SM FEW160 13/12 A2998 RMK AC1 SLP151
2001 09 12 12 METAR CYVR 121200Z 00000KT 30SM SCT180 13/12 A2997 RMK AC2 SLP150
2001 09 12 13 METAR CYVR 121300Z 02002KT 30SM FEW180 BKN240 13/12 A2997 RMK AC2CC2 SLP150
2001 09 12 14 METAR CYVR 121400Z 00000KT 30SM FEW180 BKN240 13/12 A2998 RMK AC2CI1 SLP153
2001 09 12 15 METAR CYVR 121500Z 00000KT 30SM BKN180 14/13 A2999 RMK AC4 SLP155
2001 09 12 16 METAR CYVR 121600Z 24002KT 30SM FEW180 SCT240 16/13 A2999 RMK AC2CI1 SLP156
2001 09 12 17 METAR CYVR 121700Z 29006KT 30SM FEW180 SCT240 18/15 A3000 RMK AC2CI1 SLP158
2001 09 12 18 METAR CYVR 121800Z 30007KT 30SM FEW240 18/15 A3000 RMK CI2 SLP159
2001 09 12 19 METAR CYVR 121900Z 30007KT 30SM FEW240 18/14 A2999 RMK CI2 SLP155
2001 09 12 20 METAR CYVR 122000Z 31008KT 30SM SCT190 BKN230 19/15 A2998 RMK AC3CI1 SLP153
2001 09 12 21 METAR CYVR 122100Z 29010KT 30SM FEW230 20/15 A2998 RMK CI2 SLP153
2001 09 12 22 METAR CYVR 122200Z 31009KT 30SM FEW030 FEW170 FEW250 19/14 A2996 RMK CU1AC1CI2 TR CU AC SLP146
2001 09 12 23 METAR CYVR 122300Z 31009KT 30SM FEW035 SCT250 20/14 A2995 RMK CU1CI2 TR CU SLP140
2001 09 13 00 METAR CYVR 130000Z 31008KT 30SM FEW035 FEW250 20/14 A2993 RMK CU1CI2 TR CU SLP135
2001 09 13 01 METAR CYVR 130100Z 31007KT 30SM SCT250 19/15 A2992 RMK CI2 SLP132
2001 09 13 02 METAR CYVR 130200Z 27007KT 30SM SCT250 18/14 A2991 RMK CI2 SLP127
2001 09 13 03 METAR CYVR 130300Z 27005KT 30SM SCT250 18/14 A2991 RMK CI1 SLP127
2001 09 13 04 METAR CYVR 130400Z 32003KT 30SM SCT250 17/15 A2992 RMK CI1 SLP132
2001 09 13 05 METAR CYVR 130500Z 29002KT 30SM SCT250 16/14 A2994 RMK CI2 SLP137
2001 09 13 06 METAR CYVR 130600Z 00000KT 30SM SCT250 16/15 A2994 RMK CI1 SLP139
2001 09 13 07 METAR CYVR 130700Z 30007KT 30SM FEW250 14/12 A2996 RMK CI1 SLP144
2001 09 13 08 METAR CYVR 130800Z 31010KT 30SM SCT250 15/14 A2996 RMK CI1 SLP145
2001 09 13 09 METAR CYVR 130900Z 31012KT 30SM SCT250 15/14 A2997 RMK CI1 SLP148
2001 09 13 10 METAR CYVR 131000Z 31013KT 30SM SCT250 15/14 A2997 RMK CI1 SLP149
2001 09 13 11 METAR CYVR 131100Z 30017KT 30SM SCT250 15/13 A2997 RMK CI1 SLP148
2001 09 13 12 METAR CYVR 131200Z 30011G17KT 30SM FEW250 14/13 A2997 RMK CI1 BCFG OVR BURRAD INLET SLP148
2001 09 13 13 METAR CYVR 131300Z 30014G20KT 30SM FEW250 14/13 A2998 RMK CI1 SLP152
2001 09 13 14 METAR CYVR 131400Z 31014G30KT 30SM FEW015 SCT250 14/13 A3000 RMK CF1CI1 SLP158
2001 09 13 15 METAR CYVR 131500Z 31013G19KT 30SM SCT250 14/13 A3001 RMK CI2 SLP163
2001 09 13 16 METAR CYVR 131600Z 31014KT 30SM BKN250 15/14 A3002 RMK CI2 SLP165
2001 09 13 17 METAR CYVR 131700Z 31015KT 30SM BKN250 16/14 A3002 RMK CI1 SLP167
2001 09 13 18 METAR CYVR 131800Z 30014KT 30SM BKN250 17/14 A3002 RMK CI1 SLP167
2001 09 13 19 METAR CYVR 131900Z 31014KT 30SM BKN250 17/14 A3002 RMK CI2 SLP166
2001 09 13 20 METAR CYVR 132000Z 30014KT 30SM BKN210 18/14 A3002 RMK CI2 SLP165
2001 09 13 21 METAR CYVR 132100Z 30013KT 30SM BKN200 18/14 A3000 RMK CI1 SLP160
2001 09 13 22 METAR CYVR 132200Z 31012KT 30SM BKN200 19/14 A2999 RMK CI1 SLP154
2001 09 13 23 METAR CYVR 132300Z 31010KT 30SM FEW200 19/14 A2997 RMK CI1 SLP149
2001 09 14 00 METAR CYVR 140000Z 30010KT 30SM FEW200 19/14 A2996 RMK CI1 SLP144
2001 09 14 01 METAR CYVR 140100Z 28007KT 30SM FEW200 18/14 A2995 RMK CI1 SLP143
2001 09 14 02 METAR CYVR 140200Z 26005KT 30SM FEW220 18/13 A2996 RMK CI1 SLP144
2001 09 14 03 METAR CYVR 140300Z 27004KT 30SM FEW220 17/13 A2996 RMK CI1 SLP144
2001 09 14 04 METAR CYVR 140400Z 20002KT 30SM SKC 17/13 A2998 RMK SLP151
2001 09 14 05 METAR CYVR 140500Z 16003KT 30SM SKC 16/13 A2999 RMK SLP155
2001 09 14 06 METAR CYVR 140600Z 16002KT 30SM SKC 15/12 A3000 RMK SLP160
2001 09 14 07 METAR CYVR 140700Z 10006KT 30SM SKC 13/11 A3002 RMK SLP166
2001 09 14 08 METAR CYVR 140800Z 10005KT 30SM SKC 14/12 A3003 RMK SLP169
2001 09 14 09 METAR CYVR 140900Z 10003KT 30SM SKC 14/12 A3004 RMK SLP171
2001 09 14 10 METAR CYVR 141000Z 10004KT 30SM SKC 14/12 A3004 RMK SLP173
2001 09 14 11 METAR CYVR 141100Z 09002KT 30SM SKC 14/12 A3005 RMK SLP176
2001 09 14 12 METAR CYVR 141200Z 00000KT 30SM SKC 13/12 A3005 RMK SLP176
2001 09 14 13 METAR CYVR 141300Z 36003KT 30SM MIFG SKC 11/10 A3005 RMK SLP177
2001 09 14 14 METAR CYVR 141400Z 00000KT 30SM FEW010 FEW220 13/12 A3006 RMK ST1CI1 SLP180
2001 09 14 15 METAR CYVR 141500Z 00000KT 20SM FEW220 14/13 A3007 RMK CI1 VSBY E 6SM HZ SLP181
2001 09 14 16 METAR CYVR 141600Z 22003KT 20SM FEW015 FEW220 17/15 A3008 RMK SF1CI1 VSBY E 6SM HZ SLP185
2001 09 14 17 METAR CYVR 141700Z CCA 29004KT 20SM FEW220 18/15 A3008 RMK CI1 VSBY E 10SM HZ SLP185
2001 09 14 18 METAR CYVR 141800Z 28005KT 20SM SCT220 18/16 A3008 RMK CI1 SLP185
2001 09 14 19 METAR CYVR 141900Z 29005KT 20SM FEW220 20/15 A3007 RMK CI1 SLP182
2001 09 14 20 METAR CYVR 142000Z 28006KT 20SM FEW220 20/04 A3006 RMK CI1 SLP180
2001 09 14 21 METAR CYVR 142100Z 27006KT 20SM FEW220 20/15 A3005 RMK CI1 SLP175
2001 09 14 22 METAR CYVR 142200Z 29005KT 20SM SCT220 20/15 A3003 RMK CI1 SLP170
2001 09 14 23 METAR CYVR 142300Z 28004KT 20SM SCT220 20/15 A3002 RMK CI1 SLP165
2001 09 15 00 METAR CYVR 150000Z 28004KT 20SM BKN220 19/15 A3001 RMK CI1 SLP161
2001 09 15 01 METAR CYVR 150100Z 31002KT 30SM BKN220 19/15 A3000 RMK CI1 SLP157
2001 09 15 02 METAR CYVR 150200Z 28002KT 30SM SCT220 19/15 A2999 RMK CI1 SLP156
2001 09 15 03 METAR CYVR 150300Z 25002KT 30SM SCT220 17/15 A2999 RMK CI1 SLP156
2001 09 15 04 METAR CYVR 150400Z 27002KT 30SM FEW220 16/14 A3000 RMK CI0 SLP158
2001 09 15 05 METAR CYVR 150500Z 36002KT 30SM SKC 15/14 A3000 RMK SLP159
2001 09 15 06 METAR CYVR 150600Z 00000KT 30SM SKC 15/14 A3000 RMK SLP157
2001 09 15 07 METAR CYVR 150700Z 00000KT 30SM SKC 15/13 A3000 RMK SLP158
2001 09 15 L METAR CYVR NIL
2001 09 15 09 METAR CYVR 150900Z 10002KT 30SM MIFG FEW220 14/13 A2999 RMK CI1 SLP156
2001 09 15 10 METAR CYVR 151000Z 00000KT 30SM MIFG FEW220 14/13 A2999 RMK CI1 SLP156
2001 09 15 11 METAR CYVR 151100Z 00000KT 30SM FEW220 12/10 A2998 RMK CI1 SLP152
2001 09 15 12 METAR CYVR 151200Z 00000KT 30SM MIFG FEW220 13/12 A2998 RMK CI1 SLP151
2001 09 15 L METAR CYVR NIL
2001 09 15 14 METAR CYVR 151400Z 00000KT 5SM BR FEW005 FEW220 12/11 A2998 RMK ST1CI0 F PTCHS ALG SHR. SHLW FG ON FIELD.VSBY 2O N-NNE. 30 SW. SLP151
2001 09 15 15 METAR CYVR 151500Z 23002KT 30SM FEW004 FEW220 14/13 A2999 RMK ST1CI0 VSBY E-S 3 FG. SLP156
2001 09 15 16 METAR CYVR 151600Z 31006KT 30SM FEW004 SCT220 16/15 A3000 RMK ST2CI0 VSBY LWR E. SLP158
2001 09 15 17 METAR CYVR 151700Z 30007KT 30SM FEW004 FEW220 17/15 A3000 RMK ST0CI0 TR CLD. SLP158
2001 09 15 18 METAR CYVR 151800Z 29007KT 30SM FEW220 18/15 A2999 RMK CI0 SLP156
2001 09 15 19 METAR CYVR 151900Z 29006KT 30SM FEW004 FEW220 19/16 A2998 RMK SF1CI1 TR SF. SLP153
2001 09 15 20 METAR CYVR 152000Z 27005KT 30SM FEW220 19/15 A2998 RMK CI2 SLP152
2001 09 15 21 METAR CYVR 152100Z 30004KT 30SM FEW220 19/15 A2997 RMK CI2 SLP148
2001 09 15 22 METAR CYVR 152200Z 26005KT 20SM BKN220 19/15 A2995 RMK CI2 SLP141
2001 09 15 23 METAR CYVR 152300Z 28006KT 20SM BKN220 18/15 A2994 RMK CI3 SLP137
2001 09 16 00 METAR CYVR 160000Z 25005KT 20SM BKN220 19/15 A2993 RMK CI3 SLP134
2001 09 16 01 METAR CYVR 160100Z 25004KT 30SM BKN220 18/14 A2992 RMK CI3 SLP131
2001 09 16 02 METAR CYVR 160200Z 23002KT 30SM BKN220 17/13 A2992 RMK CI3 SLP130
2001 09 16 03 METAR CYVR 160300Z 18003KT 30SM BKN220 17/13 A2992 RMK CI2 SLP132
2001 09 16 04 METAR CYVR 160400Z 13003KT 30SM BKN220 16/13 A2993 RMK CI2 SLP135
2001 09 16 05 METAR CYVR 160500Z 09003KT 30SM BKN220 15/12 A2994 RMK CI2 SLP137
2001 09 16 06 METAR CYVR 160600Z 09005KT 30SM SCT220 14/12 A2994 RMK CI2 SLP139
2001 09 16 07 METAR CYVR 160700Z 08004KT 30SM FEW220 14/12 A2994 RMK CI1 SLP139
2001 09 16 08 METAR CYVR 160800Z 11003KT 30SM BKN220 14/12 A2995 RMK CI3 SLP142
2001 09 16 09 METAR CYVR 160900Z 11004KT 30SM BKN250 13/11 A2996 RMK CI4 SLP146
2001 09 16 10 METAR CYVR 161000Z 09004KT 30SM BKN250 12/11 A2996 RMK CI4 SLP146
2001 09 16 11 METAR CYVR 161100Z 14002KT 30SM MIFG BKN250 12/11 A2997 RMK CI2 SLP149
2001 09 16 12 METAR CYVR 161200Z 00000KT 30SM MIFG BKN250 12/11 A2998 RMK CI2 SLP151
2001 09 16 13 METAR CYVR 161300Z CCA 15003KT 1/2SM FG VV000 12/11 A2999 RMK FG8 SLP156
2001 09 16 14 METAR CYVR 161400Z 10006KT 1/8SM FG VV001 11/11 A3000 RMK FG8 SLP159
2001 09 16 15 METAR CYVR 161500Z 13004KT 1/8SM FG VV001 12/11 A3002 RMK FG8 SLP165
2001 09 16 16 METAR CYVR 161600Z 14004KT 3/8SM FG VV001 12/12 A3003 RMK FG8 SLP169
2001 09 16 17 METAR CYVR 161700Z 15004KT 1SM BR VV002 12/12 A3004 RMK FG8 SLP172
2001 09 16 18 METAR CYVR 161800Z 15004KT 4SM BR OVC004 13/12 A3004 RMK ST8 SLP172
2001 09 16 19 METAR CYVR 161900Z 13004KT 4SM BR OVC007 14/12 A3004 RMK ST8 SLP173
2001 09 16 20 METAR CYVR 162000Z 11006KT 10SM OVC008 14/12 A3004 RMK SC8 SLP171
2001 09 16 21 METAR CYVR 162100Z 15006KT 10SM BKN010 14/12 A3003 RMK SC7 SLP169
2001 09 16 22 METAR CYVR 162200Z 15005KT 10SM BKN010 15/12 A3003 RMK SC6 SLP168
2001 09 16 23 METAR CYVR 162300Z 13008KT 10SM BKN010 BKN240 15/12 A3002 RMK SC5CI0 SLP165
2001 09 17 00 METAR CYVR 170000Z 13007KT 10SM SCT010 BKN240 15/12 A3002 RMK SC4CI0 SLP164
2001 09 17 01 METAR CYVR 170100Z 14008KT 15SM FEW010 BKN240 14/11 A3002 RMK SC2CI0 SLP164
2001 09 17 02 METAR CYVR 170200Z 10008KT 15SM SCT140 BKN240 14/11 A3002 RMK AC3CI0 SLP166
2001 09 17 03 METAR CYVR 170300Z 11008KT 15SM FEW140 BKN240 13/11 A3003 RMK AC2CI0 SLP168
2001 09 17 04 METAR CYVR 170400Z 12010KT 15SM FEW010 FEW140 BKN240 13/11 A3005 RMK CF1AC2CI0 SLP175
2001 09 17 05 METAR CYVR 170500Z 10010KT 15SM FEW010 FEW140 BKN240 12/10 A3005 RMK CF1AC2CI0 SLP176
2001 09 17 06 METAR CYVR 170600Z 10009KT 15SM FEW010 FEW140 SCT240 12/10 A3005 RMK CF1AC1CI0 SLP177
2001 09 17 07 METAR CYVR 170700Z 11008KT 8SM SCT010 BKN200 12/10 A3006 RMK SF4CI2 SLP179
2001 09 17 08 METAR CYVR 170800Z 11008KT 8SM BKN008 BKN015 OVC200 13/11 A3007 RMK SF5SF2CI1 SLP181
2001 09 17 09 METAR CYVR 170900Z 11008KT 8SM BKN008 BKN015 OVC200 13/11 A3007 RMK SF5SF2CI1 SLP183
2001 09 17 10 METAR CYVR 171000Z 13009KT 8SM BKN009 BKN015 OVC200 13/11 A3008 RMK SF6SF2CI1 SLP185
2001 09 17 11 METAR CYVR 171100Z 15006KT 8SM FEW008 OVC018 13/10 A3008 RMK SF2SF6 SLP185
2001 09 17 12 METAR CYVR 171200Z 17004KT 8SM FEW008 OVC017 12/10 A3008 RMK SF1SF7 SLP186
2001 09 17 13 METAR CYVR 171300Z 16002KT 10SM FEW008 OVC015 13/10 A3008 RMK SF1ST7 SLP186
2001 09 17 14 METAR CYVR 171400Z 15003KT 5SM -DZ BR FEW008 OVC012 13/11 A3008 RMK SF1ST7 SLP187
2001 09 17 15 METAR CYVR 171500Z 17006KT 4SM BR SCT007 BKN012 OVC020 12/11 A3009 RMK ST4ST3SC1 SLP190
2001 09 17 16 METAR CYVR 171600Z 16004KT 5SM BR BKN008 BKN012 OVC020 13/11 A3010 RMK ST5ST2SC2 SLP194
2001 09 17 17 METAR CYVR 171700Z 12004KT 5SM BR BKN009 OVC015 13/11 A3012 RMK ST6ST2 SLP198
2001 09 17 18 METAR CYVR 171800Z 16005KT 10SM FEW009 BKN011 BKN015 OVC024 14/11 A3012 RMK SF1ST6ST1SC1 SLP198
2001 09 17 19 METAR CYVR 171900Z 12008KT 12SM FEW009 BKN014 OVC024 14/11 A3011 RMK SF1SC6SC1 SLP197
2001 09 17 20 METAR CYVR 172000Z 18005KT 12SM FEW009 BKN014 OVC024 14/11 A3011 RMK SF1SC6SC1 SLP195
2001 09 17 21 METAR CYVR 172100Z 16004KT 12SM FEW009 BKN014 OVC024 14/11 A3011 RMK SF1SC6SC2 SLP196
2001 09 17 22 METAR CYVR 172200Z 17005KT 10SM FEW009 BKN014 OVC022 14/11 A3011 RMK SF2SC5SC2 SLP196
2001 09 17 23 METAR CYVR 172300Z 15005KT 10SM FEW009 BKN016 OVC025 15/11 A3011 RMK SF2SC5SC2 SLP196
2001 09 18 00 METAR CYVR 180000Z 12003KT 10SM FEW009 BKN016 OVC025 15/11 A3010 RMK SF2SC5SC2 SLP193
2001 09 18 01 METAR CYVR 180100Z 13005KT 12SM FEW009 SCT016 OVC027 15/11 A3010 RMK SF1SC2SC5 SLP192
2001 09 18 02 METAR CYVR 180200Z 13002KT 12SM FEW009 SCT022 BKN030 OVC090 14/10 A3010 RMK SF1SC2SC4AC1 SLP192
2001 09 18 03 METAR CYVR 180300Z 16005KT 12SM FEW009 FEW020 BKN030 OVC090 14/11 A3010 RMK SF1SC2SC4AC2 SLP193
2001 09 18 04 METAR CYVR 180400Z 16003KT 12SM FEW010 FEW020 SCT030 OVC040 14/11 A3011 RMK SF1SC1SC2SC5 SLP195
2001 09 18 05 METAR CYVR 180500Z 09005KT 12SM FEW015 SCT024 OVC040 13/11 A3010 RMK SC1SC2SC5 SLP193
2001 09 18 06 METAR CYVR 180600Z 11003KT 12SM FEW015 SCT024 OVC040 13/11 A3010 RMK SC1SC2SC5 SLP193
2001 09 18 07 METAR CYVR 180700Z 12003KT 20SM FEW025 OVC036 13/11 A3010 RMK SC2SC6 SLP192
2001 09 18 08 METAR CYVR 180800Z 10005KT 20SM FEW024 OVC037 13/11 A3009 RMK SC1SC7 SLP190
2001 09 18 09 METAR CYVR 180900Z 11003KT 20SM FEW025 OVC033 13/11 A3010 RMK SC2SC6 SLP192
2001 09 18 10 METAR CYVR 181000Z 10005KT 20SM OVC040 14/11 A3009 RMK SC8 SLP189
2001 09 18 11 METAR CYVR 181100Z 10007KT 15SM OVC039 13/11 A3008 RMK SC8 SLP187
2001 09 18 12 METAR CYVR 181200Z 11006KT 15SM OVC039 13/11 A3009 RMK SC8 SLP188
2001 09 18 13 METAR CYVR 181300Z 14006KT 10SM FEW031 OVC044 13/11 A3009 RMK SC2SC6 SLP188
2001 09 18 14 METAR CYVR 181400Z 13007KT 10SM FEW031 OVC044 13/11 A3009 RMK SC2SC6 VSBY HIR SW. SLP188
2001 09 18 15 METAR CYVR 181500Z 12006KT 30SM FEW031 BKN046 13/11 A3008 RMK SC2SC6 VSBY LWR N-E. SLP186
2001 09 18 16 METAR CYVR 181600Z 11006KT 12SM FEW008 SCT035 OVC046 14/11 A3008 RMK SF2SC2SC4 VSBY 30 S-W. SLP187
2001 09 18 17 METAR CYVR 181700Z 11005KT 15SM FEW005 BKN010 BKN035 BKN046 14/11 A3009 RMK SF1ST5SC1SC1 VSBY S-W HIR. SLP189
2001 09 18 18 METAR CYVR 181800Z 14005KT 12SM FEW005 BKN010 OVC035 14/12 A3009 RMK SF2ST6SC1 SLP189
2001 09 18 19 METAR CYVR 181900Z 13011KT 30SM FEW005 FEW010 BKN040 BKN070 BKN250 14/11 A3008 RMK SF1SF1SC4AC1CI1 VSBY LWR N-E. SLP187
2001 09 18 20 METAR CYVR 182000Z 13011G17KT 30SM FEW009 SCT030 BKN040 BKN055 OVC250 15/11 A3008 RMK SF2SC2SC2SC2CI1 VSBY LWR N-E. SLP187
2001 09 18 21 METAR CYVR 182100Z 11008KT 30SM FEW009 FEW030 SCT040 SCT055 BKN090 BKN250 17/12 A3008 RMK SF1SC1SC2SC1AC2CI1 VSBY LWR N-E. SLP184
2001 09 18 22 METAR CYVR 182200Z 12012KT 30SM FEW012 FEW030 SCT045 BKN070 BKN250 17/12 A3007 RMK SF1SC2SC1AC2CI2 VSBY LWR N-E SLP181
2001 09 18 23 METAR CYVR 182300Z 13008KT 25SM FEW020 FEW040 BKN075 BKN250 16/11 A3006 RMK CF1SC2AC3CI1 SLP179
2001 09 19 00 METAR CYVR 190000Z 13010KT 25SM FEW020 SCT038 BKN070 BKN220 17/11 A3005 RMK CF1SC3AC2CI1 SLP176
2001 09 19 01 METAR CYVR 190100Z 11009KT 30SM FEW020 SCT038 BKN075 BKN220 17/11 A3005 RMK CF2SC2AC2CI1 SLP174
2001 09 19 02 METAR CYVR 190200Z 11009KT 30SM VCSH FEW020 SCT040 BKN061 BKN220 15/12 A3003 RMK CF2SC2SC2CI1 SHWRS NW SLP168
2001 09 19 03 METAR CYVR 190300Z 10007KT 20SM FEW020 BKN035 BKN060 BKN090 15/11 A3003 RMK SC2SC3SC1AC1 TCU ASOCTD SLP169
2001 09 19 04 METAR CYVR 190400Z 15006KT 15SM -SHRA FEW020 BKN036 BKN060 BKN090 14/10 A3004 RMK SC2SC2SC2AC1 TCU ASOCTD PCPN VRY LGT SLP171
2001 09 19 05 METAR CYVR 190500Z 26004KT 15SM -SHRA FEW020 BKN028 OVC060 14/11 A3005 RMK SC2SC4SC2 SLP174
2001 09 19 06 METAR CYVR 190600Z 30011KT 15SM FEW010 SCT020 BKN060 14/12 A3005 RMK SF2SC2SC3 CIG LWR E SLP174
2001 09 19 07 METAR CYVR 190700Z 30008KT 15SM FEW010 FEW020 SCT060 BKN085 13/11 A3005 RMK SF1SC2SC2AC3 SLP174
2001 09 19 08 METAR CYVR 190800Z 29013G18KT 15SM FEW010 SCT075 BKN090 14/12 A3005 RMK SF1AC2AC4 SLP174
2001 09 19 09 METAR CYVR 190900Z 30010KT 15SM FEW010 BKN080 13/11 A3005 RMK SF1AC5 SLP176
2001 09 19 L METAR CYVR NIL
2001 09 19 10 METAR CYVR 191000Z 29010KT 15SM FEW010 BKN083 14/12 A3005 RMK SF1AC6 SLP177
2001 09 19 12 METAR CYVR 191200Z 30008KT 15SM FEW010 SCT080 12/10 A3007 RMK SF2AC2 SLP183
2001 09 19 13 METAR CYVR 191300Z 28010KT 30SM FEW018 FEW080 12/10 A3008 RMK SF2AC1 SLP184
2001 09 19 14 METAR CYVR 191400Z 30009G15KT 30SM FEW018 FEW080 SCT220 12/10 A3009 RMK SF2AC1CI0 SLP188
2001 09 19 15 METAR CYVR 191500Z 36004KT 30SM FEW018 FEW080 BKN220 12/11 A3011 RMK SF2AC1CI0 SLP195
2001 09 19 16 METAR CYVR 191600Z 31008KT 30SM FEW015 FEW080 BKN220 14/11 A3013 RMK SF2AC1CI0 SLP201
2001 09 19 17 METAR CYVR 191700Z 31010KT 30SM FEW018 FEW025TCU BKN220 15/11 A3014 RMK SF1TCU2CI0 SLP206
2001 09 19 18 METAR CYVR 191800Z 26006KT 30SM FEW015 FEW025TCU BKN080 BKN220 15/11 A3015 RMK CF1TCU2AC2CI1 SLP211
2001 09 19 19 METAR CYVR 191900Z 24007KT 30SM FEW015 FEW025 BKN080 BKN220 15/11 A3017 RMK CF1CU2AC1CI0 TCU ASOCTD SLP215
2001 09 19 20 METAR CYVR 192000Z 25005KT 30SM FEW025 SCT060 BKN220 16/11 A3018 RMK CU2SC1CI0 TCU ASOCTD SLP218
2001 09 19 21 METAR CYVR 192100Z 20003KT 30SM FEW020 SCT060 BKN220 17/11 A3017 RMK CU2SC1CI0 TCU ASOCTD SLP216
2001 09 19 22 METAR CYVR 192200Z 24007KT 30SM FEW018 SCT060 BKN220 18/11 A3017 RMK CU2SC1CI0 SLP215
2001 09 19 23 METAR CYVR 192300Z 23005KT 30SM FEW018 SCT060 BKN220 17/10 A3016 RMK CU2SC1CI0 TCU ASOCTD SLP213
2001 09 20 00 METAR CYVR 200000Z 26005KT 30SM FEW018 FEW065 BKN220 17/10 A3015 RMK CU1CU2CI0 SLP210
2001 09 20 01 METAR CYVR 200100Z 29003KT 30SM FEW025 FEW065 BKN220 16/09 A3014 RMK CU1SC2CI0 SLP206
2001 09 20 02 METAR CYVR 200200Z 29002KT 30SM FEW060 BKN130 BKN220 15/09 A3013 RMK SC1AC4CI0 SLP202
2001 09 20 03 METAR CYVR 200300Z 32004KT 30SM FEW060 BKN140 BKN220 14/10 A3013 RMK SC1AC5CI0 SLP201
2001 09 20 04 METAR CYVR 200400Z 36002KT 30SM FEW060 BKN140 BKN220 14/08 A3012 RMK SC1AC4CI0 SLP199
2001 09 20 05 METAR CYVR 200500Z 04003KT 30SM BKN130 BKN220 15/09 A3011 RMK AC5CI0 SLP196
2001 09 20 06 METAR CYVR 200600Z 01002KT 30SM BKN120 BKN220 14/09 A3011 RMK AC6CI0
2001 09 20 07 METAR CYVR 200700Z 03002KT 30SM BKN120 BKN220 14/10 A3011 RMK AC6CI1 SLP196
2001 09 20 08 METAR CYVR 200800Z 09004KT 30SM BKN110 12/09 A3010 RMK AC4 SLP192
2001 09 20 09 METAR CYVR 200900Z 11004KT 30SM BKN110 BKN160 13/10 A3009 RMK AC5AS1 SLP190
2001 09 20 10 METAR CYVR 201000Z 03004KT 30SM BKN110 BKN130 13/10 A3008 RMK AC5AS2 SLP184
2001 09 20 11 METAR CYVR 201100Z 00000KT 30SM BKN110 BKN130 12/10 A3008 RMK AC5AS2 SLP186
2001 09 20 12 METAR CYVR 201200Z 00000KT 20SM BKN110 OVC130 12/10 A3007 RMK AC6AS2 SLP182
2001 09 20 13 METAR CYVR 201300Z 00000KT 20SM BKN110 BKN130 13/10 A3006 RMK AC5AS1 SLP179
2001 09 20 14 METAR CYVR 201400Z 00000KT 20SM BKN100 BKN130 13/10 A3006 RMK AC5AS2 ACC ASOCTD DSTNT SW SLP179
2001 09 20 15 METAR CYVR 201500Z 36002KT 20SM OVC110 13/10 A3006 RMK AC8 ACC ASOCTD SW SLP179
2001 09 20 16 METAR CYVR 201600Z 00000KT 15SM -RA BKN085 OVC110 14/10 A3005 RMK AC6AC2 SLP177
2001 09 20 17 METAR CYVR 201700Z 01002KT 20SM FEW040 BKN095 OVC110 14/11 A3006 RMK SC2AC4AC2 SLP180
2001 09 20 18 METAR CYVR 201800Z 20003KT 20SM FEW040 BKN100 OVC140 15/11 A3006 RMK SC2AC5AC2 SLP180
2001 09 20 19 METAR CYVR 201900Z 22002KT 20SM FEW040 BKN100 OVC150 15/10 A3005 RMK SC2AC5AC2 SLP176
2001 09 20 20 METAR CYVR 202000Z 20004KT 20SM FEW040 BKN110 OVC210 15/11 A3005 RMK SC2AC5CI0 SLP176
2001 09 20 21 METAR CYVR 202100Z 26006KT 30SM FEW040 BKN090 BKN150 16/12 A3005 RMK SC2AC4AC1 SLP175
2001 09 20 22 METAR CYVR 202200Z 29006KT 30SM FEW040 BKN088 BKN140 17/12 A3003 RMK CF1AS4AC2 SLP168
2001 09 20 23 METAR CYVR 202300Z 27004KT 30SM FEW040 BKN082 BKN140 16/12 A3001 RMK CF1AC5AC2 SLP163
2001 09 21 00 METAR CYVR 210000Z 27003KT 30SM FEW040 BKN080 OVC140 16/12 A3000 RMK CF1AC6AC2 SLP159
2001 09 21 01 METAR CYVR 210100Z 26003KT 30SM FEW040 BKN080 OVC140 15/11 A2999 RMK CF1AC4AC3 SLP155
2001 09 21 02 METAR CYVR 210200Z 00000KT 30SM FEW040 BKN080 BKN120 15/11 A2999 RMK CF1AC6AC1 SLP155
2001 09 21 03 METAR CYVR 210300Z 16002KT 30SM FEW040 BKN082 OVC120 16/10 A2998 RMK CF2AC6AC1 SLP152
2001 09 21 04 METAR CYVR 210400Z 16005KT 30SM FEW040 BKN082 OVC120 16/10 A2998 RMK CF1AC6AC2 SLP152
2001 09 21 05 METAR CYVR 210500Z 13003KT 30SM BKN076 OVC120 15/10 A2999 RMK AC6AC2 SLP154
2001 09 21 06 METAR CYVR 210600Z 11007KT 30SM FEW040 BKN076 OVC120 15/11 A2999 RMK SC2AC5AC2 SLP154
2001 09 21 07 METAR CYVR 210700Z 13005KT 20SM -RA SCT042 OVC072 14/12 A3000 RMK SC3AC5 SLP160
2001 09 21 08 METAR CYVR 210800Z 12005KT 15SM -RA FEW025 SCT038 OVC070 13/11 A3001 RMK SC2SC2AC5 SLP162
2001 09 21 09 METAR CYVR 210900Z 10005KT 15SM -RA FEW025 SCT040 OVC065 13/12 A3002 RMK SC2SC2SC4 SLP165
2001 09 21 10 METAR CYVR 211000Z 11003KT 15SM -RA FEW025 BKN040 OVC065 13/11 A3002 RMK SC2SC2SC3 SLP166
2001 09 21 11 METAR CYVR 211100Z 00000KT 10SM -RA FEW020 BKN035 OVC050 13/12 A3002 RMK SF2SC3SC2 SLP167
2001 09 21 12 METAR CYVR 211200Z 11003KT 10SM -RA FEW015 SCT030 OVC041 12/11 A3003 RMK SF2SC2SC4 SLP168
2001 09 21 13 METAR CYVR 211300Z 11003KT 10SM -RA FEW005 FEW015 SCT038 OVC058 12/11 A3003 RMK SF1SF1SC2SC4 SLP169
2001 09 21 14 METAR CYVR 211400Z 12007KT 5SM -RA BR FEW007 FEW015 SCT035 OVC057 12/11 A3004 RMK SF2SF1SC2SC4 SLP172
2001 09 21 15 METAR CYVR 211500Z 11006KT 6SM -RA BR FEW008 SCT032 OVC044 12/11 A3006 RMK SF2SC2SC4 VSBY LWR E SLP178
2001 09 21 16 METAR CYVR 211600Z 09006KT 6SM -RA BR FEW008 SCT035 OVC044 13/12 A3007 RMK SF2SC2SC4 PCPN VRY LGT VSBY LWR E SLP181
2001 09 21 17 METAR CYVR 211700Z 09008KT 8SM -RA FEW008 SCT012 SCT020 OVC032 13/11 A3008 RMK SF1CF2SC1SC4 PCPN VRY LGT SLP187
2001 09 21 18 METAR CYVR 211800Z 10007KT 6SM -RA BR FEW008 FEW014 BKN019 OVC030 13/12 A3010 RMK SF1CF2SC3SC2 PCPN VRY LGT SLP193
2001 09 21 19 METAR CYVR 211900Z 10008KT 8SM FEW008 FEW013 OVC019 13/12 A3012 RMK SF1SF2SC6 SLP198
2001 09 21 20 METAR CYVR 212000Z 11008KT 8SM FEW008 FEW013 BKN018 OVC030 13/11 A3012 RMK SF1CF2SC5SC1 SLP198
2001 09 21 21 METAR CYVR 212100Z 13009KT 12SM FEW008 SCT013 OVC025 14/12 A3011 RMK SF1CF2SC5 SLP197
2001 09 21 22 METAR CYVR 212200Z 13008KT 7SM -DZ FEW008 BKN015 OVC025 14/12 A3012 RMK SF2CF3SC3 SLP199
2001 09 21 23 METAR CYVR 212300Z 11009KT 5SM -DZ BR FEW007 BKN015 OVC026 14/13 A3011 RMK SF2CF3SC2 SLP197
2001 09 22 00 METAR CYVR 220000Z 05006KT 4SM -DZ BR FEW006 SCT013 OVC019 14/12 A3012 RMK SF2SF2SC4 SLP198
2001 09 22 01 METAR CYVR 220100Z 07007KT 8SM FEW006 SCT018 OVC035 14/12 A3010 RMK SF1SF2SC5 SLP194
2001 09 22 02 METAR CYVR 220200Z 06006KT 6SM -DZ BR FEW006 BKN014 BKN026 OVC040 14/13 A3012 RMK SF1SF4SC2SC1 SLP198
2001 09 22 03 METAR CYVR 220300Z 07006KT 3SM -DZ BR FEW006 BKN017 BKN031 OVC040 14/13 A3011 RMK SF2SF3SC2SC1 SLP197
2001 09 22 04 METAR CYVR 220400Z 05007KT 6SM -DZ BR FEW006 FEW015 SCT030 OVC039 14/13 A3012 RMK SF1SF2SC2SC4 SLP198
2001 09 22 05 METAR CYVR 220500Z 08007KT 10SM FEW006 FEW015 BKN040 OVC092 14/13 A3010 RMK SF1SF1SC5AC2 SLP194
2001 09 22 06 METAR CYVR 220600Z 08005KT 10SM FEW015 BKN040 OVC090 14/13 A3011 RMK SF2SC4AC2 SLP197
2001 09 22 07 METAR CYVR 220700Z 09006KT 10SM FEW015 OVC040 14/13 A3011 RMK SF2SC6 SLP196
2001 09 22 08 METAR CYVR 220800Z 08005KT 10SM FEW015 SCT040 OVC090 14/13 A3010 RMK SF1SC2AC5 SLP192
2001 09 22 09 METAR CYVR 220900Z 10004KT 10SM FEW040 OVC090 14/13 A3009 RMK SC2AC6 SLP190
2001 09 22 10 METAR CYVR 221000Z 24003KT 10SM SCT030 OVC090 15/13 A3009 RMK SC3AC5 SLP188
2001 09 22 11 METAR CYVR 221100Z 00000KT 10SM BKN030 OVC090 14/13 A3008 RMK SC5AC3 SLP184
2001 09 22 12 METAR CYVR 221200Z 00000KT 10SM BKN030 OVC090 14/13 A3007 RMK SC5AC3 SLP183
2001 09 22 13 METAR CYVR 221300Z 28004KT 12SM BKN030 OVC090 14/13 A3007 RMK SC6AC2 SLP182
2001 09 22 14 METAR CYVR 221400Z 27002KT 15SM BKN035 OVC090 14/13 A3007 RMK SC6AC2 SLP182
2001 09 22 15 METAR CYVR 221500Z 00000KT 20SM BKN038 OVC090 15/14 A3006 RMK SC6AC2 BCFG OVR BURRARD INLET SLP180
2001 09 22 16 METAR CYVR 221600Z 20002KT 20SM FEW015 SCT037 OVC092 15/14 A3006 RMK CF1SC2AC5 SLP178
2001 09 22 17 METAR CYVR 221700Z 29003KT 20SM FEW015 FEW040 SCT090 BKN130 16/14 A3005 RMK CF1SC2AC2AC2 SLP177
2001 09 22 18 METAR CYVR 221800Z 26005KT 30SM FEW018 FEW040 BKN120 BKN230 17/14 A3005 RMK CF1SC1AC3CI1 TR CF CI SLP174
2001 09 22 19 METAR CYVR 221900Z 24004KT 30SM FEW018 FEW040 SCT140 18/15 A3003 RMK CF1SC1AC2 TR CF SLP169
2001 09 22 20 METAR CYVR 222000Z 25004KT 30SM FEW040 SCT140 19/16 A3001 RMK SC1AC2 SLP163
2001 09 22 21 METAR CYVR 222100Z 25007KT 30SM FEW040 SCT130 18/15 A3000 RMK SC1AC2 SLP159
2001 09 22 22 METAR CYVR 222200Z 28006KT 30SM FEW040 SCT130 19/15 A2998 RMK SC1AC2 SLP152
2001 09 22 23 METAR CYVR 222300Z 30006KT 30SM SCT130 BKN160 18/15 A2997 RMK AC3AC2 SLP147
2001 09 23 00 METAR CYVR 230000Z 31007KT 30SM FEW090 BKN130 BKN150 19/15 A2995 RMK AC2AC2AC0 SLP141
2001 09 23 01 METAR CYVR 230100Z 31006KT 30SM FEW090 BKN120 BKN180 18/15 A2993 RMK AC2AC2AC0 SLP134
2001 09 23 02 METAR CYVR 230200Z 32003KT 30SM FEW090 SCT120 17/14 A2991 RMK AC2AC1 SLP129
2001 09 23 03 METAR CYVR 230300Z 32004KT 30SM FEW100 FEW130 15/13 A2990 RMK AC1AC1 SLP125
2001 09 23 04 METAR CYVR 230400Z 20002KT 30SM FEW100 FEW130 17/14 A2991 RMK AC1AC1 SLP128
2001 09 23 05 METAR CYVR 230500Z 34004KT 30SM FEW100 15/13 A2992 RMK AC1 SLP131
2001 09 23 06 METAR CYVR 230600Z 29002KT 30SM SKC 16/14 A2992 RMK SLP133
2001 09 23 08 METAR CYVR 230800Z 11008KT 30SM SKC 14/12 A2992 RMK SLP132
2001 09 23 09 METAR CYVR 230900Z 10005KT 30SM SKC 13/12 A2992 RMK SLP133
2001 09 23 10 METAR CYVR 231000Z 00000KT 30SM MIFG SKC 14/13 A2993 RMK SLP135
2001 09 23 11 METAR CYVR 231100Z 03002KT 30SM MIFG SKC 13/12 A2992 RMK SLP132
2001 09 23 12 METAR CYVR 231200Z 05003KT 30SM MIFG SKC 12/12 A2991 RMK SLP129
2001 09 23 13 METAR CYVR 231300Z 00000KT 30SM MIFG SKC 12/12 A2991 RMK SLP129
2001 09 23 14 METAR CYVR 231400Z 00000KT 30SM MIFG FEW250 12/12 A2992 RMK CI1 VSBY S-W 5 BR SLP131
2001 09 23 15 METAR CYVR 231500Z 00000KT 30SM FEW015 FEW250 13/12 A2992 RMK ST1CI0 ST OVR STRTS SLP131
2001 09 23 16 METAR CYVR 231600Z 00000KT 30SM FEW250 16/14 A2991 RMK CI1 VSBY LWR S-W DUE LO CLD/BR SLP129
2001 09 23 17 METAR CYVR 231700Z 29005KT 30SM FEW015 FEW250 17/15 A2991 RMK ST1CI1 TR CLD SLP128
2001 09 23 18 METAR CYVR 231800Z 28009KT 30SM FEW015 17/15 A2991 RMK ST1 TR LO CLD DSNT W SLP127
2001 09 23 19 METAR CYVR 231900Z 31009KT 30SM SKC 18/15 A2989 RMK TR LO ST DSNT W SLP123
2001 09 23 20 METAR CYVR 232000Z 31009KT 30SM FEW250 18/15 A2989 RMK CI1 TR CLD SLP122
2001 09 23 21 METAR CYVR 232100Z 30007KT 30SM SKC 19/16 A2987 RMK SLP113
2001 09 23 22 METAR CYVR 232200Z 29008KT 30SM FEW025 FEW250 19/15 A2985 RMK CF1CI1 TR CLD. SLP107
2001 09 23 23 METAR CYVR 232300Z 30006KT 30SM FEW250 18/15 A2983 RMK CI0 FG PTCH OVR WTR SW SLP101
2001 09 24 00 METAR CYVR 240000Z 30007KT 30SM FEW140 FEW250 18/15 A2981 RMK AC0CI0 TR CLD SLP094
2001 09 24 01 METAR CYVR 240100Z 29007KT 30SM FEW140 FEW250 18/15 A2980 RMK AC1CI1 TR CLD SLP091
2001 09 24 02 METAR CYVR 240200Z 30002KT 30SM FEW220 16/14 A2980 RMK CI1 TR CLD SLP090
2001 09 24 03 METAR CYVR 240300Z 26006KT 30SM SKC 16/14 A2981 RMK SLP093
2001 09 24 04 METAR CYVR 240400Z 17004KT 30SM SKC 16/14 A2982 RMK SLP096
2001 09 24 05 METAR CYVR 240500Z 13003KT 15SM MIFG SKC 15/14 A2983 RMK SLP101
2001 09 24 06 METAR CYVR 240600Z 09005KT 4SM BR SKC 14/13 A2984 RMK VSBY HIER E SLP106
2001 09 24 07 METAR CYVR 240700Z 10008KT 15SM SKC 14/13 A2985 RMK SLP108
2001 09 24 08 METAR CYVR 240800Z 11005KT 30SM SKC 13/13 A2985 RMK SLP109
2001 09 24 09 METAR CYVR 240900Z 11003KT 30SM MIFG SKC 14/13 A2986 RMK SLP111
2001 09 24 10 METAR CYVR 241000Z 11005KT 30SM MIFG SKC 13/12 A2986 RMK SLP110
2001 09 24 11 METAR CYVR 241100Z 14003KT 30SM MIFG SKC 15/14 A2987 RMK SLP113
2001 09 24 12 METAR CYVR 241200Z 11003KT 15SM MIFG SKC 14/13 A2987 RMK SLP116
2001 09 24 13 METAR CYVR 241300Z 10006KT 5SM BR FEW200 12/12 A2987 RMK CI0 SLP116
2001 09 24 14 METAR CYVR 241400Z 12003KT 6SM BR FEW200 BKN250 13/12 A2989 RMK CI2CI1 SLP121
2001 09 24 15 METAR CYVR 241500Z 12006KT 6SM BR FEW015 BKN200 14/13 A2990 RMK SF2CI3 SLP126
2001 09 24 16 METAR CYVR 241600Z 10006KT 3/4SM BR SKC 14/13 A2992 RMK FG7 SLP132
2001 09 24 17 METAR CYVR 241700Z 13008KT 1 1/2SM BR VV003 15/14 A2992 RMK FG8 SLP133
2001 09 24 18 METAR CYVR 241800Z 15008KT 2SM BR OVC003 15/13 A2994 RMK FG2ST6 SLP139
2001 09 24 19 METAR CYVR 241900Z 13012KT 15SM FEW003 FEW050 BKN250 16/14 A2992 RMK SF2SC1CI2 TR SC SLP133
2001 09 24 20 METAR CYVR 242000Z 12009KT 15SM FEW010 FEW050 SCT250 19/15 A2992 RMK SF1SC1CI2 TR SF + SC SLP131
2001 09 24 21 METAR CYVR 242100Z 15011KT 20SM FEW010 FEW050 FEW250 20/15 A2991 RMK SF1SC1CI2 TR SF + SC SLP128
2001 09 24 22 METAR CYVR 242200Z 16011KT 20SM FEW050 FEW160 FEW250 20/15 A2989 RMK SC1AC1CI2 TR SC SLP123
2001 09 24 23 METAR CYVR 242300Z 14011KT 30SM FEW050 FEW160 SCT250 20/15 A2989 RMK CF1AC1CI1 TR CF SLP121
2001 09 25 00 METAR CYVR 250000Z 14008KT 30SM FEW050 FEW160 FEW230 21/15 A2989 RMK CF1AC1CI1 TR CF+AC SLP120
2001 09 25 01 METAR CYVR 250100Z 11006KT 30SM FEW050 FEW160 SCT230 18/14 A2987 RMK CF1ACC2CI2 TR CF CC ASOCTD SLP116
2001 09 25 01 METAR CYVR 250100Z 11006KT 30SM FEW050 FEW160 SCT230 18/14 A2987 RMK CF1ACC2CI2 TR CF CC ASOCTD SLP116
2001 09 25 03 METAR CYVR 250300Z 11005KT 30SM FEW080 FEW140 SCT220 BKN290 15/13 A2989 RMK AC1ACC1CI1CI1 CC ASOCTD SLP120
2001 09 25 04 METAR CYVR 250400Z 10006KT 30SM FEW066 FEW085 SCT140 BKN220 OVC290 15/13 A2988 RMK SC1AC1ACC1CI2CI2 TR SC CC ASOCTD SLP119
2001 09 25 05 METAR CYVR 250500Z 09005KT 20SM FEW066 FEW086 SCT140 BKN220 OVC290 14/12 A2989 RMK SC1AC1AC1CI2CI2 TR SC CC ASOCTD SLP120
2001 09 25 06 METAR CYVR 250600Z 11006KT 20SM FEW140 SCT220 BKN290 15/13 A2988 RMK AC1CI2CI2 CC ASOCTD SLP119
2001 09 25 07 METAR CYVR 250700Z 10006KT 20SM FEW140 BKN220 14/12 A2989 RMK AC2CI2 SLP121
2001 09 25 08 METAR CYVR 250800Z 08006KT 20SM FEW140 BKN240 15/13 A2987 RMK AC2CI2 SLP113
2001 09 25 09 METAR CYVR 250900Z 09006KT 15SM SCT240 14/12 A2984 RMK CI2 SLP106
2001 09 25 10 METAR CYVR 251000Z 00000KT 15SM FEW140 SCT240 14/13 A2986 RMK AC1CI2 SLP110
2001 09 25 11 METAR CYVR 251100Z 00000KT 15SM FEW140 SCT230 13/12 A2984 RMK FG1AC1CI2 SLP105
2001 09 25 12 METAR CYVR 251200Z 00000KT 10SM FEW005 SCT140 BKN160 OVC230 13/12 A2984 RMK SF2AC2AC4CI1 SLP106
2001 09 25 13 METAR CYVR 251300Z 18005KT 6SM BR FEW006 BKN019 OVC180 14/13 A2984 RMK SF2SC2AC3 SLP105
2001 09 25 14 METAR CYVR 251400Z 09007KT 4SM BR FEW006 OVC012 14/13 A2984 RMK SF2ST6 SLP103
2001 09 25 15 METAR CYVR 251500Z 09009KT 2 1/2SM BR FEW006 SCT010 OVC016 14/13 A2984 RMK FG1SF2ST2ST4 SLP103
2001 09 25 16 METAR CYVR 251600Z 14006KT 4SM BR FEW004 SCT009 BKN015 OVC100 14/13 A2983 RMK SF2SF2SC4AC1 SLP101
2001 09 25 17 METAR CYVR 251700Z 12007KT 3SM BR FEW003 BKN007 BKN015 OVC025 15/13 A2983 RMK SF1SF4ST2SC1 SLP100
2001 09 25 18 METAR CYVR 251800Z 11003KT 4SM BR FEW003 BKN008 OVC014 15/13 A2982 RMK SF1SF4ST3 SLP097
2001 09 25 19 METAR CYVR 251900Z 19003KT 4SM BR FEW005 BKN009 OVC015 16/13 A2980 RMK SF1SF5ST2 SLP092
2001 09 25 20 METAR CYVR 252000Z 16006KT 4SM BR FEW005 BKN008 OVC015 15/13 A2978 RMK SF2SF5ST2 SLP085
2001 09 25 21 METAR CYVR 252100Z 22007KT 6SM BR SCT005 BKN009 OVC015 15/13 A2979 RMK SF3SF2SC2 SLP086
2001 09 25 22 METAR CYVR 252200Z 14006KT 8SM FEW008 SCT015 BKN021 OVC100 16/13 A2978 RMK SF2SF2SC2AC1 SLP083
2001 09 25 23 METAR CYVR 252300Z 13010G15KT 8SM FEW008 OVC017 16/13 A2978 RMK SF2SF6 SLP085
2001 09 26 00 METAR CYVR 260000Z 15007KT 8SM FEW008 OVC020 15/13 A2980 RMK SF2SF6 SLP091
2001 09 26 01 METAR CYVR 260100Z 10006KT 8SM FEW008 OVC020 14/12 A2981 RMK SF2SF6 SLP095
2001 09 26 02 METAR CYVR 260200Z 10004KT 6SM -SHRA BR FEW008 FEW015 OVC024 14/13 A2982 RMK SF1SF2SF6 SLP097
2001 09 26 03 METAR CYVR 260300Z 13003KT 5SM -SHRA BR FEW008 BKN012 OVC020 15/14 A2983 RMK SF2SF4SF2 SLP100
2001 09 26 04 METAR CYVR 260400Z 09003KT 5SM -SHRA BR FEW005 BKN010 OVC038 14/13 A2982 RMK SF1SF6SC2 SLP099
2001 09 26 05 METAR CYVR 260500Z 10006KT 6SM -SHRA BR FEW008 SCT025 BKN040 OVC090 14/13 A2982 RMK SF1SF2SC2AC2 VRY LGT RW SLP099
2001 09 26 06 METAR CYVR 260600Z 14007KT 6SM BR FEW005 FEW015 BKN038 OVC090 14/13 A2983 RMK SF2SF1SC4AC2 SLP101
2001 09 26 07 METAR CYVR 260700Z 13006KT 8SM FEW008 FEW040 OVC070 14/13 A2983 RMK SF1SC2AC6 SLP100
2001 09 26 08 METAR CYVR 260800Z 10005KT 8SM -RA FEW008 FEW025 SCT038 BKN062 OVC080 14/13 A2983 RMK SF1SC1SC2SC3AC2 SLP100
2001 09 26 09 METAR CYVR 260900Z 09005KT 10SM FEW008 FEW025 BKN036 OVC070 14/13 A2984 RMK SF2SC1SC4AC2 SLP103
2001 09 26 10 METAR CYVR 261000Z 12006KT 12SM FEW007 SCT012 BKN035 BKN052 OVC075 14/13 A2983 RMK SF2SF2SC2SC1AC2 SLP101
2001 09 26 11 METAR CYVR 261100Z 11010KT 6SM BR FEW006 SCT012 BKN035 OVC050 14/13 A2982 RMK SF2SF2SC2SC2 SLP097
2001 09 26 12 METAR CYVR 261200Z 13012KT 6SM BR SCT006 BKN012 OVC035 14/13 A2982 RMK SF3SF2SC2 SLP098
2001 09 26 13 METAR CYVR 261300Z 13014KT 6SM -RA BR FEW006 SCT011 BKN045 OVC053 14/13 A2981 RMK SF2SF2SC3SC2 SLP093
2001 09 26 14 METAR CYVR 261400Z 13015KT 6SM -RA BR FEW006 SCT015 BKN048 OVC075 14/12 A2981 RMK SF1SF2SC3AC2 SLP094
2001 09 26 15 METAR CYVR 261500Z 13012G17KT 10SM FEW004 FEW015 BKN042 OVC075 14/13 A2981 RMK SF1SF2SC3AC2 SLP093
2001 09 26 16 METAR CYVR 261600Z 13009KT 6SM -RA BR FEW004 SCT014 BKN026 OVC040 14/13 A2979 RMK SF1SF2SC3SC2 SLP088
2001 09 26 17 METAR CYVR 261700Z 13011KT 5SM -RA BR FEW004 BKN016 OVC025 14/12 A2980 RMK SF2SF4SC2 SLP091
2001 09 26 18 METAR CYVR 261800Z 14011KT 5SM -RA BR FEW004 BKN011 OVC022 14/12 A2979 RMK SF2SF4SC2 SLP087
2001 09 26 19 METAR CYVR 261900Z 15012KT 4SM +RA BR SCT004 BKN012 OVC020 14/12 A2979 RMK SF3SF4SC1 SLP088
2001 09 26 20 METAR CYVR 262000Z 17007KT 5SM RA BR FEW004 SCT008 BKN014 OVC030 14/13 A2979 RMK SF2SF2SC2SC2 RERA SLP087
2001 09 26 21 METAR CYVR 262100Z 14010KT 8SM -RA FEW004 FEW008 FEW020 BKN074 14/13 A2980 RMK SF1SF1SC2AC5 SLP090
2001 09 26 22 METAR CYVR 262200Z 19011KT 12SM FEW004 FEW012 FEW030 SCT140 BKN230 16/14 A2983 RMK SF1SF1SC1AC1CI1 INTMT -RA. VSBY SW 30. SLP101
2001 09 26 23 METAR CYVR 262300Z 29018G24KT 20SM FEW004 FEW030 FEW050 SCT080 BKN140 BKN230 14/12 A2988 RMK SF1SC1SC2AC1AC1CI1 VSBY LWR E. HIR W. SLP118
2001 09 27 00 METAR CYVR 270000Z 30015G20KT 20SM FEW004 FEW035 FEW060 SCT140 BKN230 14/11 A2993 RMK SF1SC1SC2AC1CI1 VSBY LWR E. HIR W. TR SF. SLP134
2001 09 27 01 METAR CYVR 270100Z 29011KT 30SM FEW035 FEW060 FEW230 14/09 A2997 RMK CU1SC1CI1 SLP150
2001 09 27 02 METAR CYVR 270200Z 28007KT 30SM FEW035 FEW060 FEW080 13/09 A3001 RMK SC1SC1AC1 SLP163
2001 09 27 03 METAR CYVR 270300Z 27006KT 30SM FEW035 FEW060 FEW080 13/09 A3004 RMK SC1SC1AC1 TR LWR SC. SLP172
2001 09 27 04 METAR CYVR 270400Z 00000KT 30SM FEW060 FEW080 11/08 A3006 RMK SC1AC1 SLP179
2001 09 27 05 METAR CYVR 270500Z 09005KT 30SM FEW060 FEW080 09/07 A3008 RMK SC1AC1 SLP185
2001 09 27 06 METAR CYVR 270600Z 09005KT 30SM FEW080 FEW150 10/08 A3008 RMK AC1AC1 SLP187
2001 09 27 07 METAR CYVR 270700Z 10004KT 30SM FEW080 FEW150 09/08 A3010 RMK AC1AC1 SLP192
2001 09 27 08 METAR CYVR 270800Z 10009KT 30SM FEW061 FEW150 09/08 A3012 RMK SC1AC1 SLP200
2001 09 27 09 METAR CYVR 270900Z 09006KT 30SM FEW060 BKN150 09/08 A3014 RMK SC2AC3 SLP205
2001 09 27 10 METAR CYVR 271000Z 08007KT 30SM BKN080 10/08 A3014 RMK AC5 SLP206
2001 09 27 11 METAR CYVR 271100Z 08008KT 30SM FEW050 SCT080 09/08 A3014 RMK SC1AC2 SLP206
2001 09 27 12 METAR CYVR 271200Z 08005KT 20SM FEW020 BKN030 08/07 A3014 RMK SC1SC4 SLP206
2001 09 27 13 METAR CYVR 271300Z 06006KT 30SM BKN035 10/08 A3012 RMK SC7 SLP198
2001 09 27 14 METAR CYVR 271400Z 08006KT 30SM FEW038 BKN250 10/08 A3010 RMK SC2CI3 LO CLD OVR WTR DSNT W SLP191
2001 09 27 15 METAR CYVR 271500Z 09004KT 30SM FEW036 BKN240 10/08 A3010 RMK SC1CI6 SLP192
2001 09 27 16 METAR CYVR 271600Z 09006KT 30SM FEW015 FEW035 BKN230 12/09 A3009 RMK SC1SC1CI5 TR LO LYR W SLP189
2001 09 27 17 METAR CYVR 271700Z 02002KT 30SM FEW018 BKN230 13/10 A3007 RMK CU1CI5 TR CU SLP181
2001 09 27 18 METAR CYVR 271800Z 28006KT 30SM FEW018 SCT230 13/10 A3004 RMK CU1CI4 TR CU SLP172
2001 09 27 19 METAR CYVR 271900Z 26009G15KT 30SM FEW018 BKN230 14/09 A3001 RMK CU1CI5 TR CU SLP162
2001 09 27 20 METAR CYVR 272000Z 26007KT 30SM FEW018 BKN230 14/09 A2999 RMK CU1CI7 TR CU SLP156
2001 09 27 21 METAR CYVR 272100Z 28007KT 30SM FEW025 BKN210 14/10 A2997 RMK CU1CI7 TR CU SLP150
2001 09 27 22 METAR CYVR 272200Z 27006KT 30SM FEW030 BKN200 14/10 A2996 RMK CU1CI7 TR CU SLP144
2001 09 27 23 METAR CYVR 272300Z 29003KT 30SM FEW030 BKN200 14/08 A2996 RMK SC1CI7 TR SC SLP144
2001 09 28 00 METAR CYVR 280000Z 00000KT 30SM FEW030 BKN150 BKN170 14/08 A2996 RMK SC1AC5AS2 TR SC SLP144
2001 09 28 01 METAR CYVR 280100Z 23002KT 30SM FEW030 BKN150 BKN170 14/08 A2996 RMK SC1AC5AC2 TR SC SLP144
2001 09 28 02 METAR CYVR 280200Z 16004KT 30SM FEW030 SCT180 BKN240 14/08 A2996 RMK SC1AC2CI0 TR SC SLP146
2001 09 28 03 METAR CYVR 280300Z 13004KT 30SM FEW030 SCT160 BKN200 13/08 A2997 RMK SC1AC2CI2 TR SC SLP149
2001 09 28 04 METAR CYVR 280400Z 11006KT 30SM FEW160 FEW200 10/07 A2998 RMK AC1CI0 SLP152
2001 09 28 05 METAR CYVR 280500Z 10007KT 30SM FEW160 09/07 A2999 RMK AC1 SLP155
2001 09 28 06 METAR CYVR 280600Z 09007KT 30SM FEW150 08/07 A3000 RMK AC1 SLP159
2001 09 28 07 METAR CYVR 280700Z 09006KT 30SM SCT040 09/07 A3000 RMK SC3 SLP160
2001 09 28 08 METAR CYVR 280800Z 08005KT 30SM FEW040 FEW150 09/07 A3000 RMK SC2AC1 SLP159
2001 09 28 09 METAR CYVR 280900Z 10005KT 30SM FEW042 SCT150 BKN250 08/06 A3001 RMK SC1AC2CI0 SLP161
2001 09 28 10 METAR CYVR 281000Z 11008KT 30SM FEW047 SCT150 BKN250 10/08 A3002 RMK SC2AC2CI0 SLP166
2001 09 28 11 METAR CYVR 281100Z 09007KT 30SM FEW067 SCT150 BKN250 09/07 A3002 RMK AC2AC1CI0 SLP164
2001 09 28 12 METAR CYVR 281200Z 10006KT 30SM SCT067 BKN150 BKN250 09/08 A3001 RMK AC3AC2CI0 SLP162
2001 09 28 13 METAR CYVR 281300Z 12006KT 30SM FEW030 FEW060 BKN150 BKN250 09/08 A3001 RMK SC1SC2AC3CI1 SLP161
2001 09 28 14 METAR CYVR 281400Z 09004KT 30SM SCT025 SCT060 BKN130 OVC190 09/07 A3001 RMK SC3SC1AC2CI2 VSBY LWR S-W SLP161
2001 09 28 15 METAR CYVR 281500Z 11007KT 20SM SCT030 OVC120 11/09 A3001 RMK SC4AC4 VSBY LWR S-W SLP161
2001 09 28 16 METAR CYVR 281600Z 12006KT 30SM SCT038 SCT085 BKN120 BKN250 12/08 A3002 RMK SC3AC1AC2CI1 VSBY S-W 15 VIRGA SW QUAD SLP167
2001 09 28 17 METAR CYVR 281700Z 11008KT 30SM FEW038 BKN065 12/09 A3005 RMK SC1SC6 VSBY S-W 15 VIRGA ALQDS SHWRS MTNS N SLP175
2001 09 28 18 METAR CYVR 281800Z 10010KT 20SM -SHRA FEW035 OVC065 12/09 A3005 RMK SC1SC7 VSBY HIR E SLP175
2001 09 28 19 METAR CYVR 281900Z 09011KT 20SM FEW035 BKN065 OVC120 14/09 A3005 RMK SC2SC6AC1 VIRGA SLP174
2001 09 28 20 METAR CYVR 282000Z 09011KT 20SM VCSH FEW035 BKN067 OVC120 14/09 A3005 RMK SF2AC6AC1 SLP176
2001 09 28 21 METAR CYVR 282100Z 09008KT 30SM FEW030 OVC065 15/09 A3005 RMK CF2SC6 SLP177
2001 09 28 22 METAR CYVR 282200Z 09006KT 20SM VCSH FEW030 OVC065 15/09 A3006 RMK SF2SC6 SLP179
2001 09 28 23 METAR CYVR 282300Z 06008KT 15SM -RA FEW030 OVC057 14/10 A3006 RMK SF2SC6 SLP180
2001 09 29 00 METAR CYVR 290000Z CCA 07008KT 15SM -RA FEW030 OVC058 13/10 A3006 RMK SF2SC6 SLP180
2001 09 29 01 METAR CYVR 290100Z 06007KT 15SM -RA FEW030 OVC057 13/10 A3006 RMK SF2SC6 SLP180
2001 09 29 02 METAR CYVR 290200Z 07007KT 10SM -RA FEW030 OVC059 13/10 A3008 RMK SF2SC6 SLP185
2001 09 29 03 METAR CYVR 290300Z 04010KT 10SM -RA FEW030 OVC064 12/10 A3007 RMK SF2SC6 SLP181
2001 09 29 04 METAR CYVR 290400Z 09006KT 10SM FEW030 OVC071 12/10 A3007 RMK SF2AC6 SLP182
2001 09 29 05 METAR CYVR 290500Z 09007KT 20SM FEW030 BKN063 12/10 A3007 RMK SF2SC4 SLP183
2001 09 29 06 METAR CYVR 290600Z 08007KT 20SM VCSH FEW030 BKN062 OVC140 12/10 A3008 RMK SF2SC3AC2 SLP185
2001 09 29 07 METAR CYVR 290700Z 08005KT 20SM FEW030 BKN070 OVC110 12/10 A3007 RMK SC2AC4AC2 SLP183
2001 09 29 08 METAR CYVR 290800Z 09006KT 20SM FEW030 BKN068 OVC110 13/10 A3008 RMK SC2AC6AC1 SLP184
2001 09 29 09 METAR CYVR 290900Z 12007KT 20SM FEW030 SCT070 OVC100 12/10 A3008 RMK SC1AC2AC5 SLP185
2001 09 29 10 METAR CYVR 291000Z 11008KT 20SM FEW076 BKN110 OVC140 12/10 A3008 RMK AC2AC2AC3 SLP184
2001 09 29 11 METAR CYVR 291100Z 12007KT 20SM BKN074 OVC110 12/10 A3007 RMK AC6AC2 SLP182
2001 09 29 12 METAR CYVR 291200Z 12006KT 20SM BKN069 OVC110 12/10 A3007 RMK AC6AC2 SLP181
2001 09 29 13 METAR CYVR 291300Z 10008KT 20SM BKN064 OVC090 12/10 A3007 RMK SC6AC2 SLP182
2001 09 29 14 METAR CYVR 291400Z 09007KT 20SM BKN063 BKN086 OVC240 12/10 A3007 RMK SC6AC2CI1 SLP183
2001 09 29 15 METAR CYVR 291500Z 10007KT 20SM BKN064 BKN090 BKN240 13/10 A3008 RMK SC6AC1CI1 SLP185
2001 09 29 16 METAR CYVR 291600Z 10009KT 20SM BKN065 BKN090 BKN130 14/11 A3008 RMK SC5AC1AC2 SLP184
2001 09 29 17 METAR CYVR 291700Z 11007KT 20SM BKN064 OVC090 15/11 A3010 RMK SC6AC2 SLP192
2001 09 29 18 METAR CYVR 291800Z 10008KT 20SM BKN074 BKN100 16/11 A3011 RMK AC6AC2 VIRGA DSTN S SLP196
2001 09 29 19 METAR CYVR 291900Z 10010KT 20SM BKN075 OVC100 17/11 A3012 RMK AC5AC2 SLP199
2001 09 29 20 METAR CYVR 292000Z 12007KT 20SM BKN074 OVC100 18/09 A3013 RMK AC6AC2 SLP204
2001 09 29 21 METAR CYVR 292100Z 14005KT 20SM BKN052 OVC075 18/09 A3015 RMK SC6AC2 SHWRS DSTN N-NE SLP209
2001 09 29 22 METAR CYVR 292200Z 16006KT 25SM -SHRA FEW030 BKN041 OVC110 18/10 A3017 RMK SF1SC5AC2 ACC EMBDD HVYR SHRA N+S VIRGA SLP215
2001 09 29 23 METAR CYVR 292300Z 12005KT 20SM -SHRA FEW027 BKN034 BKN078 OVC120 16/11 A3017 RMK ST2SC3AC2AC2 VSBY E 8SHRA BR+VIRGA ALQDS SLP217
2001 09 30 00 METAR CYVR 300000Z 07006KT 10SM -SHRA SCT016 BKN023 BKN040 OVC053 16/12 A3018 RMK ST3ST2SC2SC1 VSBY NW-NE 5 E 10 S 6 W 20 BR+VIRGA ALQDS CU+ACC EMBDD
2001 09 30  METAR      BINOVC SE SLP220
2001 09 30 01 METAR CYVR 300100Z 08004KT 25SM FEW018 SCT041 BKN068 OVC110 16/12 A3019 RMK SF1SC2AC2AC2 SHRA SW+N CU+ACC ASOCTD BINOVC SLP222
2001 09 30 02 METAR CYVR 300200Z 03007KT 25SM FEW020 SCT044 BKN070 BKN120 15/12 A3019 RMK SF1SC2AC2AC2 SHRA NNE ACC ASOCTD SLP222
2001 09 30 03 METAR CYVR 300300Z 07007KT 25SM -SHRA FEW028 FEW044 SCT062 BKN071 BKN120 15/12 A3018 RMK SF1SC2SC2AC2AC1 SHRA VRY LGT SLP221
2001 09 30 04 METAR CYVR 300400Z 10004KT 25SM FEW048 FEW072 SCT120 BKN240 14/11 A3018 RMK SC1AC2AC1CI1 SLP221
2001 09 30 05 METAR CYVR 300500Z 29004KT 25SM FEW048 FEW072 SCT120 BKN240 13/12 A3020 RMK SC1AC2AC1CI1 SLP226
2001 09 30 06 METAR CYVR 300600Z 29002KT 25SM FEW052 FEW089 SCT120 BKN240 14/13 A3021 RMK SC1AC2AC1CI1 SLP228
2001 09 30 07 METAR CYVR 300700Z 34002KT 30SM FEW045 11/11 A3021 RMK SC2 SLP229
2001 09 30 08 METAR CYVR 300800Z 32006KT 30SM FEW270 12/11 A3021 RMK CI0 SLP230
2001 09 30 09 METAR CYVR 300900Z 30007KT 20SM SKC 12/11 A3021 RMK SLP231
2001 09 30 10 METAR CYVR 301000Z 30008KT 30SM FEW010 12/11 A3020 RMK SF1 TR SF SW OVR STRT SLP227
2001 09 30 11 METAR CYVR 301100Z 30016KT 10SM BKN004 12/12 A3021 RMK SF7 CIG VRBL 3-5 SLP229
2001 09 30 12 METAR CYVR 301200Z 31015KT 8SM OVC003 12/12 A3021 RMK SF8 CIG VRBL 2-4 SLP229
2001 09 30 13 METAR CYVR 301300Z 30013G18KT 20SM FEW004 12/11 A3021 RMK SF1 SLP229
2001 09 30 14 METAR CYVR 301400Z 31016KT 20SM FEW004 12/11 A3020 RMK SF1 LO CLD OVR GEORGIA STRAIT SLP227
2001 09 30 15 METAR CYVR 301500Z 30018KT 20SM FEW004 13/11 A3021 RMK SF1 LO CLD OVR GEORGIA STRAIT SLP228
2001 09 30 16 METAR CYVR 301600Z 31015KT 20SM FEW004 FEW160 13/12 A3021 RMK SF1AC1 LO CLD S-W SLP228
2001 09 30 17 METAR CYVR 301700Z 30018KT 20SM FEW004 FEW160 14/12 A3021 RMK SF1AC1 SLP229
2001 09 30 18 METAR CYVR 301800Z 30021G27KT 20SM FEW005 FEW160 14/12 A3020 RMK CF1AC1 SLP227
2001 09 30 19 METAR CYVR 301900Z 30019G24KT 20SM FEW006 FEW160 FEW240 15/13 A3019 RMK CF1AC1CI0 SLP222
2001 09 30 20 METAR CYVR 302000Z 30020KT 30SM FEW240 15/13 A3017 RMK CI1 SLP215
2001 09 30 21 METAR CYVR 302100Z 30019G24KT 20SM FEW240 15/13 A3015 RMK CI0 SLP210
2001 09 30 22 METAR CYVR 302200Z 30018G24KT 30SM FEW250 15/13 A3013 RMK CI1 SLP201
2001 09 30 23 METAR CYVR 302300Z 31017G24KT 30SM FEW240 15/12 A3010 RMK CI1 SLP194
2001 10 01 00 METAR CYVR 010000Z 31016G21KT 30SM FEW240 15/12 A3008 RMK CI1 SLP186
2001 10 01 01 METAR CYVR 010100Z 31014G19KT 30SM FEW240 15/12 A3006 RMK CI0 SLP178
2001 10 01 02 METAR CYVR 010200Z 32013KT 30SM FEW240 14/11 A3004 RMK CI0 SLP173
2001 10 01 03 METAR CYVR 010300Z 31012KT 20SM FEW240 14/11 A3004 RMK CI0 SLP173
2001 10 01 04 METAR CYVR 010400Z 31014KT 20SM FEW240 14/11 A3004 RMK CI0 SLP172
2001 10 01 05 METAR CYVR 010500Z 31016KT 20SM FEW240 13/11 A3004 RMK CI0 SLP171
2001 10 01 06 METAR CYVR 010600Z 30017KT 20SM FEW240 13/11 A3004 RMK CI1 SLP172
2001 10 01 07 METAR CYVR 010700Z 30017KT 30SM SKC 13/11 A3004 RMK SLP172
2001 10 01 08 METAR CYVR 010800Z 30014G19KT 30SM SKC 13/11 A3004 RMK SLP172
2001 10 01 09 METAR CYVR 010900Z 31013KT 30SM SKC 13/11 A3004 RMK SLP171
2001 10 01 10 METAR CYVR 011000Z 31012KT 30SM SCT250 12/11 A3004 RMK CI3 SLP171
2001 10 01 11 METAR CYVR 011100Z 31015KT 30SM BKN230 BKN250 12/11 A3003 RMK CI5CI2 SLP168
2001 10 01 12 METAR CYVR 011200Z 30013KT 30SM SCT230 12/11 A3002 RMK CI3 SLP165
2001 10 01 13 METAR CYVR 011300Z 30017KT 30SM SCT220 BKN260 12/11 A3002 RMK CI3CI0 SLP166
2001 10 01 14 METAR CYVR 011400Z 31016KT 30SM FEW140 BKN230 12/10 A3002 RMK AC1CI5 SLP167
2001 10 01 15 METAR CYVR 011500Z 31014KT 30SM FEW140 BKN220 12/11 A3004 RMK AC2CI3 SLP171
2001 10 01 16 METAR CYVR 011600Z 31013KT 30SM SCT140 BKN220 13/11 A3005 RMK AC3CI1 SLP174
2001 10 01 17 METAR CYVR 011700Z 31014KT 30SM FEW140 BKN220 13/11 A3006 RMK AC2CI2 SLP178
2001 10 01 18 METAR CYVR 011800Z 31014KT 30SM FEW150 BKN220 14/11 A3006 RMK AC2CI2 SLP180
2001 10 01 19 METAR CYVR 011900Z 30014KT 30SM FEW150 SCT220 15/11 A3005 RMK AC2CI1 SLP177
2001 10 01 20 METAR CYVR 012000Z 30017KT 30SM FEW150 SCT200 15/11 A3006 RMK AC2CI1 SLP179
2001 10 01 21 METAR CYVR 012100Z 29016KT 30SM FEW150 FEW200 15/11 A3006 RMK AC1CI1 SLP178
2001 10 01 22 METAR CYVR 012200Z 30014KT 30SM FEW140 SCT200 15/11 A3005 RMK AC1CI1 SLP175
2001 10 01 23 METAR CYVR 012300Z 30009KT 30SM FEW140 15/10 A3005 RMK AC1 SLP175
2001 10 02 00 METAR CYVR 020000Z 32008KT 30SM FEW140 15/10 A3005 RMK AC1 SLP174
2001 10 02 01 METAR CYVR 020100Z 33005KT 30SM FEW140 15/10 A3005 RMK AC1 TR AC SLP174
2001 10 02 02 METAR CYVR 020200Z 30006KT 30SM FEW140 13/09 A3005 RMK AC1 HZ SLP176
2001 10 02 03 METAR CYVR 020300Z 33010KT 30SM FEW140 FEW220 14/10 A3007 RMK AC1CI1 TR AC SLP182
2001 10 02 04 METAR CYVR 020400Z 34003KT 30SM SKC 13/09 A3008 RMK SLP185
2001 10 02 05 METAR CYVR 020500Z 00000KT 30SM SKC 13/10 A3008 RMK SLP187
2001 10 02 06 METAR CYVR 020600Z 33005KT 30SM SKC 12/10 A3011 RMK SLP195
2001 10 02 07 METAR CYVR 020700Z 03002KT 30SM FEW270 11/09 A3010 RMK CI2 SLP194
2001 10 02 08 METAR CYVR 020800Z 31005KT 30SM MIFG FEW270 10/09 A3013 RMK CI2 SLP202
2001 10 02 09 METAR CYVR 020900Z 30010KT 30SM FEW270 11/10 A3014 RMK CI2 SLP207
2001 10 02 10 METAR CYVR 021000Z 31011KT 30SM SKC 11/09 A3015 RMK SLP208
2001 10 02 11 METAR CYVR 021100Z 31010KT 30SM SKC 11/09 A3014 RMK SLP205
2001 10 02 12 METAR CYVR 021200Z 31013KT 30SM FEW270 11/09 A3014 RMK CI0 SLP207
2001 10 02 13 METAR CYVR 021300Z 31012KT 30SM FEW270 11/09 A3015 RMK CI1 SLP209
2001 10 02 14 METAR CYVR 021400Z 31014KT 20SM FEW010 FEW030 SCT080 SCT270 11/09 A3017 RMK ST1SC2AC1CI1 TR ST N SLP215
2001 10 02 15 METAR CYVR 021500Z 32010KT 20SM FEW015 FEW030 FEW080 SCT270 11/09 A3018 RMK ST1SC1AC1CI0 TR ST N-E SLP219
2001 10 02 16 METAR CYVR 021600Z 31013KT 20SM FEW015 FEW030 SCT080 BKN270 12/10 A3019 RMK ST2SC1AC1CI0 ST LYR N-SE SLP222
2001 10 02 17 METAR CYVR 021700Z 32005KT 20SM FEW015 SCT020 BKN220 13/10 A3020 RMK ST2SC2CI0 VSBY/CIG LWR N-E SLP225
2001 10 02 18 METAR CYVR 021800Z 31011KT 6SM BR BKN014 BKN028 BKN220 13/10 A3020 RMK SC5SC1CI0 VSBY/CIG LWR N-E SLP226
2001 10 02 19 METAR CYVR 021900Z 30014KT 10SM SCT014 BKN026 BKN220 13/11 A3020 RMK ST2SC2CI0 VSBY/CIG LWR N-E SLP227
2001 10 02 20 METAR CYVR 022000Z 30010KT 15SM FEW014 FEW026 BKN220 14/11 A3019 RMK ST1SC1CI0 VSBY LWR NE SLP224
2001 10 02 21 METAR CYVR 022100Z 30012KT 15SM FEW010 FEW025 BKN220 15/11 A3019 RMK ST1CF1CI2 ST/VSBY LWR N-E TR CF SLP222
2001 10 02 22 METAR CYVR 022200Z 31010KT 20SM FEW010 FEW030 SCT140 BKN220 14/11 A3018 RMK SF1CF1AC2CI2 SLP218
2001 10 02 23 METAR CYVR 022300Z 31011KT 20SM FEW010 FEW030 FEW140 BKN220 14/10 A3017 RMK SF1CF1AC2CI4 TR SF CF SLP217
2001 10 03 00 METAR CYVR 030000Z 31012KT 20SM FEW030 FEW160 BKN240 14/11 A3018 RMK CF1AC2CI2 HZ SLP218
2001 10 03 01 METAR CYVR 030100Z 32010KT 20SM FEW160 BKN240 14/10 A3017 RMK AC1CI3 SLP215
2001 10 03 02 METAR CYVR 030200Z 32007KT 30SM FEW160 BKN240 12/09 A3017 RMK AC1CI1 SLP216
2001 10 03 03 METAR CYVR 030300Z 29010KT 30SM FEW160 FEW240 12/10 A3018 RMK AC1CI0 TR AC SLP218
2001 10 03 04 METAR CYVR 030400Z 30007KT 30SM FEW240 12/09 A3018 RMK CI0 SLP220
2001 10 03 05 METAR CYVR 030500Z 31010KT 30SM FEW240 12/10 A3019 RMK CI0 SLP222
2001 10 03 06 METAR CYVR 030600Z 34008KT 30SM FEW240 10/09 A3020 RMK CI0 SLP227
2001 10 03 07 METAR CYVR 030700Z 31012KT 30SM FEW240 11/09 A3020 RMK CI0 SLP227
2001 10 03 08 METAR CYVR 030800Z 31009KT 10SM BKN026 12/10 A3021 RMK SF6 SLP228
2001 10 03 09 METAR CYVR 030900Z 31012KT 10SM BKN025 OVC240 12/10 A3021 RMK SF6CI1 SLP228
2001 10 03 10 METAR CYVR 031000Z 32012KT 10SM FEW018 BKN025 OVC240 12/10 A3023 RMK SF2SF4CI1 SLP235
2001 10 03 11 METAR CYVR 031100Z 31013KT 10SM OVC024 11/10 A3022 RMK SF8 CIG RGD SLP234
2001 10 03 12 METAR CYVR 031200Z 30019KT 10SM BKN024 OVC240 11/09 A3023 RMK SF5CI1 SLP236
2001 10 03 13 METAR CYVR 031300Z 31017G22KT 10SM FEW024 SCT240 11/09 A3023 RMK SF2CI1 SLP235
2001 10 03 15 METAR CYVR 031500Z 32017KT 15SM FEW005 FEW010 FEW025 SCT240 11/10 A3023 RMK SF1ST1SC1CI0 XTNSV ST LYR NE-E VSBY LWR SLP237
2001 10 03 16 METAR CYVR 031600Z 31014KT 20SM FEW008 FEW010 FEW025 SCT240 12/10 A3026 RMK SF1ST1SC1CI0 VSBY/CIG LWR NE-E SLP245
2001 10 03 17 METAR CYVR 031700Z 31018KT 20SM FEW008 FEW015 FEW025 SCT240 12/10 A3026 RMK SF1ST1SC1CI0 VSBY/CIG LWR NE-E SLP246
2001 10 03 18 METAR CYVR 031800Z 31016KT 20SM FEW008 FEW015 FEW025 FEW240 13/10 A3025 RMK SF1ST1CU1CI0 TR SF/CU SLP244
2001 10 03 19 METAR CYVR 031900Z 31017KT 20SM FEW015 FEW240 13/10 A3023 RMK CF1CI0 TR CF SLP237
2001 10 03 20 METAR CYVR 032000Z 31018KT 20SM FEW240 14/11 A3023 RMK CI0 SLP235
2001 10 03 21 METAR CYVR 032100Z 30020KT 30SM FEW240 14/11 A3021 RMK CI0 SLP229
2001 10 03 22 METAR CYVR 032200Z 30015G24KT 30SM SCT240 14/11 A3019 RMK CI0 SLP222
2001 10 03 23 METAR CYVR 032300Z 31014G19KT 30SM SCT240 14/10 A3017 RMK CI0 SLP216
2001 10 04 00 METAR CYVR 040000Z 29013KT 30SM FEW240 14/10 A3015 RMK CI0 SLP211
2001 10 04 01 METAR CYVR 040100Z 30012KT 30SM FEW240 13/10 A3015 RMK CI0 SLP208
2001 10 04 02 METAR CYVR 040200Z 32009KT 30SM FEW240 12/10 A3014 RMK CI0 SLP207
2001 10 04 03 METAR CYVR 040300Z 32013KT 30SM FEW240 13/10 A3014 RMK CI0 SLP205
2001 10 04 04 METAR CYVR 040400Z 31013KT 30SM FEW240 12/10 A3013 RMK CI1 SLP203
2001 10 04 05 METAR CYVR 040500Z 32011KT 30SM FEW240 12/11 A3013 RMK CI1 SLP203
2001 10 04 06 METAR CYVR 040600Z 30006KT 30SM SKC 11/10 A3013 RMK SLP204
2001 10 04 07 METAR CYVR 040700Z 32010KT 30SM SKC 11/10 A3013 RMK SLP204
2001 10 04 08 METAR CYVR 040800Z 32010KT 30SM SKC 11/10 A3015 RMK SLP208
2001 10 04 09 METAR CYVR 040900Z 32012KT 30SM SKC 10/09 A3015 RMK SLP211
2001 10 04 10 METAR CYVR 041000Z 32012G17KT 30SM SKC 11/10 A3017 RMK SLP216
2001 10 04 11 METAR CYVR 041100Z 31010G15KT 30SM SKC 11/10 A3018 RMK SLP219
2001 10 04 12 METAR CYVR 041200Z 34007KT 30SM SKC 11/09 A3018 RMK SLP220
2001 10 04 13 METAR CYVR 041300Z 31008KT 30SM SKC 09/09 A3019 RMK SLP222
2001 10 04 14 METAR CYVR 041400Z 35004KT 30SM FEW240 09/08 A3019 RMK CI0 SLP224
2001 10 04 15 METAR CYVR 041500Z 31003KT 30SM FEW240 08/07 A3020 RMK CI0 SLP226
2001 10 04 16 METAR CYVR 041600Z 02003KT 30SM FEW240 12/08 A3020 RMK CI0 SLP227
2001 10 04 17 METAR CYVR 041700Z 28003KT 30SM FEW240 14/07 A3021 RMK CI0 SLP229
2001 10 04 18 METAR CYVR 041800Z 32007KT 30SM FEW240 16/10 A3020 RMK CI0 SLP225
2001 10 04 19 METAR CYVR 041900Z 32011G16KT 30SM FEW240 15/11 A3018 RMK CI0 SLP220
2001 10 04 20 METAR CYVR 042000Z 33019KT 30SM FEW240 18/10 A3015 RMK CI0 SLP209
2001 10 04 21 METAR CYVR 042100Z 30010KT 30SM SKC 18/08 A3014 RMK SLP206
2001 10 04 22 METAR CYVR 042200Z 30012G17KT 30SM SKC 17/09 A3012 RMK SLP200
2001 10 04 23 METAR CYVR 042300Z 31010KT 30SM FEW240 17/09 A3011 RMK CI1 TR CI SLP196
2001 10 05 00 METAR CYVR 050000Z 30005KT 30SM SKC 16/07 A3010 RMK SLP191
2001 10 05 01 METAR CYVR 050100Z 31008KT 30SM SKC 15/05 A3008 RMK SLP186
2001 10 05 02 METAR CYVR 050200Z 31008KT 30SM SKC 12/09 A3008 RMK SLP184
2001 10 05 03 METAR CYVR 050300Z 32005KT 30SM SKC 12/08 A3007 RMK SLP182
2001 10 05 04 METAR CYVR 050400Z 00000KT 30SM SKC 12/06 A3006 RMK SLP179
2001 10 05 05 METAR CYVR 050500Z 00000KT 30SM SKC 12/07 A3005 RMK SLP177
2001 10 05 06 METAR CYVR 050600Z 23002KT 30SM SKC 11/09 A3006 RMK SLP179
2001 10 05 07 METAR CYVR 050700Z 00000KT 30SM SKC 10/08 A3006 RMK SLP180
2001 10 05 08 METAR CYVR 050800Z 05003KT 30SM SKC 08/06 A3007 RMK SLP182
2001 10 05 09 METAR CYVR 050900Z 00000KT 30SM SKC 08/07 A3006 RMK SLP180
2001 10 05 10 METAR CYVR 051000Z 00000KT 30SM SKC 08/07 A3006 RMK SLP178
2001 10 05 11 METAR CYVR 051100Z 35002KT 30SM MIFG SKC 06/05 A3005 RMK SLP174
2001 10 05 12 METAR CYVR 051200Z 09004KT 30SM SKC 06/05 A3004 RMK SLP172
2001 10 05 13 METAR CYVR 051300Z 08002KT 30SM SKC 06/05 A3003 RMK SLP170
2001 10 05 14 METAR CYVR 051400Z 08002KT 30SM SKC 06/03 A3003 RMK SLP168
2001 10 05 15 METAR CYVR 051500Z 00000KT 30SM FEW280 07/04 A3003 RMK CI1 SLP168
2001 10 05 16 METAR CYVR 051600Z 00000KT 30SM FEW280 11/06 A3002 RMK CI0 SLP166
2001 10 05 17 METAR CYVR 051700Z 00000KT 30SM FEW280 13/07 A3002 RMK CI1 SLP165
2001 10 05 18 METAR CYVR 051800Z 27004KT 30SM FEW280 13/08 A3002 RMK CI1 SLP165
2001 10 05 19 METAR CYVR 051900Z 28007KT 30SM FEW280 14/09 A3002 RMK CI1 SLP164
2001 10 05 20 METAR CYVR 052000Z 29006KT 30SM FEW280 15/07 A3000 RMK CI2 SLP159
2001 10 05 21 METAR CYVR 052100Z 29007KT 30SM FEW280 16/08 A2998 RMK CI2 SLP152
2001 10 05 22 METAR CYVR 052200Z 30004KT 30SM SCT280 15/06 A2996 RMK CI2 SLP144
2001 10 05 23 METAR CYVR 052300Z 29004KT 30SM FEW180 BKN260 15/07 A2994 RMK AC2CI3 SLP138
2001 10 06 00 METAR CYVR 060000Z 29004KT 30SM FEW180 BKN260 15/08 A2992 RMK AC2CI2 SLP133
2001 10 06 01 METAR CYVR 060100Z 31004KT 30SM FEW180 BKN260 12/08 A2992 RMK AC1CI2 SLP130
2001 10 06 02 METAR CYVR 060200Z 30005KT 30SM FEW180 BKN240 12/06 A2992 RMK AC1CI1 SLP130
2001 10 06 03 METAR CYVR 060300Z 00000KT 30SM FEW180 BKN240 12/07 A2992 RMK AC1CI2 TR AC SLP131
2001 10 06 04 METAR CYVR 060400Z 00000KT 30SM SCT240 12/08 A2992 RMK CI1 SLP131
2001 10 06 05 METAR CYVR 060500Z 00000KT 30SM SCT240 10/05 A2992 RMK CI1 SLP130
2001 10 06 06 METAR CYVR 060600Z 00000KT 30SM FEW240 10/06 A2993 RMK CI0 SLP134
2001 10 06 07 METAR CYVR 060700Z 15004KT 30SM FEW240 10/07 A2994 RMK CI0 SLP138
2001 10 06 08 METAR CYVR 060800Z 10008KT 30SM FEW240 07/06 A2994 RMK CI0 SLP137
2001 10 06 09 METAR CYVR 060900Z 11008KT 30SM FEW180 SCT240 09/07 A2993 RMK AC2CI0 SLP135
2001 10 06 10 METAR CYVR 061000Z 13007KT 30SM FEW170 SCT240 09/06 A2995 RMK AC2CI0 SLP141
2001 10 06 11 METAR CYVR 061100Z 10009KT 30SM FEW090 BKN140 09/07 A2995 RMK AC2AC3 SLP143
2001 10 06 12 METAR CYVR 061200Z 09011KT 30SM BKN090 BKN140 09/07 A2997 RMK AC5AC2 SLP147
2001 10 06 13 METAR CYVR 061300Z 09011KT 30SM SCT090 BKN120 10/07 A2998 RMK AC3AC2 SLP152
2001 10 06 14 METAR CYVR 061400Z 10007KT 30SM FEW045 SCT090 SCT230 10/07 A3000 RMK SC1AC2CI1 SLP157
2001 10 06 15 METAR CYVR 061500Z 08004KT 20SM FEW030 BKN082 10/08 A3001 RMK CF1AC6 SLP161
2001 10 06 16 METAR CYVR 061600Z 00000KT 20SM BKN026 BKN082 11/09 A3002 RMK SC5AC2 SLP167
2001 10 06 17 METAR CYVR 061700Z 23002KT 20SM FEW020 FEW035 FEW082 13/10 A3005 RMK CF1SC2AC1 SLP174
2001 10 06 18 METAR CYVR 061800Z 27017KT 30SM FEW035 FEW085 SCT240 14/10 A3005 RMK CF2SC1CI2 SLP177
2001 10 06 19 METAR CYVR 061900Z 27015KT 30SM FEW035 FEW240 14/10 A3007 RMK CF1CI2 SLP182
2001 10 06 20 METAR CYVR 062000Z 26018KT 30SM FEW035 FEW240 14/10 A3007 RMK CF2CI0 SLP183
2001 10 06 21 METAR CYVR 062100Z 26016G22KT 30SM FEW035 15/10 A3008 RMK CU1 SLP184
2001 10 06 22 METAR CYVR 062200Z 25010KT 30SM FEW040 15/10 A3008 RMK CU1 TR CU SLP184
2001 10 06 23 METAR CYVR 062300Z 23008KT 15SM FEW040 15/09 A3008 RMK CU1 TR CU SLP187
2001 10 07 00 METAR CYVR 070000Z 24008KT 30SM FEW040 FEW080 15/09 A3006 RMK CU1AC1 TR CLD SLP178
2001 10 07 01 METAR CYVR 070100Z 25005KT 30SM FEW045 FEW080 FEW250 14/09 A3008 RMK CU1AC1CI0 SLP186
2001 10 07 02 METAR CYVR 070200Z 22004KT 30SM FEW050 FEW080 FEW250 13/09 A3007 RMK CU1AC1CI0 SLP182
2001 10 07 03 METAR CYVR 070300Z 10004KT 30SM FEW080 FEW250 11/08 A3008 RMK AC1CI1 SLP184
2001 10 07 04 METAR CYVR 070400Z 04002KT 30SM FEW045 FEW075 SCT250 11/07 A3008 RMK CU1AC2CI1 SLP186
2001 10 07 05 METAR CYVR 070500Z 08003KT 30SM BKN055 12/08 A3008 RMK SC6 SLP184
2001 10 07 06 METAR CYVR 070600Z 07005KT 30SM BKN062 OVC270 11/08 A3007 RMK SC6CI0 SLP181
2001 10 07 07 METAR CYVR 070700Z 10008KT 30SM BKN062 BKN270 10/07 A3006 RMK SC5CI0 SLP178
2001 10 07 08 METAR CYVR 070800Z 11007KT 30SM BKN063 BKN270 10/07 A3005 RMK SC6CI0 SLP176
2001 10 07 09 METAR CYVR 070900Z 10008KT 30SM SCT063 BKN140 OVC270 10/07 A3005 RMK SC3AC2CI0 SLP175
2001 10 07 10 METAR CYVR 071000Z 11008KT 30SM FEW060 BKN130 OVC270 10/07 A3005 RMK SC2AC3CI1 SLP174
2001 10 07 11 METAR CYVR 071100Z 10008KT 30SM FEW060 BKN130 OVC270 10/07 A3004 RMK SC2AC3CI2 SLP173
2001 10 07 12 METAR CYVR 071200Z 09010KT 30SM SCT060 BKN120 OVC270 10/08 A3004 RMK SC4AC2CI2 SLP172
2001 10 07 13 METAR CYVR 071300Z 11007KT 30SM SCT060 BKN100 OVC270 10/08 A3004 RMK SC3AC3CI2 SLP173
2001 10 07 14 METAR CYVR 071400Z 09010KT 20SM FEW015 BKN065 OVC100 10/08 A3003 RMK CF2SC3AS3 SLP169
2001 10 07 15 METAR CYVR 071500Z 10009KT 20SM FEW015 FEW035 SCT065 OVC100 10/07 A3000 RMK CF1CF1SC2AS4 SLP159
2001 10 07 16 METAR CYVR 071600Z 11009G15KT 20SM FEW015 FEW035 BKN082 OVC120 11/08 A3002 RMK CF1SF1AC6AS2 VSBY LWR W SLP165
2001 10 07 17 METAR CYVR 071700Z 09009G16KT 20SM FEW035 BKN077 OVC120 11/08 A3004 RMK SC2AC3AS2 SLP171
2001 10 07 18 METAR CYVR 071800Z 10007KT 15SM -RA FEW035 BKN067 OVC120 11/09 A3006 RMK SC2AC2AS3 VSBY LWR W SLP178
2001 10 07 19 METAR CYVR 071900Z 09011KT 15SM FEW030 SCT065 BKN080 OVC120 11/10 A3006 RMK SC2SC2AC3AS1 SHWRS N-NE SLP180
2001 10 07 20 METAR CYVR 072000Z 11012KT 20SM FEW018 FEW035 BKN080 OVC120 12/10 A3006 RMK CF1SC1AC5AS2 SLP180
2001 10 07 21 METAR CYVR 072100Z 10010KT 25SM FEW018 FEW040 BKN080 OVC120 12/09 A3005 RMK CF1SC1AC5AS2 VIRGA SHWRS NW SLP177
2001 10 07 22 METAR CYVR 072200Z 11012KT 25SM FEW040 BKN075 OVC120 13/09 A3004 RMK SC1AC6AS2 VIRGA ALQDS SLP172
2001 10 07 23 METAR CYVR 072300Z 13010KT 20SM FEW018 FEW040 BKN067 OVC120 13/09 A3003 RMK CU1SC1SC5AS2 VIRGA SLP169
2001 10 08 00 METAR CYVR 080000Z 12009G15KT 20SM -SHRA FEW035 BKN062 OVC120 12/09 A3002 RMK CU1SC6AS2 PCPN VRY LGT SLP167
2001 10 08 01 METAR CYVR 080100Z 11008KT 10SM -SHRA FEW035 BKN058 OVC100 11/10 A3002 RMK SC2SC5AS1 SLP164
2001 10 08 02 METAR CYVR 080200Z 10007KT 10SM -SHRA SCT020 OVC055 11/10 A3001 RMK SF3SC5 SLP163
2001 10 08 03 METAR CYVR 080300Z 11008KT 10SM SCT020 OVC040 11/10 A3001 RMK SF3SC5 SLP162
2001 10 08 04 METAR CYVR 080400Z 09008KT 10SM -SHRA SCT020 OVC035 10/09 A3000 RMK SF3SC5 SLP159
2001 10 08 05 METAR CYVR 080500Z 07006KT 10SM -SHRA FEW020 OVC040 11/09 A3000 RMK SF2SC6 SLP157
2001 10 08 06 METAR CYVR 080600Z 08007KT 5SM -SHRA BR FEW016 SCT023 OVC040 10/09 A3000 RMK SF2SF2SC4 SLP157
2001 10 08 07 METAR CYVR 080700Z 08009KT 8SM -SHRA SCT015 BKN031 OVC040 10/09 A2999 RMK SF3SC3SC2 SLP154
2001 10 08 08 METAR CYVR 080800Z 10008KT 8SM -SHRA SCT014 OVC027 10/09 A2998 RMK SF3SC5 SLP151
2001 10 08 09 METAR CYVR 080900Z 08007KT 10SM FEW013 BKN029 OVC080 10/09 A2997 RMK SF2SC3AC2 SLP149
2001 10 08 10 METAR CYVR 081000Z 10006KT 10SM FEW013 SCT030 OVC080 10/09 A2997 RMK SF2SC2AC4 SLP149
2001 10 08 11 METAR CYVR 081100Z 14006KT 15SM FEW015 SCT030 OVC080 10/09 A2997 RMK SF2SC2AC5 SLP149
2001 10 08 12 METAR CYVR 081200Z 00000KT 15SM FEW015 FEW030 BKN060 OVC220 11/09 A2998 RMK SF1SC2SC4CI2 SLP153
2001 10 08 13 METAR CYVR 081300Z 31004KT 15SM FEW015 FEW030 BKN055 BKN220 09/08 A2999 RMK SF1SC2SC2CI0 SLP156
2001 10 08 14 METAR CYVR 081400Z 33002KT 30SM FEW015 FEW030 FEW055 09/08 A3001 RMK CF1SF1SC1 SLP161
2001 10 08 15 METAR CYVR 081500Z 30002KT 30SM FEW015 FEW030 FEW060 09/09 A3002 RMK CF1SC1SC1 SLP167
2001 10 08 16 METAR CYVR 081600Z 29008KT 30SM FEW015 FEW030 FEW060 12/10 A3005 RMK CF1SC2SC1 SLP175
2001 10 08 17 METAR CYVR 081700Z 27013KT 30SM FEW030 FEW240 12/09 A3007 RMK CF2CI1 SLP182
2001 10 08 18 METAR CYVR 081800Z 24009KT 30SM FEW030 FEW240 13/10 A3008 RMK CU1CI1 SLP184
2001 10 08 19 METAR CYVR 081900Z 23007G16KT 30SM FEW030 BKN210 14/07 A3010 RMK CU1CI2 SLP191
2001 10 08 20 METAR CYVR 082000Z 21005KT 30SM FEW030 FEW120 BKN210 14/06 A3010 RMK CU1AC2CI2 SLP194
2001 10 08 21 METAR CYVR 082100Z 00000KT 30SM FEW035 FEW070 BKN120 BKN210 13/05 A3010 RMK CU1AC1AC5CI0 SLP194
2001 10 08 22 METAR CYVR 082200Z 32007KT 30SM SCT040 SCT090 OVC110 14/05 A3011 RMK SC3AC1AC4 SLP195
2001 10 08 23 METAR CYVR 082300Z 35004KT 30SM SCT040 BKN080 OVC110 14/04 A3011 RMK SC3AC3AC2 SLP196
2001 10 09 00 METAR CYVR 090000Z 32006KT 30SM FEW040 SCT050 BKN080 13/06 A3011 RMK SC1SC3AC3 SLP197
2001 10 09 01 METAR CYVR 090100Z 30004KT 30SM FEW050 FEW070 12/06 A3012 RMK SC2AC1 SLP199
2001 10 09 02 METAR CYVR 090200Z 28005KT 30SM FEW050 BKN060 12/07 A3013 RMK SC2SC5 SLP204
2001 10 09 03 METAR CYVR 090300Z 25005KT 30SM FEW050 SCT078 12/07 A3014 RMK SC1AC3 SLP206
2001 10 09 04 METAR CYVR 090400Z 19003KT 30SM FEW060 SCT130 11/07 A3015 RMK SC2AC2 SLP210
2001 10 09 05 METAR CYVR 090500Z 30008KT 15SM -SHRA FEW040 BKN050 BKN080 11/09 A3017 RMK SC2SC2AC2 SLP216
2001 10 09 06 METAR CYVR 090600Z 29005KT 15SM FEW040 SCT058 11/09 A3018 RMK SC2SC2 SLP218
2001 10 09 07 METAR CYVR 090700Z 29015KT 20SM FEW030 SCT065 SCT130 10/08 A3018 RMK SC2SC2AC0 SLP221
2001 10 09 08 METAR CYVR 090800Z 29013G18KT 20SM FEW030 SCT065 11/09 A3019 RMK SC2SC2 SLP223
2001 10 09 09 METAR CYVR 090900Z 28009KT 20SM FEW030 FEW065 BKN170 10/08 A3021 RMK SC1SC2AC1 SLP228
2001 10 09 10 METAR CYVR 091000Z 29013KT 20SM FEW030 SCT065 BKN170 10/08 A3022 RMK SC1SC2AC0 SLP232
2001 10 09 11 METAR CYVR 091100Z 31008KT 20SM FEW025 SCT065 BKN170 10/09 A3022 RMK SC1SC2AC0 SLP233
2001 10 09 12 METAR CYVR 091200Z 30007KT 20SM FEW020 FEW065 BKN170 10/08 A3022 RMK SC2SC1AC0 SLP233
2001 10 09 13 METAR CYVR 091300Z 31006KT 20SM SCT060 BKN140 10/08 A3023 RMK SC3AC1 SLP235
2001 10 09 14 METAR CYVR 091400Z 09004KT 20SM FEW012 FEW045 SCT065 BKN140 BKN180 09/08 A3023 RMK SF1SC2SC2AC2AC1 TR HIR AC. SLP237
2001 10 09 15 METAR CYVR 091500Z 11003KT 30SM FEW012 BKN065 BKN140 BKN180 09/08 A3025 RMK SF2SC3AC1AC1 TR HIR AC. SLP243
2001 10 09 16 METAR CYVR 091600Z 13004KT 30SM FEW010 FEW015 SCT065 BKN140 BKN160 10/09 A3026 RMK SF1SC2SC2AC2AC1 SLP247
2001 10 09 17 METAR CYVR 091700Z 34002KT 30SM FEW010 FEW017 SCT065 BKN140 BKN160 11/08 A3028 RMK SF1SC2SC2AC2AC1 SLP253
2001 10 09 18 METAR CYVR 091800Z 29005KT 30SM FEW010 FEW017 SCT065 SCT140 BKN160 12/08 A3030 RMK CF1CU2SC1AC1AC1 SLP261
2001 10 09 19 METAR CYVR 091900Z 23003KT 30SM FEW010 FEW017 FEW045 SCT065 BKN140 BKN160 12/09 A3031 RMK CF1CU2SC1SC1AC2AC1 TR CF. SLP262
2001 10 09 20 METAR CYVR 092000Z 25005KT 30SM FEW017 FEW045 SCT065 BKN140 BKN160 12/08 A3031 RMK CU2SC1SC1AC2AC1 SLP263
2001 10 09 21 METAR CYVR 092100Z 23002KT 30SM FEW040 FEW130 FEW160 SCT220 13/09 A3030 RMK CU2AC1AC1CI1 TR LWR AC. SLP259
2001 10 09 22 METAR CYVR 092200Z 24004KT 30SM FEW040 FEW065 SCT130 BKN220 14/08 A3030 RMK CU2SC1AC2CI1 TCU ASOCTD. SLP259
2001 10 09 23 METAR CYVR 092300Z 21003KT 20SM FEW040 FEW080 SCT150 BKN250 14/07 A3029 RMK CU2AC1AC1CI1 TCU ASOCTD SLP256
2001 10 10 00 METAR CYVR 100000Z 15009KT 20SM FEW035 SCT080 SCT140 BKN250 13/05 A3028 RMK CU2AC2AC1CI0 TCU ASOCTD SLP255
2001 10 10 01 METAR CYVR 100100Z 13006KT 20SM FEW035 FEW080 SCT100 BKN250 12/06 A3028 RMK CU1AC2AC2CI1 SLP252
2001 10 10 02 METAR CYVR 100200Z 09005KT 20SM FEW035 BKN065 BKN100 12/07 A3028 RMK CU1SC4AC2 SLP254
2001 10 10 03 METAR CYVR 100300Z 10006KT 20SM BKN072 BKN100 10/08 A3028 RMK AC5AC2 SLP252
2001 10 10 04 METAR CYVR 100400Z 09007KT 20SM BKN069 BKN100 11/08 A3027 RMK AC6AC1 SLP249
2001 10 10 05 METAR CYVR 100500Z 10007KT 20SM BKN070 BKN095 10/07 A3026 RMK AC5AC1 SLP245
2001 10 10 06 METAR CYVR 100600Z 09005KT 20SM FEW050 SCT085 08/06 A3024 RMK CU1AC3 SLP240
2001 10 10 07 METAR CYVR 100700Z 09007KT 20SM FEW050 SCT090 BKN140 09/06 A3021 RMK SC2AC2AC2 SLP231
2001 10 10 08 METAR CYVR 100800Z 11006KT 20SM FEW050 BKN090 OVC140 09/07 A3019 RMK SC1AC4AC2 SLP224
2001 10 10 09 METAR CYVR 100900Z 10006KT 15SM -SHRA FEW050 BKN070 OVC100 09/07 A3017 RMK SC2AC4AC2 SLP215
2001 10 10 10 METAR CYVR 101000Z 11006KT 20SM FEW055 SCT075 OVC110 09/07 A3011 RMK SC2AC2AC4 SLP197
2001 10 10 11 METAR CYVR 101100Z 10006KT 20SM FEW060 SCT075 OVC110 09/07 A3006 RMK SC2AC2AC3 SLP179
2001 10 10 12 METAR CYVR 101200Z 11007KT 20SM SCT040 SCT060 BKN085 OVC120 09/07 A3001 RMK SC3SC1AC2AC2 SLP163
2001 10 10 13 METAR CYVR 101300Z 11009KT 20SM SCT040 BKN085 OVC110 09/07 A2997 RMK SC3AC2AC2 SLP150
2001 10 10 14 METAR CYVR 101400Z 10011KT 10SM -RA FEW015 BKN042 OVC110 09/07 A2994 RMK SF2SC4AC2 SLP137
2001 10 10 15 METAR CYVR 101500Z 09012KT 3SM -RA BR SCT015 OVC040 08/08 A2989 RMK SF3SC5 SLP123
2001 10 10 16 METAR CYVR 101600Z 09009KT 4SM RA BR SCT015 OVC034 08/08 A2987 RMK SF3SC5 SLP116
2001 10 10 17 METAR CYVR 101700Z 08015KT 4SM -RA BR SCT015 BKN025 OVC040 09/07 A2985 RMK SF3SC2SC2 SLP108
2001 10 10 18 METAR CYVR 101800Z 09017KT 2 1/2SM -RADZ BR FEW007 BKN015 OVC024 08/08 A2984 RMK SF2SF3SC3 SLP106
2001 10 10 19 METAR CYVR 101900Z 10015G24KT 1 1/2SM -RADZ BR BKN007 OVC015 09/08 A2982 RMK SF5SC3 SLP097
2001 10 10 20 METAR CYVR 102000Z 13018KT 1 1/2SM -RADZ BR BKN007 OVC015 09/08 A2980 RMK SF6SC2 SLP091
2001 10 10 21 METAR CYVR 102100Z 13016KT 1 1/2SM -RADZ BR FEW004 BKN007 OVC015 09/09 A2980 RMK SF2SF4SF2 SLP091
2001 10 10 22 METAR CYVR 102200Z 11011KT 6SM BR BKN006 OVC020 09/09 A2979 RMK SF6SC2 CIG VSBLY HIR S-W SLP087
2001 10 10 23 METAR CYVR 102300Z 11012KT 10SM BKN011 OVC020 10/09 A2978 RMK SF6SC2 CIG VSBLY LWR N-E SLP083
2001 10 11 00 METAR CYVR 110000Z 08010KT 10SM BKN006 BKN010 09/09 A2976 RMK SF6SC2 VSBY S 20 SLP079
2001 10 11 01 METAR CYVR 110100Z 08008KT 20SM FEW010 BKN035 BKN068 OVC230 10/09 A2976 RMK SF2SC2AC2CI0 SLP077
2001 10 11 02 METAR CYVR 110200Z 08005KT 20SM FEW014 SCT035 BKN070 BKN230 10/09 A2978 RMK SF2SC2AC2CI1 SLP084
2001 10 11 03 METAR CYVR 110300Z 02003KT 20SM FEW035 SCT080 BKN160 BKN230 09/09 A2979 RMK SC2AC2AC2CI1 SLP088
2001 10 11 04 METAR CYVR 110400Z 26008KT 20SM BKN070 BKN160 BKN230 11/08 A2981 RMK AC5AC2CI1 SLP093
2001 10 11 05 METAR CYVR 110500Z 26009KT 20SM FEW090 BKN160 BKN240 11/08 A2980 RMK AC2AC2CI1 SLP091
2001 10 11 06 METAR CYVR 110600Z 29003KT 20SM FEW062 SCT160 BKN240 10/08 A2982 RMK SC2AC2CI1 SLP099
2001 10 11 07 METAR CYVR 110700Z 27008KT 20SM FEW020 SCT055 BKN110 BKN240 11/08 A2984 RMK SC1SC2AC2CI1 SLP103
2001 10 11 08 METAR CYVR 110800Z 28012KT 20SM FEW015 FEW055 BKN100 10/09 A2985 RMK SC1SC2AC2 SLP107
2001 10 11 09 METAR CYVR 110900Z 28013KT 20SM FEW012 BKN051 BKN100 10/09 A2988 RMK SC2SC3AC1 SLP117
2001 10 11 10 METAR CYVR 111000Z 29014KT 20SM FEW012 FEW050 09/09 A2990 RMK SC1SC1 SLP125
2001 10 11 11 METAR CYVR 111100Z 29016KT 20SM FEW010 FEW050 FEW100 10/08 A2993 RMK SF1SC1AC1 SLP135
2001 10 11 12 METAR CYVR 111200Z 28016G21KT 20SM FEW010 FEW050 09/08 A2996 RMK SF1SC1 SLP145
2001 10 11 13 METAR CYVR 111300Z 28015KT 20SM FEW012 FEW050 10/08 A3000 RMK SF1SC1 SLP158
2001 10 11 14 METAR CYVR 111400Z 28019KT 30SM FEW012 FEW030 09/07 A3002 RMK SF1SC1 SLP164
2001 10 11 15 METAR CYVR 111500Z 28017KT 30SM FEW025 FEW120 FEW220 10/07 A3005 RMK SF1AC1CI1 TR SF SLP174
2001 10 11 15 METAR CYVR 111500Z 28017KT 30SM FEW025 FEW120 FEW220 10/07 A3005 RMK SF1AC1CI1 TR SF SLP174
2001 10 11 17 METAR CYVR 111700Z 28015KT 30SM FEW025 SCT220 11/08 A3013 RMK SC2CI1 SLP201
2001 10 11 18 METAR CYVR 111800Z 27017KT 30SM FEW020 SCT220 11/08 A3015 RMK SC1CI1 SLP210
2001 10 11 19 METAR CYVR 111900Z 27018KT 30SM FEW020 SCT220 12/09 A3017 RMK CU1CI1 SLP217
2001 10 11 20 METAR CYVR 112000Z 25014G22KT 30SM FEW020 BKN220 12/08 A3019 RMK CU1CI1 SLP223
2001 10 11 21 METAR CYVR 112100Z 25011G17KT 30SM FEW025 BKN220 12/08 A3020 RMK CU1CS3 SLP227
2001 10 11 22 METAR CYVR 112200Z 25013KT 30SM FEW025 OVC220 13/08 A3021 RMK CU1CS3 SLP231
2001 10 11 23 METAR CYVR 112300Z 25009G15KT 30SM FEW025 BKN220 12/06 A3022 RMK CU1CS5 SLP233
2001 10 12 00 METAR CYVR 120000Z 20007KT 30SM FEW025 BKN070 OVC220 12/05 A3023 RMK CF1AC6CS2 ACC ASOCTD SLP237
2001 10 12 01 METAR CYVR 120100Z 22005KT 30SM FEW020 BKN046 BKN070 OVC220 12/06 A3023 RMK CF1SC5AC1CS2 TCU ASOCTD SLP237
2001 10 12 02 METAR CYVR 120200Z 21003KT 30SM FEW020 FEW046 OVC200 12/06 A3023 RMK SC1SC2CS6 SLP237
2001 10 12 03 METAR CYVR 120300Z 00000KT 30SM FEW020 BKN044 OVC140 11/06 A3026 RMK SC1SC5AS3 SLP247
2001 10 12 04 METAR CYVR 120400Z 10003KT 30SM FEW044 OVC120 11/06 A3023 RMK SC2AS6 SLP238
2001 10 12 05 METAR CYVR 120500Z 14003KT 30SM FEW044 OVC100 11/06 A3023 RMK SC2AS6 SLP238
2001 10 12 06 METAR CYVR 120600Z 18004KT 30SM FEW037 FEW095 OVC110 11/07 A3024 RMK SC2AC1AS6 SLP241
2001 10 12 07 METAR CYVR 120700Z 13002KT 20SM FEW030 SCT046 OVC080 10/07 A3023 RMK SC2SC2AC4 SLP236
2001 10 12 08 METAR CYVR 120800Z 23010KT 12SM -RA FEW024 BKN036 OVC050 10/07 A3024 RMK SC2SC4SC2 SLP240
2001 10 12 09 METAR CYVR 120900Z 09005KT 12SM -RA FEW025 BKN038 OVC060 08/07 A3023 RMK SC2SC5SC2 SLP238
2001 10 12 10 METAR CYVR 121000Z 07010KT 12SM -RA FEW025 OVC037 08/07 A3022 RMK SC2SC6 SLP234
2001 10 12 11 METAR CYVR 121100Z 09009KT 10SM -RA FEW018 FEW025 OVC038 08/07 A3020 RMK SF1SC2SC6 SLP226
2001 10 12 12 METAR CYVR 121200Z 07011KT 10SM -RA FEW010 SCT022 OVC038 08/07 A3018 RMK SF2SC2SC5 SLP219
2001 10 12 13 METAR CYVR 121300Z 08011KT 3SM -RA BR FEW007 BKN012 OVC018 08/08 A3016 RMK SF2SF2SC3 SLP212
2001 10 12 14 METAR CYVR 121400Z 08012KT 3SM -RA BR FEW004 BKN008 OVC018 08/07 A3011 RMK SF2SF6SC1 SLP196
2001 10 12 15 METAR CYVR 121500Z 14012KT 1 1/2SM -RA BR BKN006 OVC011 09/08 A3008 RMK SF7SF1 SLP186
2001 10 12 16 METAR CYVR 121600Z 13013KT 3SM -RA BR BKN008 BKN011 OVC030 09/08 A3006 RMK SF6SF1SC1 PRESFR PAST HR. SLP179
2001 10 12 17 METAR CYVR 121700Z 10011KT 4SM -RA BR SCT008 BKN024 OVC030 09/08 A3004 RMK SF3SC4SC1 SLP171
2001 10 12 18 METAR CYVR 121800Z 08011KT 6SM -RA BR FEW008 BKN020 BKN030 10/09 A3000 RMK SF2SC3SC2 SLP157
2001 10 12 19 METAR CYVR 121900Z 09010KT 15SM FEW008 BKN016 BKN030 BKN050 10/09 A2998 RMK SF2SF4SC1SC1 INTMT -RA. SLP151
2001 10 12 20 METAR CYVR 122000Z 07009KT 15SM FEW008 BKN012 BKN025 BKN050 BKN200 11/10 A2996 RMK SF1SC5SC1SC1CI1 VSBY HIR S-SW. TR CI. SLP145
2001 10 12 21 METAR CYVR 122100Z 07008KT 15SM BKN012 BKN025 BKN050 BKN100 BKN200 12/10 A2994 RMK SC6SC1SC1AC1CI1 TR AC.CI. VSBY HIR S-SW. SLP139
2001 10 12 22 METAR CYVR 122200Z 07011KT 20SM BKN011 BKN200 12/11 A2994 RMK SC7CI1 VSBY N-E 8 SLP139
2001 10 12 23 METAR CYVR 122300Z 07010KT 20SM FEW009 SCT064 SCT085 12/11 A2996 RMK SC2SC2AC1 VSBY N-E 10 SLP145
2001 10 13 00 METAR CYVR 130000Z 05006KT 20SM FEW009 FEW045 SCT090 12/11 A2997 RMK SC1SC2AC1 VSBY LWR N-E SLP149
2001 10 13 01 METAR CYVR 130100Z 25006KT 20SM FEW009 BKN056 BKN090 13/11 A3000 RMK SC1SC6AC1 VSBY LWR N-E SLP159
2001 10 13 02 METAR CYVR 130200Z 27012G21KT 15SM FEW009 BKN040 BKN090 11/10 A3003 RMK SF1SC6AC1 VSBY HIR SW SLP168
2001 10 13 03 METAR CYVR 130300Z 28020G25KT 15SM FEW007 SCT050 BKN080 11/10 A3006 RMK SF1SC2AC2 SLP178
2001 10 13 04 METAR CYVR 130400Z 28022G27KT 15SM FEW007 FEW070 11/10 A3008 RMK SF1AC2 SLP185
2001 10 13 05 METAR CYVR 130500Z 27021G26KT 15SM FEW009 11/10 A3010 RMK SF1 SLP194
2001 10 13 06 METAR CYVR 130600Z 28019G25KT 15SM FEW009 FEW050 11/09 A3012 RMK SF1SC1 SLP199
2001 10 13 07 METAR CYVR 130700Z 28021G27KT 20SM FEW053 FEW250 11/08 A3016 RMK SC1CI1 M53 FEW SLP213
2001 10 13 08 METAR CYVR 130800Z 29021G29KT 20SM FEW050 SCT250 10/07 A3019 RMK SC2CI2 M50 FEW SLP222
2001 10 13 09 METAR CYVR 130900Z 29021G27KT 20SM BKN048 11/06 A3022 RMK SC6 SLP232
2001 10 13 10 METAR CYVR 131000Z 31015KT 20SM BKN047 BKN160 10/06 A3023 RMK SC5AC2 SLP235
2001 10 13 11 METAR CYVR 131100Z 30015G21KT 20SM BKN046 BKN160 10/07 A3023 RMK SC6AC1 SLP235
2001 10 13 12 METAR CYVR 131200Z 30014G20KT 20SM BKN046 BKN150 10/06 A3023 RMK SC6AC1 SLP237
2001 10 13 13 METAR CYVR 131300Z 29011G16KT 20SM BKN044 10/06 A3024 RMK SC7 SLP241
2001 10 13 14 METAR CYVR 131400Z 30007KT 20SM BKN044 10/06 A3025 RMK SC7 SLP243
2001 10 13 15 METAR CYVR 131500Z 30005KT 20SM FEW012 BKN044 OVC150 10/07 A3026 RMK SF1SC6AC1 TR SF SLP247
2001 10 13 16 METAR CYVR 131600Z 27005KT 20SM FEW012 BKN045 OVC150 10/07 A3027 RMK SF1SC7AC1 TR SF SLP249
2001 10 13 17 METAR CYVR 131700Z 35003KT 20SM FEW012 BKN045 OVC140 10/07 A3028 RMK SF1SC7AC1 TR SF SLP252
2001 10 13 18 METAR CYVR 131800Z 32004KT 20SM FEW015 BKN041 OVC140 11/07 A3029 RMK CU1SC6AC1 VIRGA SLP256
2001 10 13 19 METAR CYVR 131900Z 32002KT 15SM FEW010 FEW020 BKN035 OVC120 11/07 A3028 RMK CF1CU2SC6AC1 SLP253
2001 10 13 20 METAR CYVR 132000Z 00000KT 12SM FEW010 FEW020 BKN038 OVC100 11/07 A3026 RMK CF1CU2SC4AS2 INTMT -RA SLP246
2001 10 13 21 METAR CYVR 132100Z 22002KT 10SM VCSH SCT020 BKN031 OVC085 11/07 A3025 RMK CU3SC2AS3 SHWRS NW-E SLP242
2001 10 13 20 METAR CYVR 132000Z 00000KT 12SM FEW010 FEW020 BKN038 OVC100 11/07 A3026 RMK CF1CU2SC4AS2 INTMT -RA SLP246
2001 10 13 23 METAR CYVR 132300Z 14004KT 10SM -RA FEW019 BKN033 OVC085 10/08 A3023 RMK SF2SC4AC2 SLP238
2001 10 14 00 METAR CYVR 140000Z 16006KT 8SM -RA FEW017 BKN028 OVC050 10/08 A3022 RMK SF2SC6SC1 SLP234
2001 10 14 01 METAR CYVR 140100Z 13006KT 6SM -RA BR BKN034 OVC056 09/08 A3020 RMK SC5SC3 SLP225
2001 10 14 02 METAR CYVR 140200Z 13006KT 3SM -RA BR FEW017 OVC034 09/08 A3018 RMK SF2SC6 SLP218
2001 10 14 03 METAR CYVR 140300Z 10009KT 3SM -RA BR FEW009 SCT014 OVC017 08/08 A3015 RMK SF2SC2SC5 SLP210
2001 10 14 04 METAR CYVR 140400Z 09010KT 2SM -RA BR BKN008 OVC015 08/07 A3011 RMK SF6SF2 SLP195
2001 10 14 05 METAR CYVR 140500Z 08009KT 1 1/2SM -RADZ BR BKN009 OVC014 08/07 A3009 RMK SF6SF2 SLP189
2001 10 14 06 METAR CYVR 140600Z 08011G17KT 2SM -RADZ BR SCT009 OVC015 08/07 A3007 RMK SF4SF4 SLP181
2001 10 14 07 METAR CYVR 140700Z 07008KT 3SM -RADZ BR SCT006 BKN017 OVC023 08/07 A3003 RMK SF3SF3SC2 SLP170
2001 10 14 08 METAR CYVR 140800Z 07009KT 4SM -RADZ BR FEW006 BKN016 OVC023 08/07 A3002 RMK SF2SF3SC2 SLP165
2001 10 14 09 METAR CYVR 140900Z 08006KT 5SM -DZ BR FEW006 OVC017 08/08 A3002 RMK SF2SF6 SLP165
2001 10 14 10 METAR CYVR 141000Z 05006KT 4SM -DZ BR FEW006 BKN019 OVC023 08/08 A3002 RMK SF2SC6SC1 SLP167
2001 10 14 11 METAR CYVR 141100Z 36003KT 3SM -RADZ BR SCT006 BKN018 OVC023 08/08 A3004 RMK SF3SC4SC1 SLP172
2001 10 14 12 METAR CYVR 141200Z 05002KT 4SM -DZ BR FEW006 BKN019 OVC024 08/08 A3005 RMK SF2SC4SC2 SLP177
2001 10 14 13 METAR CYVR 141300Z 23002KT 5SM -DZ BR FEW006 BKN018 OVC024 08/08 A3008 RMK SF2SC5SC2 SLP187
2001 10 14 14 METAR CYVR 141400Z 32010G15KT 8SM FEW006 FEW012 BKN031 08/08 A3010 RMK SF2SC1SC4 SLP193
2001 10 14 15 METAR CYVR 141500Z 32008KT 15SM FEW006 FEW012 BKN036 09/07 A3013 RMK SF1SC2SC4 CIG/VIS LWR NE-E SLP201
2001 10 14 16 METAR CYVR 141600Z 34002KT 15SM FEW006 FEW015 BKN037 BKN220 09/07 A3015 RMK SF1SC2SC3CI1 CIG/VIS LWR NE-E TR SF/CI SLP210
2001 10 14 17 METAR CYVR 141700Z 11002KT 12SM FEW008 SCT024 BKN037 BKN220 09/09 A3020 RMK SF1CU2SC2CI1 HZ PRESRR SLP225
2001 10 14 18 METAR CYVR 141800Z 03003KT 15SM FEW012 SCT024 BKN037 11/09 A3021 RMK SF1CU2SC2 SLP229
2001 10 14 19 METAR CYVR 141900Z 28006KT 20SM FEW015 SCT030 12/08 A3022 RMK SF1CU4 SLP234
2001 10 14 20 METAR CYVR 142000Z 30011KT 30SM FEW034 FEW250 12/09 A3023 RMK CU2CI1 SLP237
2001 10 14 21 METAR CYVR 142100Z 29010KT 30SM FEW035 BKN250 12/09 A3023 RMK CU2CI1 SLP235
2001 10 14 22 METAR CYVR 142200Z 29010KT 30SM FEW035 BKN250 12/09 A3022 RMK CU2CI1 SLP233
2001 10 14 23 METAR CYVR 142300Z 31007KT 30SM FEW035 BKN250 12/09 A3021 RMK CU2CI1 SLP231
2001 10 15 00 METAR CYVR 150000Z 29006KT 30SM FEW035 BKN250 11/09 A3022 RMK CF1CI1 SLP232
2001 10 15 01 METAR CYVR 150100Z 30007KT 30SM FEW035 FEW090 BKN250 10/08 A3022 RMK CF1AC1CI1 SLP233
2001 10 15 02 METAR CYVR 150200Z 32005KT 30SM FEW035 SCT060 BKN090 BKN250 09/08 A3023 RMK SC1SC2AC2CI0 SLP235
2001 10 15 03 METAR CYVR 150300Z 02003KT 30SM FEW035 SCT060 BKN250 10/08 A3022 RMK SC1SC2CI1 SLP233
2001 10 15 04 METAR CYVR 150400Z 36002KT 30SM FEW060 BKN240 09/07 A3023 RMK SC2CI1 SLP235
2001 10 15 05 METAR CYVR 150500Z 06003KT 30SM FEW060 SCT240 08/07 A3022 RMK SC2CI1 SLP233
2001 10 15 06 METAR CYVR 150600Z 31002KT 30SM FEW060 FEW160 BKN240 09/07 A3023 RMK SC1AC2CI1 SLP238
2001 10 15 07 METAR CYVR 150700Z 02002KT 30SM FEW080 BKN160 BKN240 08/07 A3023 RMK AC2AC3CI0 SLP236
2001 10 15 08 METAR CYVR 150800Z 00000KT 30SM SCT050 BKN160 BKN240 08/07 A3023 RMK SC3AC3CI0 SLP238
2001 10 15 L METAR CYVR NIL
2001 10 15 10 METAR CYVR 151000Z 08003KT 30SM FEW140 FEW240 05/04 A3022 RMK AC2CI0 SLP233
2001 10 15 11 METAR CYVR 151100Z 09002KT 30SM MIFG FEW140 FEW240 06/05 A3021 RMK AC1CI0 SLP229
2001 10 15 12 METAR CYVR 151200Z 00000KT 30SM MIFG FEW140 FEW240 06/05 A3019 RMK AC1CI0 SLP224
2001 10 15 13 METAR CYVR 151300Z 00000KT 30SM MIFG FEW240 05/05 A3018 RMK CI1 SLP220
2001 10 15 14 METAR CYVR 151400Z CCA 09002KT 30SM MIFG SCT240 05/05 A3015 RMK CI1 SLP209
2001 10 15 15 METAR CYVR 151500Z 31003KT 30SM FEW160 BKN240 04/03 A3016 RMK AC1CI2 CU ASOCTD DSTNT SW SLP213
2001 10 15 16 METAR CYVR 151600Z 00000KT 30SM FEW160 BKN240 08/07 A3014 RMK AC1CI2 SLP207
2001 10 15 17 METAR CYVR 151700Z 15005KT 30SM FEW120 FEW160 BKN200 BKN240 10/08 A3013 RMK AC1AS2CS3CI0 CC ASOCTD SLP203
2001 10 15 18 METAR CYVR 151800Z 21003KT 30SM FEW120 SCT160 BKN200 BKN240 11/08 A3012 RMK AC1AS2CS3CI0 SLP200
2001 10 15 19 METAR CYVR 151900Z 00000KT 30SM FEW100 SCT140 BKN200 OVC240 12/07 A3011 RMK AC2AS2CS2CI0 SLP196
2001 10 15 20 METAR CYVR 152000Z 00000KT 30SM FEW100 SCT140 BKN180 BKN200 12/09 A3008 RMK AC2AS2AC1CS2 SLP187
2001 10 15 21 METAR CYVR 152100Z 30004KT 30SM FEW100 SCT140 BKN180 BKN200 BKN240 12/08 A3006 RMK AC2AS2AC1CS1CI0 SLP179
2001 10 15 22 METAR CYVR 152200Z 27003KT 30SM BKN160 BKN240 12/09 A3002 RMK AC5CS2 VIRGA SLP165
2001 10 15 23 METAR CYVR 152300Z 28004KT 30SM FEW120 BKN160 BKN240 12/09 A3000 RMK AC2AC3CS1 SLP160
2001 10 16 00 METAR CYVR 160000Z 00000KT 30SM FEW120 BKN170 BKN240 12/09 A2997 RMK AC2AC4CS1 VIRGA SLP150
2001 10 16 01 METAR CYVR 160100Z 27002KT 30SM FEW120 BKN170 BKN240 12/08 A2996 RMK AC2AC4CS1 SLP146
2001 10 16 02 METAR CYVR 160200Z 00000KT 30SM FEW120 BKN160 BKN240 11/09 A2995 RMK AC2AC3CS2 VIRGA SLP143
2001 10 16 03 METAR CYVR 160300Z 10003KT 30SM FEW120 BKN160 BKN240 11/07 A2993 RMK AC2AC4CS2 SLP135
2001 10 16 04 METAR CYVR 160400Z 11008KT 30SM FEW120 BKN160 11/09 A2992 RMK AC2AC6 SLP130
2001 10 16 05 METAR CYVR 160500Z 25002KT 30SM FEW120 BKN160 11/09 A2993 RMK AC2AC5 SLP136
2001 10 16 06 METAR CYVR 160600Z 10004KT 30SM FEW120 BKN150 10/09 A2992 RMK AC2AC5 SLP131
2001 10 16 07 METAR CYVR 160700Z 10003KT 30SM FEW120 OVC160 11/09 A2992 RMK AC2AC6 SLP130
2001 10 16 08 METAR CYVR 160800Z 11004KT 30SM FEW120 OVC160 10/09 A2991 RMK AC2AC6 SLP129
2001 10 16 09 METAR CYVR 160900Z 11007KT 30SM SCT090 OVC160 11/09 A2990 RMK AC3AC5 SLP126
2001 10 16 10 METAR CYVR 161000Z 09006KT 30SM SCT077 OVC160 11/09 A2988 RMK AC4AC4 SLP117
2001 10 16 11 METAR CYVR 161100Z 09005KT 30SM BKN083 BKN120 OVC200 11/08 A2986 RMK AC5AC2CI2 SLP112
2001 10 16 12 METAR CYVR 161200Z 10008KT 30SM BKN080 BKN110 OVC200 11/09 A2986 RMK AC6AC2CI1 SLP110
2001 10 16 13 METAR CYVR 161300Z 10010KT 20SM BKN076 OVC120 11/09 A2984 RMK AC6AC2 SLP105
2001 10 16 14 METAR CYVR 161400Z 13007KT 20SM BKN038 OVC076 12/09 A2986 RMK SC5AC3 SLP110
2001 10 16 15 METAR CYVR 161500Z 12003KT 10SM BKN055 OVC076 11/09 A2987 RMK SC6AC2 SLP113
2001 10 16 16 METAR CYVR 161600Z 00000KT 3SM -RA BR OVC018 11/10 A2989 RMK SC8 SLP122
2001 10 16 17 METAR CYVR 161700Z 22005KT 5SM -RA BR SCT018 BKN043 OVC052 11/10 A2990 RMK SC3SC3SC2 SLP126
2001 10 16 18 METAR CYVR 161800Z 20004KT 10SM -RA FEW018 SCT035 BKN055 11/10 A2991 RMK SC2SC2SC3 VSBY SW 20 SLP129
2001 10 16 19 METAR CYVR 161900Z 20008KT 10SM FEW010 BKN075 BKN110 12/09 A2993 RMK SF1AC4AC2 SLP136
2001 10 16 20 METAR CYVR 162000Z 23010G15KT 10SM FEW010TCU FEW075 14/09 A2996 RMK TCU1AC1 SLP144
2001 10 16 21 METAR CYVR 162100Z 22005KT 20SM FEW020TCU SCT030TCU SCT060 14/08 A2997 RMK TCU2TCU2SC1 SLP148
2001 10 16 22 METAR CYVR 162200Z 28002KT 20SM FEW020 BKN042 14/07 A2998 RMK CF2SC4 TCU ASCTD SHWRS W SLP152
2001 10 16 23 METAR CYVR 162300Z 26005KT 20SM FEW020 FEW042 SCT130 14/07 A2999 RMK CF1SC2AC1 TCU ASCTD SHWRS W-NW SLP155
2001 10 17 00 METAR CYVR 170000Z 23003KT 20SM FEW020 SCT042 BKN062 BKN130 13/06 A3000 RMK CF1SC2SC2AC1 TCU ASCTD SHWR W SLP160
2001 10 17 01 METAR CYVR 170100Z 24010KT 20SM FEW020 BKN042CB BKN062 12/08 A3001 RMK CF2CB3SC2 HVY SHWR NE S SLP162
2001 10 17 02 METAR CYVR 170200Z 28014KT 20SM FEW020 SCT040CB BKN060 11/08 A3003 RMK CF1CB2SC2 SHWRS NW SLP170
2001 10 17 03 METAR CYVR 170300Z 28013G18KT 20SM FEW020 SCT040 BKN060 11/06 A3006 RMK CF1CU2SC2 SLP178
2001 10 17 04 METAR CYVR 170400Z 30018G24KT 20SM FEW020 BKN040CB BKN070 09/07 A3010 RMK CF2CB3SC2 SHWRS NE SLP191
2001 10 17 05 METAR CYVR 170500Z 28015G22KT 30SM FEW040 SCT070 10/07 A3013 RMK CU2AC2 SLP201
2001 10 17 06 METAR CYVR 170600Z 28013G18KT 30SM FEW040 SCT070 10/07 A3015 RMK CU2AC2 SLP211
2001 10 17 07 METAR CYVR 170700Z 27015KT 30SM BKN068 10/06 A3019 RMK AC6 SLP222
2001 10 17 08 METAR CYVR 170800Z 28013KT 30SM BKN064 10/06 A3022 RMK SC6 SLP232
2001 10 17 09 METAR CYVR 170900Z 27011KT 30SM BKN065 09/07 A3023 RMK SC6 SLP238
2001 10 17 10 METAR CYVR 171000Z 28012KT 30SM FEW065 09/07 A3025 RMK SC2 SLP243
2001 10 17 11 METAR CYVR 171100Z 27012KT 30SM FEW065 09/07 A3026 RMK SC2 SLP246
2001 10 17 12 METAR CYVR 171200Z 27008KT 30SM FEW065 08/06 A3027 RMK SC1 SLP250
2001 10 17 13 METAR CYVR 171300Z 26006KT 30SM FEW012 FEW065 09/06 A3028 RMK SF1SC1 TR SF SLP253
2001 10 17 14 METAR CYVR 171400Z 00000KT 30SM FEW012 FEW065 07/05 A3030 RMK SF1SC2 TF SF SLP259
2001 10 17 15 METAR CYVR 171500Z 07004KT 30SM FEW012 FEW065 SCT090 06/05 A3031 RMK SF1SC2AC1 TR SF SLP264
2001 10 17 16 METAR CYVR 171600Z 08005KT 20SM FEW012 SCT065 BKN090 BKN250 08/06 A3033 RMK CF1SC2AC2CI1 VSBY LWR NE-SW SLP269
2001 10 17 17 METAR CYVR 171700Z 08003KT 20SM FEW015 FEW065 FEW090 BKN250 10/07 A3034 RMK CF1SC1AC1CI1 VSBY LWR NE-SW FEW CU SLP273
2001 10 17 18 METAR CYVR 171800Z 12004KT 20SM FEW015 FEW040 FEW090 SCT250 11/07 A3034 RMK CF1CU1AC1CI1 TR CF HZ W SLP275
2001 10 17 19 METAR CYVR 171900Z 26003KT 20SM FEW040 SCT090 BKN240 12/06 A3035 RMK CU2AC1CI1 SLP277
2001 10 17 20 METAR CYVR 172000Z 24008KT 20SM FEW040 FEW090 SCT240 13/05 A3035 RMK CU2AC1CI1 TR AC SLP277
2001 10 17 21 METAR CYVR 172100Z 25007KT 30SM FEW040 FEW070 SCT240 12/05 A3036 RMK CU1AC1CI2 SLP279
2001 10 17 22 METAR CYVR 172200Z 27010KT 30SM FEW040 FEW075 BKN210 12/06 A3035 RMK CU1AC2CI3 SLP277
2001 10 17 23 METAR CYVR 172300Z 27006KT 30SM FEW040 FEW210 12/06 A3036 RMK CU1CI1 SLP280
2001 10 18 00 METAR CYVR 180000Z 25008KT 30SM FEW040 FEW200 12/06 A3036 RMK CU1CI1 SLP280
2001 10 18 01 METAR CYVR 180100Z 27011KT 30SM FEW040 BKN240 11/05 A3035 RMK CU1CI3 SLP278
2001 10 18 02 METAR CYVR 180200Z 26009KT 30SM FEW040 FEW080 BKN220 11/06 A3036 RMK SC1AC2CI3 SLP279
2001 10 18 03 METAR CYVR 180300Z 28010KT 30SM FEW040 BKN080 BKN220 10/06 A3037 RMK SC1AC4CI2 SLP284
2001 10 18 04 METAR CYVR 180400Z 28008KT 30SM FEW040 BKN070 BKN220 11/07 A3038 RMK SC1AC4CI2 SLP286
2001 10 18 05 METAR CYVR 180500Z 00000KT 30SM FEW040 SCT070 BKN220 11/06 A3038 RMK SC1AC2CI3 SLP286
2001 10 18 06 METAR CYVR 180600Z 15002KT 30SM FEW040 SCT070 OVC160 09/07 A3038 RMK SC1AC2AC5 SLP286
2001 10 18 07 METAR CYVR 180700Z 10006KT 30SM FEW060 SCT070 OVC140 09/07 A3039 RMK SC1AC2AC5 SLP290
2001 10 18 08 METAR CYVR 180800Z 09007KT 30SM OVC070 09/07 A3037 RMK AC8 SLP283
2001 10 18 09 METAR CYVR 180900Z 09009KT 20SM FEW015 FEW030 OVC063 09/07 A3038 RMK SF1SC2SC6 SLP286
2001 10 18 10 METAR CYVR 181000Z 10007KT 20SM FEW015 FEW025 OVC054 09/07 A3036 RMK SF1SF1SC6 SLP280
2001 10 18 11 METAR CYVR 181100Z 09010KT 15SM -RA FEW015 OVC045 08/07 A3033 RMK SF2SC6 SLP270
2001 10 18 12 METAR CYVR 181200Z 08009KT 15SM -RA FEW015 OVC040 08/07 A3032 RMK SF2SC6 SLP268
2001 10 18 13 METAR CYVR 181300Z 10008KT 15SM -RA FEW010 OVC038 08/08 A3031 RMK SF2SC6 SLP263
2001 10 18 14 METAR CYVR 181400Z 10006KT 15SM -RA FEW009 OVC038 08/08 A3030 RMK SF2SC6 SLP261
2001 10 18 15 METAR CYVR 181500Z 12006KT 6SM -RA BR FEW006 BKN013 OVC030 09/08 A3028 RMK SF2SF3SC3 SLP255
2001 10 18 16 METAR CYVR 181600Z 14004KT 6SM -RA BR SCT006 BKN010 OVC025 09/08 A3028 RMK SF3SF3SC2 SLP253
2001 10 18 17 METAR CYVR 181700Z 16009KT 6SM -RA BR SCT006 BKN010 OVC025 09/08 A3028 RMK SF3SF3SC2 SLP255
2001 10 18 18 METAR CYVR 181800Z 16009KT 6SM -RA BR FEW006 BKN010 OVC025 09/08 A3028 RMK SF2SF3SC3 SLP252
2001 10 18 19 METAR CYVR 181900Z 14010KT 6SM -RA BR SCT006 BKN009 OVC025 09/08 A3027 RMK SF3SF2SC2 SLP251
2001 10 18 20 METAR CYVR 182000Z 13007KT 5SM -RA BR SCT004 BKN007 OVC015 09/09 A3026 RMK SF3SF3SC2 SLP245
2001 10 18 21 METAR CYVR 182100Z 11007KT 3SM -RA BR SCT004 BKN007 OVC015 09/09 A3024 RMK SF3SF3SC2 SLP241
2001 10 18 22 METAR CYVR 182200Z 10011KT 3SM -RA BR SCT004 BKN007 OVC012 09/08 A3023 RMK SF3SF3SC2 SLP236
2001 10 18 23 METAR CYVR 182300Z 09011KT 4SM -RA BR FEW003 SCT006 BKN009 OVC012 09/09 A3022 RMK SF1SF3SC2SC2 VSBY NE 2 SLP233
2001 10 19 00 METAR CYVR 190000Z 10012KT 4SM -RA BR FEW003 SCT005 BKN008 OVC014 09/09 A3020 RMK SF1SF2SC3SC2 /R10/ SLP225
2001 10 19 01 METAR CYVR 190100Z 09010KT 2SM -RA BR FEW004 BKN007 OVC011 09/08 A3018 RMK SF2SF4SC2 SLP221
2001 10 19 02 METAR CYVR 190200Z 09010KT 2 1/2SM -RA BR FEW004 BKN008 OVC012 09/08 A3018 RMK SF2SF4SC2 SLP218
2001 10 19 03 METAR CYVR 190300Z 09009KT 2 1/2SM -RA BR SCT004 BKN007 OVC012 09/08 A3017 RMK SF3SF3SC2 SLP216
2001 10 19 04 METAR CYVR 190400Z 09009KT 2SM -RA BR SCT003 BKN008 OVC012 09/09 A3017 RMK SF3SF3SC2 SLP215
2001 10 19 05 METAR CYVR 190500Z 09009KT 5SM -RA BR FEW003 BKN008 OVC014 09/09 A3016 RMK SF2SF5SC1 PCPN VRY LGT SLP213
2001 10 19 06 METAR CYVR 190600Z 09008KT 6SM BR FEW004 OVC008 09/09 A3016 RMK SF2SF6 SLP213
2001 10 19 07 METAR CYVR 190700Z 09008KT 6SM BR FEW004 BKN007 OVC012 09/09 A3014 RMK SF2SF5SC2 SLP205
2001 10 19 08 METAR CYVR 190800Z 08008KT 6SM BR FEW004 BKN006 OVC012 09/09 A3013 RMK SF2SF3SF2 SLP202
2001 10 19 09 METAR CYVR 190900Z 08009KT 6SM BR FEW004 OVC006 09/09 A3012 RMK SF2SF6 SLP198
2001 10 19 10 METAR CYVR 191000Z 09009KT 6SM BR FEW004 OVC006 10/09 A3010 RMK SF2SF6 SLP194
2001 10 19 11 METAR CYVR 191100Z 08008KT 4SM BR SCT004 OVC006 10/10 A3009 RMK SF4SF4 SLP189
2001 10 19 12 METAR CYVR 191200Z 09008KT 6SM BR FEW004 BKN008 OVC012 10/10 A3006 RMK SF2SF3SF2 SLP179
2001 10 19 13 METAR CYVR 191300Z 10009KT 8SM FEW004 BKN007 OVC012 11/10 A3005 RMK SF2SF3SC2 SLP176
2001 10 19 14 METAR CYVR 191400Z 09004KT 10SM FEW004 BKN007 OVC015 11/11 A3006 RMK SF2SF3SC1 SLP178
2001 10 19 15 METAR CYVR 191500Z 10004KT 10SM BKN007 BKN012 OVC040 11/10 A3005 RMK SF4SF1SC2 700FT LYR THIN SLP174
2001 10 19 16 METAR CYVR 191600Z 16003KT 20SM SCT009 BKN025 12/10 A3004 RMK SF2SC1 SLP172
2001 10 19 17 METAR CYVR 191700Z 17006KT 20SM FEW009 BKN020 BKN030 13/11 A3005 RMK SF2SC2SC2 2000FT LYR THIN SLP175
2001 10 19 18 METAR CYVR 191800Z 17003KT 20SM FEW010 SCT020 BKN048 BKN071 13/11 A3006 RMK SF2SC2SC2AC1 TR AC SLP178
2001 10 19 19 METAR CYVR 191900Z 29006KT 20SM FEW010 FEW020 BKN055 BKN070 14/11 A3006 RMK SF2SF1SC2AC1 TR AC SLP180
2001 10 19 20 METAR CYVR 192000Z 29018KT 20SM FEW006 SCT010 BKN025 BKN060 13/12 A3007 RMK SF1SF2SC2SC1 SLP182
2001 10 19 21 METAR CYVR 192100Z 28015KT 20SM FEW010 SCT025 BKN060 BKN081 12/11 A3007 RMK SF2SC2SC2AC1 TR AC SLP181
2001 10 19 22 METAR CYVR 192200Z 27020G27KT 30SM FEW010 FEW060TCU FEW080 12/10 A3005 RMK SF1TCU1AC1 SLP177
2001 10 19 23 METAR CYVR 192300Z 28019G25KT 30SM FEW025TCU FEW080 12/09 A3006 RMK TCU1AC1 SLP180
2001 10 20 00 METAR CYVR 200000Z 27017KT 30SM FEW025TCU FEW080 12/09 A3007 RMK TCU1AC1 SLP182
2001 10 20 01 METAR CYVR 200100Z 28014KT 30SM FEW025TCU FEW080 BKN240 11/08 A3007 RMK TCU1AC1CI0 SLP181
2001 10 20 02 METAR CYVR 200200Z 27016KT 30SM FEW025TCU SCT240 11/08 A3006 RMK TCU1CI0 SLP180
2001 10 20 03 METAR CYVR 200300Z 29017KT 30SM SKC 11/08 A3008 RMK SLP186
2001 10 20 04 METAR CYVR 200400Z 29014KT 30SM FEW080 SCT240 11/08 A3010 RMK AC1CI0 ACC ASOCTD SLP192
2001 10 20 05 METAR CYVR 200500Z 29016KT 30SM FEW080 FEW240 10/08 A3010 RMK AC1CI0 SLP191
2001 10 20 06 METAR CYVR 200600Z 30014KT 30SM FEW080 FEW240 10/08 A3011 RMK AC1CI0 SLP196
2001 10 20 07 METAR CYVR 200700Z 31014KT 30SM FEW052 FEW080 09/07 A3013 RMK SC2AC1 SLP202
2001 10 20 08 METAR CYVR 200800Z 31009KT 30SM FEW050 08/07 A3013 RMK SC2 SLP202
2001 10 20 09 METAR CYVR 200900Z 30008KT 30SM FEW050 SCT200 08/07 A3014 RMK SC2CI1 SLP205
2001 10 20 10 METAR CYVR 201000Z 01008KT 30SM SCT042 SCT200 08/06 A3013 RMK SC2CI1 SLP204
2001 10 20 11 METAR CYVR 201100Z 05003KT 30SM BKN046 08/07 A3013 RMK SC3 SLP203
2001 10 20 12 METAR CYVR 201200Z 31002KT 30SM BKN050 07/06 A3014 RMK SC6 SLP206
2001 10 20 13 METAR CYVR 201300Z 00000KT 30SM FEW022 SCT048 07/06 A3015 RMK SC2SC2 SLP208
2001 10 20 14 METAR CYVR 201400Z 14002KT 20SM FEW022 FEW045 FEW200 07/06 A3015 RMK SF1SC2CI1 TR CI. SLP209
2001 10 20 15 METAR CYVR 201500Z 27004KT 20SM FEW014 FEW022 SCT045 SCT200 06/05 A3015 RMK SF1SF1SC2CI0 VSBY HIR S-W. SLP209
2001 10 20 16 METAR CYVR 201600Z 30004KT 20SM FEW014 FEW022 BKN048 BKN200 08/06 A3016 RMK SF1SC1SC4CI1 TR SF. VSBY HIR S-W LWR E. SLP212
2001 10 20 17 METAR CYVR 201700Z 03002KT 12SM FEW014 FEW022 BKN048 BKN200 09/07 A3016 RMK SF1SC1SC4CI1 TR SF. VSBY HIR S-W. SLP213
2001 10 20 18 METAR CYVR 201800Z CCA 35003KT 12SM FEW014 FEW022 BKN049 BKN200 10/07 A3015 RMK SF1SC2SC4CI1 VSBY S-W 30. SLP211
2001 10 20 19 METAR CYVR 201900Z 30003KT 30SM FEW014 SCT022 BKN049 BKN200 11/08 A3015 RMK SF1CU2SC2CI2 VSBY LWR E. SLP208
2001 10 20 20 METAR CYVR 202000Z 27004KT 20SM FEW014 SCT022 BKN049 BKN080 OVC220 11/08 A3013 RMK CF1CU2SC2AC1CI2 VSBY LWR E. SLP204
2001 10 20 21 METAR CYVR 202100Z 28003KT 20SM FEW014 SCT020 SCT049 BKN080 BKN160 OVC220 11/08 A3011 RMK CF1CU2SC1AC1AS2CI1 SLP197
2001 10 20 22 METAR CYVR 202200Z 25006KT 20SM FEW014 SCT030 BKN042 BKN080 OVC220 11/09 A3010 RMK CF1CU2SC2AC1CI1 SLP194
2001 10 20 23 METAR CYVR 202300Z 28005KT 20SM FEW030 SCT040 BKN080 OVC220 10/08 A3010 RMK CU2SC1AC2CS2 SLP191
2001 10 21 00 METAR CYVR 210000Z 29006KT 20SM FEW035 FEW080 SCT140 BKN200 OVC240 10/08 A3008 RMK CU1AC2AS2CS2CI0 SLP187
2001 10 21 01 METAR CYVR 210100Z 31003KT 20SM FEW035 FEW080 SCT160 BKN200 OVC240 09/07 A3006 RMK CU1AC2AS2CS2CI0 TR CU SLP179
2001 10 21 02 METAR CYVR 210200Z 31004KT 20SM FEW080 SCT160 OVC240 08/07 A3005 RMK AC2AS2CI2 SLP175
2001 10 21 03 METAR CYVR 210300Z 36003KT 15SM FEW080 BKN130 OVC220 09/07 A3003 RMK AC2AS3CI2 SLP170
2001 10 21 04 METAR CYVR 210400Z 00000KT 15SM FEW080 OVC120 09/07 A3002 RMK AC2AC6 SLP164
2001 10 21 05 METAR CYVR 210500Z 02002KT 15SM FEW080 BKN120 OVC220 09/07 A3001 RMK AC2AC5CI2 SLP161
2001 10 21 06 METAR CYVR 210600Z 00000KT 15SM FEW080 OVC100 09/07 A3000 RMK AC2AC6 SLP160
2001 10 21 07 METAR CYVR 210700Z 00000KT 15SM FEW045 OVC100 08/07 A2999 RMK SC2AC6 SLP154
2001 10 21 08 METAR CYVR 210800Z 00000KT 15SM SCT045 OVC080 09/07 A2998 RMK SC3AC5 VIRGA OVRHD SLP152
2001 10 21 09 METAR CYVR 210900Z 11004KT 15SM -RA SCT035 OVC065 08/08 A2998 RMK SC3SC5 SLP151
2001 10 21 10 METAR CYVR 211000Z 12005KT 15SM -RA FEW035 SCT047 OVC065 09/08 A2996 RMK SC2SC2SC4 RA VRY LGT SLP145
2001 10 21 11 METAR CYVR 211100Z 09006KT 15SM FEW035 BKN046 OVC065 08/07 A2994 RMK SC2SC4SC2 SLP138
2001 10 21 12 METAR CYVR 211200Z 11006KT 12SM -RA BKN034 OVC046 08/08 A2992 RMK SC6SC2 RA VRY LGT SLP131
2001 10 21 13 METAR CYVR 211300Z 10008KT 6SM -RA BR FEW006 BKN034 OVC046 08/08 A2990 RMK SF2SC3SC2 RA VRY LGT RA INTMT SLP125
2001 10 21 14 METAR CYVR 211400Z 11006KT 3SM -RA BR FEW007 SCT013 BKN021 OVC040 08/08 A2990 RMK SF2SF2SC3SC1 SLP125
2001 10 21 15 METAR CYVR 211500Z 11010KT 2 1/2SM -RA BR FEW007 SCT013 OVC019 08/08 A2988 RMK SF2SF2SC4 SLP119
2001 10 21 16 METAR CYVR 211600Z 10010KT 4SM -RA BR FEW007 FEW013 BKN019 OVC034 08/07 A2988 RMK SF2SF1SC4SC2 SLP118
2001 10 21 17 METAR CYVR 211700Z 07012KT 4SM -RA BR FEW007 SCT013 SCT019 OVC038 08/07 A2985 RMK SF2SF2SC1SC4 SLP109
2001 10 21 18 METAR CYVR 211800Z 07012KT 10SM -RA FEW007 SCT013 BKN018 OVC038 08/07 A2983 RMK SF2SF2SC3SC2 /R12/ SLP101
2001 10 21 19 METAR CYVR 211900Z 10011G16KT 2SM SHRA BR FEW004 BKN011 OVC018TCU 08/07 A2983 RMK CF2CF5TCU2 SLP100
2001 10 21 20 METAR CYVR 212000Z 13020G26KT 3SM -SHRA BR FEW004 BKN008 OVC015TCU 08/08 A2983 RMK CF2CF5TCU2 SLP101
2001 10 21 21 METAR CYVR 212100Z 11013G21KT 2SM -SHRA BR FEW004 BKN008 OVC015TCU 08/08 A2982 RMK CF2CF5TCU2 SLP096
2001 10 21 22 METAR CYVR 212200Z 08013KT 5SM BR FEW006 BKN008 OVC015TCU 08/07 A2981 RMK CF2CF3TCU3 SLP094
2001 10 21 23 METAR CYVR 212300Z 10013KT 8SM FEW007 BKN010 OVC015TCU 08/06 A2982 RMK CF2CF3TCU2 SLP096
2001 10 22 00 METAR CYVR 220000Z 06009KT 8SM SCT008 BKN010 OVC015TCU 08/07 A2982 RMK CF3CF3TCU2 SLP098
2001 10 22 01 METAR CYVR 220100Z 06011KT 8SM SCT007 BKN008 OVC015 08/07 A2982 RMK CF3CF3CU2 SLP099
2001 10 22 02 METAR CYVR 220200Z 05007KT 8SM SCT008 BKN013 BKN050 08/07 A2982 RMK SF4SC2SC2 SLP098
2001 10 22 03 METAR CYVR 220300Z 08010G15KT 12SM BKN012 BKN050 BKN100 08/07 A2983 RMK SF5SC2AC1 SLP102
2001 10 22 04 METAR CYVR 220400Z 01003KT 12SM SCT012 SCT080 BKN160 08/07 A2984 RMK SC3AC1AC1 SLP105
2001 10 22 05 METAR CYVR 220500Z 08008KT 12SM FEW015 BKN060 BKN160 09/08 A2985 RMK SC2SC2AC2 SLP107
2001 10 22 06 METAR CYVR 220600Z 08006KT 12SM FEW020 BKN081 BKN160 08/07 A2985 RMK SC2AC3AC2 SLP108
2001 10 22 07 METAR CYVR 220700Z 08007KT 15SM FEW020 FEW080 FEW160 07/07 A2985 RMK SC1AC1AC1 SLP108
2001 10 22 08 METAR CYVR 220800Z 10003KT 15SM FEW020 SCT084 07/07 A2986 RMK SC1AC3 SLP111
2001 10 22 09 METAR CYVR 220900Z 09007KT 15SM -SHRA FEW020 BKN054 OVC075 08/08 A2986 RMK SC1SC5AC2 SHRA VRY LGT SLP112
2001 10 22 10 METAR CYVR 221000Z 09007KT 15SM FEW020 OVC054 09/08 A2985 RMK SC2SC6 SLP109
2001 10 22 11 METAR CYVR 221100Z 09007KT 15SM FEW020 BKN054 BKN180 08/08 A2984 RMK SC2SC3AC1 SLP105
2001 10 22 12 METAR CYVR 221200Z 11006KT 15SM FEW007 SCT020 BKN054 BKN180 09/09 A2982 RMK SF2SC2SC3AC1 SLP098
2001 10 22 13 METAR CYVR 221300Z 08005KT 15SM FEW007 FEW020 BKN060 BKN160 09/08 A2981 RMK SF1SC2SC3AC1 SLP095
2001 10 22 14 METAR CYVR 221400Z 10006KT 15SM FEW007 FEW020 BKN053 BKN140 09/09 A2979 RMK SF1SC2SC4AC1 SLP088
2001 10 22 15 METAR CYVR 221500Z 10007KT 15SM FEW007 FEW020 BKN060 BKN140 09/08 A2977 RMK SF1SC1SC5AC1 SLP081
2001 10 22 16 METAR CYVR 221600Z 16008KT 10SM -RA FEW007 FEW020 OVC044 10/09 A2976 RMK SF1SC2SC6 SLP079
2001 10 22 17 METAR CYVR 221700Z 10007KT 10SM -RA FEW008 FEW020 OVC045 10/09 A2974 RMK SF1SC2SC6 SLP070
2001 10 22 18 METAR CYVR 221800Z 11010KT 10SM -RA FEW008 FEW020 OVC043 10/09 A2970 RMK SF1SC2SC6 SLP056
2001 10 22 19 METAR CYVR 221900Z 09014KT 8SM -RA FEW007 SCT014 OVC038 10/09 A2962 RMK SF2SC2SC4 PRESFR SLP030
2001 10 22 20 METAR CYVR 222000Z 11018KT 5SM -RA BR FEW007 BKN014 OVC025 10/09 A2953 RMK SF2SC5SC2 PRESFR SLP998
2001 10 22 21 METAR CYVR 222100Z 12021G32KT 6SM -RA BR FEW008 SCT014 BKN028 OVC040 10/09 A2945 RMK SF2SC2SC2SC2 PRESFR RERA SLP971
2001 10 22 22 METAR CYVR 222200Z 13016G26KT 5SM -RA BR FEW008 SCT012 BKN023 OVC030 10/09 A2941 RMK SF1SC2SC3SC2 SLP958
2001 10 22 23 METAR CYVR 222300Z 18020G26KT 12SM FEW008 FEW025 SCT080 SCT120 12/10 A2937 RMK SF1SC2AC1AC1 SLP945
2001 10 23 00 METAR CYVR 230000Z 22022G28KT 15SM FEW012 FEW025 SCT080 SCT120 12/08 A2939 RMK SF1SC1AC2AC1 SLP952
2001 10 23 01 METAR CYVR 230100Z 22022KT 15SM FEW020 FEW035 SCT090 11/07 A2942 RMK SF1SC2AC2 SLP963
2001 10 23 02 METAR CYVR 230200Z 20016KT 12SM FEW020 FEW040 SCT090 BKN170 10/07 A2944 RMK SF1SC2AC2AC2 SLP968
2001 10 23 03 METAR CYVR 230300Z 20018KT 12SM FEW020 BKN062 BKN090 10/06 A2944 RMK SF1SC4AC2 SLP970
2001 10 23 04 METAR CYVR 230400Z 19013KT 12SM FEW025 BKN062 OVC090 10/06 A2944 RMK SC1SC6AC2 SLP968
2001 10 23 05 METAR CYVR 230500Z 20020G25KT 12SM FEW025 BKN060 BKN090 OVC120 11/05 A2944 RMK SC1SC4AC2AC2 SLP968
2001 10 23 06 METAR CYVR 230600Z 20016KT 12SM FEW025 BKN060 BKN080 BKN120 11/05 A2945 RMK SC1SC4AC2AC1 SLP973
2001 10 23 07 METAR CYVR 230700Z 20019G24KT 20SM FEW025 BKN061 BKN120 11/05 A2945 RMK SC1SC4AC2 SLP973
2001 10 23 08 METAR CYVR 230800Z CCA 20018KT 20SM FEW060 BKN120 11/06 A2947 RMK SC2AC2 SLP978
2001 10 23 09 METAR CYVR 230900Z 20015KT 20SM BKN063 BKN110 11/06 A2949 RMK SC5AC2 SLP985
2001 10 23 10 METAR CYVR 231000Z 22012KT 20SM BKN060 11/07 A2952 RMK SC6 SLP995
2001 10 23 11 METAR CYVR 231100Z 24011KT 30SM BKN060 11/07 A2955 RMK SC6 SLP006
2001 10 23 12 METAR CYVR 231200Z 26009KT 30SM SCT060 BKN160 11/06 A2958 RMK SC2AC2 SLP017
2001 10 23 13 METAR CYVR 231300Z 30006KT 30SM FEW045 SCT060 BKN160 BKN210 10/08 A2963 RMK SC2SC2AC1CI0 SLP035
2001 10 23 14 METAR CYVR 231400Z 29016G21KT 20SM FEW030 SCT060 BKN160 11/08 A2968 RMK SC2SC2AC2 SLP050
2001 10 23 15 METAR CYVR 231500Z 30024G29KT 30SM FEW040 SCT070 BKN160 10/07 A2973 RMK SC2AC2AC2 VIRGA SLP066
2001 10 23 16 METAR CYVR 231600Z 29022G27KT 30SM FEW040 SCT070 BKN160 10/06 A2979 RMK SC2AC2AC2 CU ASOCTD SLP086
2001 10 23 17 METAR CYVR 231700Z 29024G31KT 30SM FEW040 SCT070 SCT160 BKN200 10/05 A2984 RMK SC1AC2AC1CI0 PRESRR SLP106
2001 10 23 18 METAR CYVR 231800Z 30018G27KT 30SM FEW040 SCT070 SCT160 BKN200 11/06 A2989 RMK SC1AC2AC1CI0 SLP122
2001 10 23 19 METAR CYVR 231900Z 31015G20KT 30SM FEW040 SCT070 11/05 A2994 RMK SC2AC2 SLP138
2001 10 23 20 METAR CYVR 232000Z 30023G30KT 30SM FEW050 FEW070 12/06 A2995 RMK CU2AC1 SLP143
2001 10 23 21 METAR CYVR 232100Z 29026G32KT 30SM FEW050 FEW070 SCT220 12/05 A2998 RMK CU2AC1CI0 SLP151
2001 10 23 22 METAR CYVR 232200Z 29021G29KT 30SM FEW050 SCT070 BKN220 12/04 A3001 RMK CU2AC2CI0 SLP161
2001 10 23 23 METAR CYVR 232300Z 30019G26KT 30SM FEW050 FEW070 BKN220 12/05 A3003 RMK CU2AC1CI0 SLP170
2001 10 24 00 METAR CYVR 240000Z 29015KT 30SM FEW050 BKN220 11/05 A3006 RMK CU2CI1 SLP179
2001 10 24 01 METAR CYVR 240100Z 29015KT 30SM FEW045 BKN200 10/05 A3008 RMK CU2CI2 SLP185
2001 10 24 02 METAR CYVR 240200Z 29011KT 30SM FEW045 BKN240 09/03 A3010 RMK CU2CI1 SLP191
2001 10 24 03 METAR CYVR 240300Z 27011KT 30SM FEW045 BKN240 10/05 A3012 RMK CU1CI1 SLP198
2001 10 24 04 METAR CYVR 240400Z 26013KT 30SM FEW045 OVC120 10/06 A3014 RMK SC1AC5 SLP205
2001 10 24 05 METAR CYVR 240500Z 25009KT 30SM FEW050 OVC110 10/04 A3015 RMK SC1AC7 SLP211
2001 10 24 06 METAR CYVR 240600Z 26011KT 30SM FEW070 OVC100 10/04 A3017 RMK AC2AC6 SLP215
2001 10 24 07 METAR CYVR 240700Z 23003KT 30SM BKN050 OVC090 10/04 A3017 RMK SC5AC3 SLP217
2001 10 24 08 METAR CYVR 240800Z 22005KT 30SM BKN055 OVC090 10/04 A3018 RMK SC6AC2 SLP218
2001 10 24 09 METAR CYVR 240900Z 20008KT 30SM -RA OVC055 09/05 A3018 RMK SC8 RA VRY LGT SLP220
2001 10 24 10 METAR CYVR 241000Z 17009KT 30SM -RA OVC050 08/05 A3019 RMK SC8 RA VRY LGT SLP222
2001 10 24 11 METAR CYVR 241100Z 15006KT 15SM -RA FEW025 OVC041 08/06 A3019 RMK SF2SC6 SLP222
2001 10 24 12 METAR CYVR 241200Z 16011KT 15SM -RA SCT017 BKN025 OVC040 08/06 A3019 RMK SF3SF2SC3 SLP222
2001 10 24 13 METAR CYVR 241300Z 16012KT 10SM -RA FEW015 SCT025 OVC040 07/05 A3018 RMK SF2SF2SC4 RA VRY LGT SLP220
2001 10 24 14 METAR CYVR 241400Z 15011KT 10SM -RA FEW015 FEW025 SCT040 OVC059 07/06 A3018 RMK SF1SF2SC2SC4 SLP220
2001 10 24 15 METAR CYVR 241500Z 15010KT 10SM -RA FEW010 SCT030 OVC040 07/06 A3018 RMK SF2SF2SC5 SLP220
2001 10 24 16 METAR CYVR 241600Z 14008KT 6SM -RA BR FEW010 SCT018 OVC030 07/06 A3018 RMK SF2SF2SC4 SLP221
2001 10 24 17 METAR CYVR 241700Z 13009KT 6SM -RA BR FEW010 SCT015 OVC030 08/06 A3019 RMK SF1SF2SC5 SLP222
2001 10 24 18 METAR CYVR 241800Z 13010G16KT 5SM -RA BR FEW010 BKN015 OVC030 08/07 A3019 RMK SF1SF5SC2 SLP222
2001 10 24 19 METAR CYVR 241900Z 14011KT 15SM FEW008 BKN012 OVC030 09/07 A3019 RMK SF1SF5SC2 SLP222
2001 10 24 20 METAR CYVR 242000Z 16007KT 15SM -SHRA FEW008 BKN016 BKN030 OVC100 09/07 A3019 RMK SF1SF4SC2AC1 SLP224
2001 10 24 21 METAR CYVR 242100Z 13008KT 15SM -SHRA SCT016 BKN050 OVC100 09/06 A3018 RMK CF3SC3AC2 SLP221
2001 10 24 22 METAR CYVR 242200Z 04005KT 15SM -SHRA FEW012 BKN020 BKN049 OVC090 08/07 A3019 RMK CF2SC3SC2AC2 SLP224
2001 10 24 23 METAR CYVR 242300Z 14010KT 15SM -SHRA SCT011 BKN020 OVC048 09/07 A3019 RMK SC4SC2SC2 --SHRA SLP223
2001 10 25 00 METAR CYVR 250000Z 09007KT 6SM -SHRA BKN008 OVC028 08/07 A3020 RMK SC6SC2 VSBY NW-NE 4SM SLP225
2001 10 25 01 METAR CYVR 250100Z 08008KT 4SM -SHRA BKN006 OVC015 08/07 A3018 RMK SC6SC2 SLP220
2001 10 25 02 METAR CYVR 250200Z 06010KT 4SM -SHRA OVC006 07/07 A3018 RMK SC8 SLP220
2001 10 25 03 METAR CYVR 250300Z 09009KT 4SM -SHRA BKN005 OVC010 07/07 A3018 RMK SC6SC2 SLP218
2001 10 25 04 METAR CYVR 250400Z 09009KT 8SM -SHRA BKN008 OVC020 07/06 A3018 RMK SC6SC2 SLP218
2001 10 25 05 METAR CYVR 250500Z 09009KT 8SM -SHRA BKN009 OVC018 07/06 A3017 RMK SC5SC3 SLP216
2001 10 25 06 METAR CYVR 250600Z 08009KT 10SM -SHRA BKN009 BKN020 OVC033 07/06 A3016 RMK SF5SC2SC2 --SHRA SLP212
2001 10 25 07 METAR CYVR 250700Z 09007KT 6SM -SHRA BR FEW009 SCT020 OVC032 07/06 A3016 RMK SF2SC2SC4 SLP212
2001 10 25 08 METAR CYVR 250800Z 06007KT 8SM -SHRA FEW009 BKN019 OVC033 07/06 A3015 RMK SF2SC4SC2 SLP208
2001 10 25 09 METAR CYVR 250900Z 07007KT 8SM -SHRA FEW009 BKN026 OVC036 07/06 A3015 RMK SF2SC3SC3 SLP208
2001 10 25 10 METAR CYVR 251000Z 06007KT 10SM FEW009 SCT026 OVC036 07/06 A3014 RMK SF1SC2SC5 SLP206
2001 10 25 11 METAR CYVR 251100Z 09004KT 12SM FEW009 FEW027 OVC035 07/06 A3014 RMK SF1SC2SC6 SLP207
2001 10 25 12 METAR CYVR 251200Z 10005KT 15SM FEW009 FEW026 OVC032 07/06 A3014 RMK SF1SC2SC6 SLP207
2001 10 25 13 METAR CYVR 251300Z 09003KT 15SM FEW009 FEW028 OVC036 07/06 A3014 RMK SF1SC2SC6 SLP207
2001 10 25 14 METAR CYVR 251400Z 00000KT 15SM FEW009 SCT015 BKN035 07/06 A3016 RMK SF2SC2SC4 SLP214
2001 10 25 15 METAR CYVR 251500Z 19002KT 20SM FEW009 FEW015 OVC032 07/06 A3017 RMK SF1SC1SC6 SLP216
2001 10 25 16 METAR CYVR 251600Z 18002KT 20SM FEW009 BKN038 08/06 A3019 RMK SF1SC6 SLP224
2001 10 25 17 METAR CYVR 251700Z 17002KT 20SM FEW009 FEW015 BKN038 08/06 A3021 RMK SF1CU1SC6 SLP228
2001 10 25 18 METAR CYVR 251800Z 16002KT 20SM FEW009 FEW015TCU BKN030 08/06 A3021 RMK SF1TCU1SC6 TCU NW SLP230
2001 10 25 19 METAR CYVR 251900Z 13005KT 20SM FEW008 FEW015 BKN025 OVC050 09/06 A3021 RMK SF1SC1SC5SC2 SLP229
2001 10 25 20 METAR CYVR 252000Z 12005KT 20SM FEW009 BKN021 OVC050 09/07 A3021 RMK SF1SC6SC2 TCU ASOCTD NW SLP228
2001 10 25 21 METAR CYVR 252100Z 10007KT 20SM FEW009 BKN020 OVC040 10/07 A3020 RMK SF1SC5SC2 SLP225
2001 10 25 22 METAR CYVR 252200Z 11006KT 20SM FEW009 BKN022 OVC032 10/07 A3019 RMK SF1SC5SC2 SLP224
2001 10 25 23 METAR CYVR 252300Z 11008KT 20SM FEW009 SCT022 OVC032 10/07 A3019 RMK CF1SC3SC4 SLP223
2001 10 26 00 METAR CYVR 260000Z 09012KT 12SM FEW009 BKN022TCU OVC032 09/07 A3017 RMK CF1TCU5SC2 SHWRS N-E. SLP217
2001 10 26 01 METAR CYVR 260100Z 08007KT 15SM -SHRA FEW009 BKN021 OVC032 10/07 A3015 RMK CF1SC5SC2 TCU EMBDD. SLP211
2001 10 26 02 METAR CYVR 260200Z 10006KT 12SM -SHRA FEW009 BKN020 OVC032 09/08 A3013 RMK CF1SC6SC2 TCU EMBDD. SLP204
2001 10 26 03 METAR CYVR 260300Z 07008KT 12SM -SHRA FEW009 BKN020 BKN032 OVC072 10/08 A3011 RMK CF1SC5SC2AC1 TCU EMBDD. SLP196
2001 10 26 04 METAR CYVR 260400Z 06010G15KT 12SM -SHRA FEW009 SCT020 BKN032 OVC072 10/08 A3009 RMK CF1SC4SC2AC2 TR CF. SLP189
2001 10 26 05 METAR CYVR 260500Z 05010KT 12SM -SHRA FEW009 FEW020 BKN036 OVC072 10/08 A3008 RMK CF1SC2SC4AC2 TR CF. -SHRA OCNL. SLP185
2001 10 26 06 METAR CYVR 260600Z 10007KT 12SM -RA FEW020 BKN036 OVC072 09/08 A3005 RMK SC2SC4AC2 SLP177
2001 10 26 07 METAR CYVR 260700Z 12009KT 15SM FEW020 FEW035 OVC064 09/08 A3002 RMK SC1SC2SC6 SLP167
2001 10 26 08 METAR CYVR 260800Z 09010KT 15SM -SHRA FEW020 FEW040 OVC065 09/07 A3000 RMK SC1SC2SC6 SLP158
2001 10 26 09 METAR CYVR 260900Z 10010KT 12SM -SHRA FEW020 FEW040 BKN070 OVC080 09/07 A2998 RMK SC1SC2AC4AC2 SLP151
2001 10 26 10 METAR CYVR 261000Z 09004KT 10SM -SHRA FEW020 FEW040 BKN065 OVC075 09/08 A2997 RMK SC1SC2SC4AC2 SLP148
2001 10 26 11 METAR CYVR 261100Z 11006KT 10SM -RA FEW020 FEW040 OVC078 09/08 A2994 RMK SC1SC2AC6 SLP137
2001 10 26 12 METAR CYVR 261200Z 07007KT 10SM -RA FEW020 FEW055 OVC075 09/08 A2992 RMK SC1SC2AC6 SLP132
2001 10 26 13 METAR CYVR 261300Z 09006KT 15SM -RA FEW020 SCT055 OVC075 09/08 A2990 RMK SC2SC2AC5 PCPN VRY LGT SLP124
2001 10 26 14 METAR CYVR 261400Z 09013KT 15SM -RA FEW020 SCT055 OVC075 10/08 A2988 RMK SC2SC2AC5 PCPN VRY LGT SLP117
2001 10 26 15 METAR CYVR 261500Z CCA 11013KT 15SM FEW030 BKN055 OVC070 10/08 A2986 RMK SC1SC5AC2 VSBY S 25 SLP112
2001 10 26 16 METAR CYVR 261600Z 11013KT 15SM VCSH FEW028 BKN056 OVC070 10/08 A2986 RMK SC1SC6AC1 SHWRS NE SLP112
2001 10 26 17 METAR CYVR 261700Z 10010KT 15SM -RA FEW025 BKN048 OVC070 11/08 A2987 RMK SC2SC5AC1 VSBY N-NE 8 SLP115
2001 10 26 18 METAR CYVR 261800Z 10011KT 15SM -RA FEW022 BKN048 OVC070 11/09 A2989 RMK SC2SC5AC1 HVYR PCPN ALQDS SLP122
2001 10 26 19 METAR CYVR 261900Z 20003KT 2 1/2SM -RA BR FEW005 BKN020 OVC050 11/10 A2993 RMK SF2SC4SC2 RERA SLP134
2001 10 26 20 METAR CYVR 262000Z 29006KT 4SM -RA BR FEW005 SCT020 OVC055 11/10 A2993 RMK SF2SC2SC4 SLP135
2001 10 26 21 METAR CYVR 262100Z 29007KT 4SM -RA BR FEW005 SCT020 OVC048 10/10 A2995 RMK SF2SC2SC5 SLP142
2001 10 26 22 METAR CYVR 262200Z 21005KT 12SM -RA FEW005 FEW020 BKN053 OVC071 10/09 A2996 RMK SF1SF2SC4AC2 VSBY HIER SW SLP144
2001 10 26 23 METAR CYVR 262300Z 19008KT 4SM -RA BR FEW005 FEW018 OVC037 10/08 A2999 RMK SF1SF2SC6 SLP154
2001 10 27 00 METAR CYVR 270000Z 16003KT 10SM -RA FEW005 SCT018 BKN037 OVC050 09/09 A2998 RMK SF2SF2SC3SC1 VSBY LWR N. HIR SW. SLP152
2001 10 27 01 METAR CYVR 270100Z 13005KT 12SM -RA FEW007 FEW035 SCT045 OVC080 09/08 A2998 RMK SF1SC2SC1AC5 VRY LGT R SLP151
2001 10 27 02 METAR CYVR 270200Z 13004KT 5SM -RA BR FEW005 FEW018 BKN050 OVC065 09/08 A2999 RMK SF1SF2SC4SC2 SLP156
2001 10 27 03 METAR CYVR 270300Z 16004KT 10SM -RA FEW005 SCT018 BKN050 BKN060 OVC110 09/09 A2998 RMK SF2SF2SC2SC1AC2 SLP153
2001 10 27 04 METAR CYVR 270400Z 16004KT 12SM FEW005 SCT018 BKN050 OVC110 09/08 A2999 RMK SF2SF2SC2AC2 -RA INTMT. SLP154
2001 10 27 05 METAR CYVR 270500Z 13005KT 10SM FEW005 FEW018 SCT050 OVC110 09/08 A2998 RMK SF1SF2SC2AC4 SLP151
2001 10 27 06 METAR CYVR 270600Z 13004KT 12SM FEW005 FEW018 SCT050 OVC110 09/08 A2998 RMK SF1SF1SC2AC5 SLP152
2001 10 27 07 METAR CYVR 270700Z 13004KT 12SM FEW020 SCT035 OVC080 08/08 A2998 RMK SC2SC2AC4 SLP151
2001 10 27 08 METAR CYVR 270800Z 11004KT 12SM FEW015 SCT035 OVC100 08/07 A2998 RMK SC2SC2AC4 SLP151
2001 10 27 09 METAR CYVR 270900Z 09006KT 12SM FEW015 SCT035 BKN080 OVC110 08/07 A2997 RMK SC2SC2AC2AC2 SLP149
2001 10 27 10 METAR CYVR 271000Z 13005KT 12SM FEW015 SCT035 BKN055 OVC090 08/07 A2996 RMK SC2SC2SC2AC2 SLP146
2001 10 27 11 METAR CYVR 271100Z 14007KT 12SM SCT019 BKN038 BKN060 OVC090 08/07 A2996 RMK SC3SC2SC2AC2 SLP146
2001 10 27 12 METAR CYVR 271200Z 13007KT 12SM FEW020 SCT040 BKN060 OVC090 08/06 A2995 RMK SC2SC2SC3AC2 SLP142
2001 10 27 13 METAR CYVR 271300Z 11008KT 12SM FEW020 SCT040 BKN060 OVC090 07/06 A2995 RMK SC2SC2SC2AC2 SLP142
2001 10 27 14 METAR CYVR 271400Z 09008KT 15SM FEW012 SCT020 BKN040 OVC090 07/06 A2994 RMK SF1SF2SC3AC2 SLP139
2001 10 27 14 METAR CYVR 271400Z 09008KT 15SM FEW012 SCT020 BKN040 OVC090 07/06 A2994 RMK SF1SF2SC3AC2 SLP139
2001 10 27 16 METAR CYVR 271600Z 08009KT 15SM FEW012 BKN019 BKN040 OVC090 07/05 A2995 RMK SF2SF3SC2AC1 SLP141
2001 10 27 17 METAR CYVR 271700Z 09011KT 15SM -SHRA FEW013 SCT019 BKN040 OVC080 07/05 A2997 RMK CF1CF2SC2AC2 SLP147
2001 10 27 18 METAR CYVR 271800Z 06009KT 15SM BKN012 BKN040 BKN080 07/05 A2998 RMK CF3SC3AC1 12 LYR THN BKN SLP151
2001 10 27 19 METAR CYVR 271900Z 09009KT 30SM FEW012 SCT040 BKN080 BKN120 07/05 A2999 RMK CF2SC2AC3AC1 SLP154
2001 10 27 20 METAR CYVR 272000Z 09008KT 30SM FEW012 SCT040 BKN083 08/06 A3000 RMK CF2SC2AC3 TCU W SLP157
2001 10 27 21 METAR CYVR 272100Z 10006KT 30SM FEW012 FEW040 SCT083 09/07 A2999 RMK CU2SC1AC2 TCU W SLP156
2001 10 27 22 METAR CYVR 272200Z 08002KT 20SM FEW012 SCT055TCU BKN100 09/06 A3000 RMK CU2TCU2AC1 SLP158
2001 10 27 23 METAR CYVR 272300Z 12007KT 30SM FEW018 SCT050TCU SCT100 09/06 A3000 RMK CU2TCU2AC1 SHWRS E SLP159
2001 10 28 00 METAR CYVR 280000Z 12003KT 30SM FEW018 SCT050TCU BKN100 08/06 A3002 RMK CU2TCU2AC2 SLP166
2001 10 28 01 METAR CYVR 280100Z 14005KT 30SM SCT020 SCT050TCU BKN060 09/05 A3003 RMK CU3TCU1SC2 SLP170
2001 10 28 02 METAR CYVR 280200Z 09005KT 30SM FEW020 BKN045 BKN081 08/06 A3005 RMK CF2SC3AC2 SLP176
2001 10 28 03 METAR CYVR 280300Z 09007KT 30SM FEW018 SCT060 BKN080 08/06 A3007 RMK CF2SC2AC2 SLP182
2001 10 28 04 METAR CYVR 280400Z 10010KT 30SM FEW018 SCT060 07/05 A3009 RMK CF2SC2 SLP188
2001 10 28 05 METAR CYVR 280500Z 08010KT 30SM FEW018 06/04 A3011 RMK SF2 SLP197
2001 10 28 06 METAR CYVR 280600Z 08008KT 30SM FEW015 05/04 A3013 RMK SC2 SLP204
2001 10 28 07 METAR CYVR 280700Z 09009KT 30SM FEW015 05/04 A3016 RMK SC1 SLP212
2001 10 28 08 METAR CYVR 280800Z CCA 09010KT 10SM BKN012 06/04 A3018 RMK SC4 012 LYR THIN SLP219
2001 10 28 09 METAR CYVR 280900Z 08009KT 15SM FEW010 SCT038 06/04 A3019 RMK SF2SC1 SLP223
2001 10 28 10 METAR CYVR 281000Z 09008KT 15SM FEW010 FEW042 05/04 A3020 RMK SF1SC1 SLP226
2001 10 28 11 METAR CYVR 281100Z 09008KT 15SM FEW012 FEW030 05/04 A3020 RMK SF2SC1 SLP227
2001 10 28 12 METAR CYVR 281200Z 08008KT 15SM SCT012 BKN043 06/04 A3021 RMK SF3SC3 SLP230
2001 10 28 13 METAR CYVR 281300Z 08006KT 15SM FEW012 SCT019 BKN043 06/04 A3021 RMK SF2SC2SC3 SLP229
2001 10 28 14 METAR CYVR 281400Z 08007KT 15SM SCT016 BKN043 05/04 A3020 RMK SF4SC2 SLP226
2001 10 28 15 METAR CYVR 281500Z 10008KT 30SM FEW016 BKN043 BKN230 05/04 A3021 RMK CF2SC3CI2 SLP229
2001 10 28 16 METAR CYVR 281600Z 08006KT 30SM FEW016 SCT050 BKN230 05/04 A3022 RMK CF2SC2CI1 SLP234
2001 10 28 17 METAR CYVR 281700Z 09006KT 30SM FEW040 BKN230 07/05 A3023 RMK SC1CI2 SLP236
2001 10 28 18 METAR CYVR 281800Z 04003KT 30SM FEW015 FEW040 BKN230 08/05 A3023 RMK CF1CU1CI1 SLP235
2001 10 28 19 METAR CYVR 281900Z 00000KT 30SM FEW015 FEW040 BKN200 10/04 A3021 RMK CF1CU1CI1 SLP231
2001 10 28 20 METAR CYVR 282000Z 28005KT 30SM FEW035 BKN200 09/04 A3021 RMK CU2CI1 SLP229
2001 10 28 21 METAR CYVR 282100Z 25005KT 30SM FEW035 BKN220 09/04 A3020 RMK CU2CI1 SLP226
2001 10 28 22 METAR CYVR 282200Z 24003KT 30SM FEW035 OVC220 09/04 A3019 RMK CU2CI0 SLP223
2001 10 28 23 METAR CYVR 282300Z 26004KT 30SM FEW035 OVC210 08/04 A3017 RMK CF1CI5 SLP216
2001 10 29 00 METAR CYVR 290000Z 26003KT 30SM OVC200 08/04 A3017 RMK CI7 SLP215
2001 10 29 01 METAR CYVR 290100Z 33004KT 30SM BKN180 OVC200 07/04 A3016 RMK CI5CS3 SLP214
2001 10 29 02 METAR CYVR 290200Z 36002KT 30SM OVC180 07/04 A3017 RMK CI8 SLP216
2001 10 29 03 METAR CYVR 290300Z 02003KT 30SM BKN180 OVC200 07/04 A3018 RMK CI5CS2 MOON DMLY VSBL SLP218
2001 10 29 04 METAR CYVR 290400Z 00000KT 30SM FEW160 BKN180 BKN200 07/04 A3018 RMK AC2CI3CS1 SLP219
2001 10 29 05 METAR CYVR 290500Z 14003KT 30SM FEW160 BKN180 BKN200 07/05 A3018 RMK AC2CI3CS1 HALO SLP219
2001 10 29 06 METAR CYVR 290600Z 10002KT 30SM FEW160 BKN180 BKN200 06/04 A3018 RMK AC2CI3CS1 HALO SLP219
2001 10 29 07 METAR CYVR 290700Z 01003KT 30SM FEW140 SCT180 BKN220 06/04 A3018 RMK AC1CI2CS1 SLP220
2001 10 29 08 METAR CYVR 290800Z 00000KT 30SM FEW140 SCT160 BKN250 05/03 A3019 RMK AC2AC1CI2 SLP222
2001 10 29 09 METAR CYVR 290900Z 05002KT 30SM BKN067 BKN160 BKN250 05/03 A3019 RMK AC5AC1CI1 SLP222
2001 10 29 10 METAR CYVR 291000Z 00000KT 30SM SCT065 BKN160 BKN250 05/03 A3018 RMK AC3AC2CI1 SLP218
2001 10 29 11 METAR CYVR 291100Z 13003KT 30SM FEW065 SCT170 BKN250 05/03 A3017 RMK SC2AC2CI1 SLP217
2001 10 29 12 METAR CYVR 291200Z 01002KT 30SM FEW065 FEW150 BKN250 04/03 A3017 RMK SC2AC1CI1 SLP217
2001 10 29 13 METAR CYVR 291300Z 00000KT 30SM FEW065 FEW180 BKN250 04/03 A3017 RMK SC2AC1CI1 SLP215
2001 10 29 14 METAR CYVR 291400Z 00000KT 30SM FEW025 FEW063 FEW170 BKN250 04/02 A3016 RMK CF1SC2AC1CI0 SLP214
2001 10 29 15 METAR CYVR 291500Z 05002KT 30SM SCT063 SCT140 BKN170 BKN250 04/02 A3016 RMK SC3AC1AS2CS1 SLP214
2001 10 29 16 METAR CYVR 291600Z 00000KT 30SM SCT063 BKN170 BKN220 05/03 A3017 RMK SC4AS2CS2 SLP215
2001 10 29 17 METAR CYVR 291700Z 00000KT 30SM FEW063 BKN170 BKN220 07/03 A3017 RMK SC2AS2CS2 SLP215
2001 10 29 18 METAR CYVR 291800Z 28003KT 30SM FEW063 SCT170 BKN220 08/03 A3016 RMK SC2AS2CS2 SLP212
2001 10 29 19 METAR CYVR 291900Z 27003KT 30SM FEW015 FEW063 SCT170 BKN220 09/04 A3015 RMK SF1SC2AS2CS2 TR SF OVR STRTS. SLP210
2001 10 29 20 METAR CYVR 292000Z 00000KT 30SM FEW015 FEW063 SCT170 BKN220 09/04 A3015 RMK CF1SC2AC2CS2 TR CF OVR STRTS. SLP208
2001 10 29 21 METAR CYVR 292100Z 09002KT 30SM FEW063 SCT140 SCT170 BKN220 10/05 A3013 RMK SC1AC2AS1CS2 SLP204
2001 10 29 22 METAR CYVR 292200Z 31003KT 30SM FEW060 SCT140 SCT170 OVC220 10/04 A3012 RMK SC1AC2AS1CS2 SLP200
2001 10 29 23 METAR CYVR 292300Z 15006KT 30SM FEW045 FEW060 SCT140 SCT170 OVC220 10/04 A3011 RMK CF1SC1AC2AS1CS2 SLP195
2001 10 30 00 METAR CYVR 300000Z 21004KT 30SM FEW050 SCT140 BKN220 BKN250 10/04 A3010 RMK SC1AC2CS2CI0 SLP192
2001 10 30 01 METAR CYVR 300100Z 18002KT 30SM FEW140 SCT180 BKN240 07/04 A3010 RMK AC2CS2CI0 SLP192
2001 10 30 02 METAR CYVR 300200Z 00000KT 20SM FEW140 BKN180 BKN240 06/04 A3010 RMK AC2CS2CI0 SLP191
2001 10 30 03 METAR CYVR 300300Z 09004KT 15SM BKN180 BKN220 06/03 A3008 RMK CS5CI1 SLP187
2001 10 30 04 METAR CYVR 300400Z 09004KT 15SM BKN180 OVC240 06/03 A3007 RMK CS5CI2 SLP181
2001 10 30 05 METAR CYVR 300500Z 11002KT 15SM SCT180 OVC240 06/04 A3005 RMK CS3CI2 SLP177
2001 10 30 06 METAR CYVR 300600Z 00000KT 15SM FEW200 BKN240 06/04 A3004 RMK CS2CI2 SLP173
2001 10 30 07 METAR CYVR 300700Z 00000KT 15SM FEW040 SCT200 BKN240 04/03 A3003 RMK SC1CS3CI2 TR SC SLP169
2001 10 30 08 METAR CYVR 300800Z 00000KT 20SM SCT045 BKN120 05/04 A3000 RMK SC2AS2 SLP158
2001 10 30 09 METAR CYVR 300900Z 00000KT 20SM BKN045 BKN120 06/04 A2997 RMK SC4AS1 SLP149
2001 10 30 10 METAR CYVR 301000Z 00000KT 20SM BKN045 BKN120 06/04 A2994 RMK SC5AS1 SLP137
2001 10 30 11 METAR CYVR 301100Z 00000KT 20SM BKN042 BKN110 BKN200 06/04 A2990 RMK SC4AS1CI1 SLP124
2001 10 30 12 METAR CYVR 301200Z 33002KT 20SM BKN042 BKN110 BKN200 06/04 A2986 RMK SC6AC1CI1 SLP112
2001 10 30 13 METAR CYVR 301300Z 00000KT 20SM BKN040 BKN120 07/05 A2983 RMK SC6AS2 SLP101
2001 10 30 14 METAR CYVR 301400Z 00000KT 12SM -SHRA BKN040 BKN100 07/05 A2981 RMK SC6AS1 SLP094
2001 10 30 15 METAR CYVR 301500Z 22003KT 12SM -RA OVC042 07/04 A2979 RMK SC8 SLP086
2001 10 30 16 METAR CYVR 301600Z 27002KT 12SM -RA SCT033 OVC042 07/04 A2976 RMK SC3SC5 SLP077
2001 10 30 17 METAR CYVR 301700Z 00000KT 10SM -RA FEW025 BKN035 OVC042 07/05 A2974 RMK SF1SC6SC2 SLP069
2001 10 30 18 METAR CYVR 301800Z 03002KT 6SM -RA BR FEW004 FEW025 BKN034 OVC040 07/05 A2969 RMK SF1SF1SC6SC1 SLP052
2001 10 30 19 METAR CYVR 301900Z 00000KT 12SM FEW007 FEW015 BKN034 OVC042 07/06 A2965 RMK SF1SF1SC3SC3 INTMT -RA. VSBY HIR SW. SLP039
2001 10 30 20 METAR CYVR 302000Z 00000KT 12SM -RA FEW007 FEW015 SCT034 OVC043 08/06 A2961 RMK SF1SF1SC2SC4 SLP026
2001 10 30 21 METAR CYVR 302100Z 34002KT 4SM -RA BR SCT007 SCT015 BKN034 OVC043 08/06 A2957 RMK SF3SF1SC3SC1 SLP013
2001 10 30 22 METAR CYVR 302200Z 08007KT 4SM -RA BR SCT007 SCT015 BKN037 OVC043 08/08 A2953 RMK SF3SF1SC3SC1 RERA. SLP998
2001 10 30 23 METAR CYVR 302300Z 11008KT 1SM -DZ BR SCT006 SCT012 OVC026 09/09 A2950 RMK SF3SF1SC4 SLP991
2001 10 31 00 METAR CYVR 310000Z 11005KT 1SM -RADZ BR BKN005 BKN012 OVC018 09/09 A2949 RMK SF5SF1SC2 SLP987
2001 10 31 01 METAR CYVR 310100Z 10006KT 1 1/2SM -DZ BR BKN005 OVC015 09/09 A2948 RMK SF5SC3 SLP984
2001 10 31 02 METAR CYVR 310200Z 09008KT 4SM BR SCT004 OVC010 09/09 A2948 RMK SF3ST5 SLP984
2001 10 31 03 METAR CYVR 310300Z 09009KT 4SM BR SCT006 BKN010 BKN080 OVC150 09/09 A2948 RMK SF3ST2AC2AC2 SLP984
2001 10 31 04 METAR CYVR 310400Z 08014KT 6SM BR FEW008 SCT015 BKN060 OVC120 10/09 A2946 RMK SF2ST2SC2AC2 CIG LWR E SLP976
2001 10 31 05 METAR CYVR 310500Z 10011KT 4SM -DZ BR FEW005 BKN007 BKN015 OVC055 10/10 A2945 RMK SF2ST3ST2SC2 SLP973
2001 10 31 06 METAR CYVR 310600Z 12006KT 4SM -RA BR FEW007 SCT012 BKN050 OVC080 10/10 A2944 RMK SF2ST2SC2AC2 SLP968
2001 10 31 07 METAR CYVR 310700Z 10006KT 3SM -RA BR FEW012 SCT020 BKN040 OVC060 10/10 A2943 RMK ST2SC2SC2SC2 SLP966
2001 10 31 08 METAR CYVR 310800Z 14013KT 8SM -RA FEW010 FEW020 BKN050 OVC080 10/10 A2943 RMK SF2SC1SC4AC2 RERA SLP965
2001 10 31 09 METAR CYVR 310900Z 17011G16KT 15SM FEW008 FEW020 SCT070 BKN230 10/09 A2945 RMK SF1SC1AC2CI2 SLP971
2001 10 31 10 METAR CYVR 311000Z 18013G19KT 15SM FEW008 FEW020 SCT080 BKN140 09/07 A2945 RMK SF1SC1AC2AC2 SLP972
2001 10 31 11 METAR CYVR 311100Z 18015KT 15SM FEW009 FEW020 BKN060 BKN100 10/06 A2946 RMK SF1SC2SC3AC2 SLP977
2001 10 31 12 METAR CYVR 311200Z 18011G16KT 15SM -SHRA FEW020 SCT055 BKN100 BKN140 09/06 A2948 RMK SC2SC2AC2AC1 SLP984
2001 10 31 13 METAR CYVR 311300Z 18010KT 15SM FEW020 FEW055 BKN120 BKN140 09/06 A2952 RMK SC1SC1AC4AC1 SLP996
2001 10 31 14 METAR CYVR 311400Z 18013KT 15SM FEW020 SCT055 BKN066 BKN080 10/06 A2953 RMK SC1SC2AC2AC2 SLP000
2001 10 31 15 METAR CYVR 311500Z 18007KT 15SM FEW020 SCT060 BKN080 BKN180 09/06 A2956 RMK SC2SC2AC2AC2 SLP009
2001 10 31 16 METAR CYVR 311600Z 18010KT 20SM FEW015 FEW025 SCT040 BKN080 BKN160 09/07 A2959 RMK CF1CU1SC2AC2AC1 TR CF SLP021
2001 10 31 17 METAR CYVR 311700Z 18012KT 20SM FEW015 FEW025 BKN049 BKN110 10/07 A2962 RMK CF1CU1SC3AC1 SLP031
2001 10 31 18 METAR CYVR 311800Z 18012KT 20SM FEW015 FEW025 BKN055 BKN110 BKN240 11/07 A2966 RMK CF1CU2SC2AC1CI0 TR CF SLP042
2001 10 31 19 METAR CYVR 311900Z 19012G20KT 20SM FEW015 FEW025 BKN058 BKN110 BKN240 12/08 A2969 RMK CF1CU2SC2AC2CI0 TR CF SLP054
2001 10 31 20 METAR CYVR 312000Z 19013G18KT 20SM FEW025 BKN060 BKN110 BKN240 12/07 A2971 RMK CU2SC2AC1CI1 SLP062
2001 10 31 21 METAR CYVR 312100Z 19012G17KT 30SM FEW025 BKN060 BKN110 BKN240 13/07 A2974 RMK CU2SC2AC1CI1 SLP069
2001 10 31 22 METAR CYVR 312200Z CCA 19011G17KT 30SM FEW025 SCT060 BKN080 BKN240 13/07 A2975 RMK CU2SC1AC2CI0 VIRGA SLP075
2001 10 31 23 METAR CYVR 312300Z 18012G21KT 20SM FEW025 FEW060 BKN080 BKN240 12/07 A2978 RMK CU2SC1AC1CI1 SHWRS MTNS NE SLP083
2001 11 01 00 METAR CYVR 010000Z 19012KT 20SM FEW025 FEW065 FEW080 SCT240 12/07 A2979 RMK CU1SC1AC1CI1 SLP088
2001 11 01 01 METAR CYVR 010100Z 18009G15KT 20SM FEW025 FEW065 FEW080 SCT200 11/07 A2982 RMK CU1SC1AC1CI1 TR AC SLP097
2001 11 01 02 METAR CYVR 010200Z 19008KT 20SM FEW025 BKN071 BKN200 11/07 A2984 RMK CF1AC5CI1 SLP103
2001 11 01 03 METAR CYVR 010300Z 14006KT 20SM FEW025 SCT070 SCT200 10/07 A2985 RMK CF1AC2CI0 SLP107
2001 11 01 04 METAR CYVR 010400Z 10005KT 20SM FEW025 SCT070 08/06 A2987 RMK CF1AC2 SLP113
2001 11 01 05 METAR CYVR 010500Z 09005KT 15SM FEW025 BKN056 BKN071 08/07 A2988 RMK CF1SC5AC2 SLP118
2001 11 01 06 METAR CYVR 010600Z 10003KT 15SM -SHRA BKN045 OVC070 09/08 A2989 RMK SC5AC3 SHRA VRY LGT SLP123
2001 11 01 07 METAR CYVR 010700Z 08005KT 15SM -SHRA BKN037 BKN047 10/08 A2990 RMK SC5SC2 SHRA VRY LGT MOON DMLY VSBL SLP126
2001 11 01 08 METAR CYVR 010800Z 13005KT 15SM FEW015 BKN040 OVC060 09/08 A2992 RMK SF2SC5SC2 SLP132
2001 11 01 09 METAR CYVR 010900Z 14007KT 10SM FEW012 SCT040 OVC059 10/08 A2993 RMK SF2SC2SC4 SLP135
2001 11 01 10 METAR CYVR 011000Z 12006KT 10SM FEW012 BKN057 BKN080 OVC140 10/08 A2993 RMK SF1SC5AC2AC1 SLP135
2001 11 01 11 METAR CYVR 011100Z 12005KT 15SM FEW012 SCT040 BKN080 OVC140 09/08 A2993 RMK SF1SC3AC3AC1 SLP135
2001 11 01 12 METAR CYVR 011200Z 14007KT 15SM FEW012 SCT040 OVC130 10/08 A2993 RMK SF2SC2AC5 SLP135
2001 11 01 13 METAR CYVR 011300Z 10005KT 15SM -SHRA FEW012 SCT050 BKN080 OVC110 10/08 A2993 RMK SF1SC2AC3AC2 SLP135
2001 11 01 14 METAR CYVR 011400Z 13005KT 15SM -SHRA FEW012 BKN040 OVC090 09/08 A2994 RMK SF1SC4AC3 SLP138
2001 11 01 15 METAR CYVR 011500Z 14007KT 15SM -SHRA FEW012 SCT040 BKN060 OVC090 10/08 A2994 RMK SF1SC2SC2AC3 SLP138
2001 11 01 16 METAR CYVR 011600Z 15007KT 15SM -SHRA FEW010 BKN030 BKN045 OVC070 10/08 A2995 RMK CF2CU2SC2AC2 SLP142
2001 11 01 17 METAR CYVR 011700Z 15009KT 15SM -SHRA FEW010 FEW030 BKN048 OVC070 10/08 A2997 RMK CF2CU1SC2AC3 SLP149
2001 11 01 18 METAR CYVR 011800Z 13009KT 15SM -SHRA FEW010 FEW030 BKN047 OVC070 10/09 A2997 RMK CF1CU1SC3AC3 SLP150
2001 11 01 19 METAR CYVR 011900Z 12009KT 12SM -SHRA FEW010 FEW025 BKN041 OVC070 10/09 A2997 RMK CF2CU1SC4AC2 SLP150
2001 11 01 20 METAR CYVR 012000Z 11010KT 10SM -SHRA FEW010 FEW025 BKN047 OVC070 10/09 A2997 RMK CF2CU1SC4AC2 SLP147
2001 11 01 21 METAR CYVR 012100Z 14012KT 10SM -SHRA FEW010 OVC045 10/09 A2995 RMK CF2SC6 SLP142
2001 11 01 22 METAR CYVR 012200Z 13009G15KT 8SM -SHRA SCT010 OVC048 11/09 A2994 RMK CF3SC5 SLP139
2001 11 01 23 METAR CYVR 012300Z 13013KT 4SM SHRA BR FEW010 OVC047 10/09 A2994 RMK SF2SC6 SLP138
2001 11 02 00 METAR CYVR 020000Z 09012KT 10SM -SHRA FEW010 SCT019 OVC043 10/09 A2993 RMK CF2SC2SC5 PCPN VRY LGT SLP134
2001 11 02 01 METAR CYVR 020100Z 12011KT 10SM -SHRA FEW010 SCT019 OVC039 10/09 A2993 RMK CF2SC2SC4 SLP134
2001 11 02 02 METAR CYVR 020200Z 12011KT 10SM -SHRA FEW011 FEW018 OVC038 11/09 A2993 RMK CF2SC1SC6 SLP136
2001 11 02 03 METAR CYVR 020300Z 13011KT 12SM -SHRA FEW012 SCT025 OVC045 11/10 A2994 RMK CF2SC2SC5 PCPN VRY LGT SLP137
2001 11 02 04 METAR CYVR 020400Z 14009KT 12SM -SHRA FEW010 FEW025 OVC038 11/09 A2995 RMK SF1SC2SC6 SLP140
2001 11 02 05 METAR CYVR 020500Z 16012KT 12SM -SHRA FEW010 FEW025 BKN040 OVC070 11/10 A2995 RMK SF1SC1SC4AC2 SLP142
2001 11 02 06 METAR CYVR 020600Z 16012KT 12SM -SHRA FEW010 FEW025 SCT043 BKN057 OVC070 11/10 A2997 RMK SF1SC1SC2SC2AC2 PCPN VRY LGT SLP148
2001 11 02 07 METAR CYVR 020700Z 16009KT 12SM -SHRA FEW012 SCT042 BKN054 BKN072 11/10 A2997 RMK CF1SC2SC2AC2 PCPN VRY LGT SLP150
2001 11 02 08 METAR CYVR 020800Z 31011KT 12SM BKN009 BKN015 OVC030 10/09 A3000 RMK SF5SF2SC2 SLP160
2001 11 02 09 METAR CYVR 020900Z 30008KT 12SM BKN015 OVC027 09/08 A3002 RMK SC6SC2 SLP164
2001 11 02 10 METAR CYVR 021000Z 29011KT 15SM SCT015 BKN037 09/07 A3003 RMK SC3SC3 SLP170
2001 11 02 11 METAR CYVR 021100Z 30012KT 15SM FEW017 SCT041 08/06 A3005 RMK SC1SC2 SLP174
2001 11 02 12 METAR CYVR 021200Z 31012KT 15SM FEW040 08/06 A3006 RMK SC2 SLP180
2001 11 02 13 METAR CYVR 021300Z 30016KT 15SM FEW040 07/06 A3009 RMK SC1 SLP190
2001 11 02 14 METAR CYVR 021400Z 29015KT 15SM FEW014 FEW040 07/05 A3010 RMK CF1SC1 CF TR SLP194
2001 11 02 15 METAR CYVR 021500Z 30013KT 15SM FEW014 FEW040 07/06 A3012 RMK CF1SC1 F BNK OVR FRASER RIVER N SLP200
2001 11 02 16 METAR CYVR 021600Z 29013KT 20SM FEW014 FEW200 08/06 A3015 RMK CF1CI1 F BNK OVR RVR N SLP211
2001 11 02 17 METAR CYVR 021700Z 29009KT 20SM FEW014 BKN200 09/07 A3017 RMK CF1CI1 F BNK OVR RVR N SLP216
2001 11 02 18 METAR CYVR 021800Z 29012KT 20SM FEW014 SCT220 09/06 A3019 RMK CF2CI1 F BNK OVR R N SLP222
2001 11 02 19 METAR CYVR 021900Z 29008KT 20SM FEW014 SCT200 09/07 A3021 RMK CF2CI0 SLP231
2001 11 02 20 METAR CYVR 022000Z 26004KT 20SM FEW014 BKN200 09/06 A3021 RMK CF2CI2 SLP231
2001 11 02 21 METAR CYVR 022100Z 27004KT 20SM FEW015 BKN210 10/07 A3021 RMK CF2CI1 CU ASOCTD SLP231
2001 11 02 22 METAR CYVR 022200Z 25002KT 20SM FEW015 BKN210 10/07 A3021 RMK CF2CI1 CU ASOCTD SLP231
2001 11 02 23 METAR CYVR 022300Z 23003KT 30SM FEW015 BKN200 10/06 A3022 RMK CF2CI1 CU ASOCTD SLP234
2001 11 03 00 METAR CYVR 030000Z 32002KT 30SM FEW015 BKN200 08/05 A3022 RMK CF1CI1 SLP232
2001 11 03 01 METAR CYVR 030100Z 00000KT 30SM BKN210 08/05 A3022 RMK CI1 SLP232
2001 11 03 02 METAR CYVR 030200Z 36002KT 30SM BKN240 07/05 A3021 RMK CI1 SLP231
2001 11 03 03 METAR CYVR 030300Z 08004KT 30SM BKN240 07/05 A3021 RMK CI1 SLP231
2001 11 03 04 METAR CYVR 030400Z 09005KT 30SM FEW200 BKN240 07/05 A3021 RMK CI2CI3 SLP230
2001 11 03 05 METAR CYVR 030500Z 09002KT 30SM FEW050 BKN190 06/04 A3022 RMK SC2CI3 SLP232
2001 11 03 06 METAR CYVR 030600Z 00000KT 30SM SCT045 BKN190 07/04 A3022 RMK SC2CI2 SLP234
2001 11 03 07 METAR CYVR 030700Z 02002KT 30SM BKN041 BKN200 07/04 A3022 RMK SC5CI1 SLP233
2001 11 03 08 METAR CYVR 030800Z 00000KT 20SM SCT043 OVC160 07/04 A3021 RMK SC4AC3 SLP230
2001 11 03 09 METAR CYVR 030900Z 32003KT 20SM BKN039 OVC150 07/05 A3022 RMK SC6AC2 SLP234
2001 11 03 10 METAR CYVR 031000Z 23006KT 20SM BKN039 OVC140 08/05 A3021 RMK SC6AC2 SLP229
2001 11 03 11 METAR CYVR 031100Z 35002KT 20SM BKN038 OVC140 07/05 A3018 RMK SC6AC2 SLP221
2001 11 03 12 METAR CYVR 031200Z 29004KT 20SM BKN039 OVC140 07/06 A3018 RMK SC6AC2 SLP221
2001 11 03 13 METAR CYVR 031300Z 26003KT 20SM OVC041 08/06 A3019 RMK SC8 SLP224
2001 11 03 14 METAR CYVR 031400Z 35004KT 20SM OVC036 08/06 A3021 RMK SC8 SLP229
2001 11 03 15 METAR CYVR 031500Z 09007KT 20SM SCT040 OVC100 08/06 A3019 RMK SC3AC5 SLP222
2001 11 03 16 METAR CYVR 031600Z 11009KT 20SM BKN040 OVC100 08/06 A3020 RMK SC5AC3 SLP227
2001 11 03 17 METAR CYVR 031700Z 11002KT 20SM BKN039 OVC100 09/06 A3020 RMK SC6AC2 SLP227
2001 11 03 18 METAR CYVR 031800Z 00000KT 20SM OVC041 09/06 A3022 RMK SC8 SLP232
2001 11 03 19 METAR CYVR 031900Z 06003KT 20SM OVC044 10/06 A3021 RMK SC8 SLP230
2001 11 03 20 METAR CYVR 032000Z 08004KT 20SM BKN038 OVC100 10/07 A3020 RMK SC6AC2 SLP225
2001 11 03 21 METAR CYVR 032100Z 10006KT 30SM BKN035 OVC100 11/07 A3019 RMK SC6AC2 SLP222
2001 11 03 22 METAR CYVR 032200Z 12007KT 30SM SCT035 OVC100 11/07 A3016 RMK SC3AC5 SLP214
2001 11 03 23 METAR CYVR 032300Z 16003KT 30SM BKN030 BKN100 OVC180 11/08 A3015 RMK SC5AC2CI2 SLP211
2001 11 04 00 METAR CYVR 040000Z 18004KT 30SM SCT028 BKN100 OVC180 11/08 A3014 RMK SC4AC2CI2 SLP207
2001 11 04 01 METAR CYVR 040100Z 18002KT 30SM FEW017 SCT025 BKN100 BKN180 11/08 A3014 RMK SF1SC3AC2CI2 SLP205
2001 11 04 02 METAR CYVR 040200Z 12002KT 30SM FEW017 FEW025 SCT100 BKN180 10/07 A3013 RMK SF1SC2AC2CI2 SLP204
2001 11 04 03 METAR CYVR 040300Z 14003KT 30SM FEW025 FEW100 BKN160 BKN200 10/07 A3014 RMK SC2AC1AC3CI1 SLP205
2001 11 04 04 METAR CYVR 040400Z 19003KT 30SM FEW025 SCT040 BKN150 BKN200 10/08 A3014 RMK SC1SC2AC2CI2 SLP207
2001 11 04 05 METAR CYVR 040500Z 13005KT 30SM FEW025 SCT040 BKN130 BKN200 10/07 A3012 RMK SC1SC3AC2CI1 SLP200
2001 11 04 06 METAR CYVR 040600Z 14005KT 30SM BKN037 OVC130 10/08 A3012 RMK SC6AC2 SLP199
2001 11 04 07 METAR CYVR 040700Z 11009KT 30SM BKN037 OVC100 09/08 A3012 RMK SC6AC2 SLP198
2001 11 04 08 METAR CYVR 040800Z 11006KT 30SM BKN038 OVC100 09/08 A3011 RMK SC6AC2 SLP197
2001 11 04 09 METAR CYVR 040900Z 10009KT 20SM FEW030 OVC038 10/08 A3010 RMK SC2SC6 SLP192
2001 11 04 10 METAR CYVR 041000Z 10011KT 20SM FEW030 BKN038 OVC048 10/08 A3009 RMK SC2SC5SC2 SLP189
2001 11 04 11 METAR CYVR 041100Z 09009KT 20SM -RA FEW030 OVC041 10/08 A3008 RMK SC2SC6 PCPN VRY LGT SLP186
2001 11 04 12 METAR CYVR 041200Z 10009KT 15SM -RA FEW022 OVC036 10/09 A3008 RMK SF2SC6 SLP184
2001 11 04 13 METAR CYVR 041300Z 11008KT 10SM -RA FEW018 OVC035 10/09 A3007 RMK SF2SC6 SLP182
2001 11 04 14 METAR CYVR 041400Z 13007KT 10SM -RA FEW006 SCT018 OVC034 10/09 A3006 RMK SF2SF2SC4 SLP180
2001 11 04 15 METAR CYVR 041500Z 13011KT 6SM -RA FEW003 OVC010 09/09 A3005 RMK SF2SC6 SLP177
2001 11 04 16 METAR CYVR 041600Z 13009KT 10SM -SHRA FEW003 BKN010 OVC031 09/09 A3006 RMK SF2SF2SC3 SLP179
2001 11 04 17 METAR CYVR 041700Z 13009KT 6SM -SHRA FEW003 BKN010 OVC031 10/09 A3006 RMK SF2SF2SC3 SLP179
2001 11 04 18 METAR CYVR 041800Z 15009KT 3SM -SHRA FEW003 BKN020 OVC046 10/09 A3007 RMK SF2SF4SC2 SLP181
2001 11 04 19 METAR CYVR 041900Z 16005KT 5SM -SHRA FEW003 BKN020 OVC046 10/09 A3007 RMK SF2SF3SC3 TCU EMBDD SLP182
2001 11 04 20 METAR CYVR 042000Z 17007KT 4SM -SHRA FEW003 BKN038 OVC060 10/09 A3006 RMK SF2SC3SC3 SLP180
2001 11 04 21 METAR CYVR 042100Z 15009KT 10SM FEW003 SCT038 OVC058 10/10 A3005 RMK SF2SC2SC4 SLP177
2001 11 04 22 METAR CYVR 042200Z 14007KT 10SM FEW003 SCT038 OVC075 11/10 A3005 RMK SF2SC2AC4 SLP174
2001 11 04 23 METAR CYVR 042300Z 18005KT 12SM FEW005 SCT014 BKN030 BKN075 11/09 A3005 RMK SF1CF2SC3AC1 SLP177
2001 11 05 00 METAR CYVR 050000Z 15005KT 15SM FEW005 SCT014 BKN034 BKN075 10/09 A3006 RMK CF1CF2SC3AC1 SHWRS N-NE SLP179
2001 11 05 01 METAR CYVR 050100Z 17003KT 15SM FEW005 FEW015 SCT040 BKN100 10/09 A3006 RMK CF1CF2SC2AC4 TR CF SHWRS NE SLP179
2001 11 05 02 METAR CYVR 050200Z 14003KT 15SM FEW015 FEW050 SCT100 09/09 A3005 RMK CF1SC1AC2 SLP177
2001 11 05 03 METAR CYVR 050300Z 19002KT 15SM MIFG FEW010 FEW100 07/07 A3006 RMK SF1AC1 TWR RPRTS MIFG BOTH RWYS SLP179
2001 11 05 04 METAR CYVR 050400Z 00000KT 6SM BR SCT003 06/06 A3006 RMK SF2 SLP180
2001 11 05 05 METAR CYVR 050500Z 33004KT 15SM MIFG FEW005 SCT026 BKN240 06/06 A3007 RMK FG1SF1SC1CI2 VSBY NE-S 3NM SLP182
2001 11 05 06 METAR CYVR 050600Z 29008KT 15SM MIFG FEW005 FEW240 07/07 A3007 RMK SF1CI1 TR SF SLP182
2001 11 05 07 METAR CYVR 050700Z 29005KT 20SM FEW005 FEW240 06/05 A3008 RMK SF1CI1 SLP185
2001 11 05 08 METAR CYVR 050800Z 29012KT 20SM FEW005 06/05 A3008 RMK SF1 SLP186
2001 11 05 09 METAR CYVR 050900Z 28008KT 20SM SKC 05/04 A3009 RMK SLP188
2001 11 05 10 METAR CYVR 051000Z 29006KT 20SM SKC 05/03 A3010 RMK SLP192
2001 11 05 11 METAR CYVR 051100Z 28006KT 20SM FEW005 05/03 A3011 RMK SF1 SLP197
2001 11 05 12 METAR CYVR 051200Z 00000KT 20SM FEW005 FEW170 02/02 A3013 RMK SF1AC1 SLP202
2001 11 05 13 METAR CYVR 051300Z 10007KT 3/4SM BR SKC 02/01 A3014 RMK FG4 SLP206
2001 11 05 14 METAR CYVR 051400Z 09007KT 3/4SM BR BKN150 01/01 A3015 RMK FG6AC1 SLP210
2001 11 05 15 METAR CYVR 051500Z 08007KT 30SM FEW008 FEW015 BKN075 BKN150 03/02 A3016 RMK SF1SF1AC3AC2 SLP212
2001 11 05 16 METAR CYVR 051600Z 08010KT 8SM -SHRA FEW008 SCT015 BKN060 OVC150 04/04 A3019 RMK SF2SF2SC3AC1 TCU EMBDD VSBY E-SE 21/2 SLP223
2001 11 05 17 METAR CYVR 051700Z 10006KT 10SM -SHRA FEW008 FEW015 BKN032 BKN060 OVC150 05/05 A3021 RMK SF1SF1SC4SC2AC1 SLP229
2001 11 05 18 METAR CYVR 051800Z 10009KT 10SM -SHRA FEW008 FEW015 SCT030 BKN052 BKN150 07/06 A3022 RMK CF1CF1SC2SC3AC1 TCU EMBDD SLP232
2001 11 05 19 METAR CYVR 051900Z 09008KT 15SM FEW010 SCT018 BKN052 BKN075 08/06 A3023 RMK CF2CU2SC3AC1 SLP236
2001 11 05 20 METAR CYVR 052000Z 12011KT 15SM -SHRA FEW010 SCT020 BKN050 BKN070 07/06 A3023 RMK CF1CU3SC2AC2 TCU EMBDD VSBY AND CIG LWR NE-SE SLP235
2001 11 05 21 METAR CYVR 052100Z 08007KT 20SM FEW015 SCT025CB BKN120 08/07 A3023 RMK CF1CB2AC2 SHWRS E SLP236
2001 11 05 22 METAR CYVR 052200Z 09005KT 20SM FEW015 SCT025 08/06 A3023 RMK CF1CU2 TCU ASCTD SHWRS E SLP237
2001 11 05 23 METAR CYVR 052300Z 09006KT 20SM FEW012 SCT025 BKN250 08/06 A3024 RMK CF1CU2CI1 TCU SLP240
2001 11 06 00 METAR CYVR 060000Z 09009KT 20SM FEW012 FEW025 SCT110 BKN250 07/05 A3024 RMK CF1CU2AC1CI1 TCU E SLP241
2001 11 06 01 METAR CYVR 060100Z 10010KT 20SM FEW025 BKN110 BKN150 BKN250 06/05 A3025 RMK CU1AC4AC1CI1 SLP242
2001 11 06 02 METAR CYVR 060200Z 11007KT 20SM FEW025 SCT110 BKN150 06/04 A3025 RMK SC1AC2AC2 SLP242
2001 11 06 03 METAR CYVR 060300Z 09009KT 20SM FEW020 BKN110 BKN150 BKN250 06/04 A3023 RMK SC1AC4AC1CI1 SLP238
2001 11 06 04 METAR CYVR 060400Z 11009KT 15SM FEW020 BKN100 BKN250 06/04 A3023 RMK SC2AC4CI1 SLP238
2001 11 06 05 METAR CYVR 060500Z 10009KT 15SM FEW020 BKN100 BKN250 06/04 A3022 RMK SC2AC4CI1 VIRGA SLP234
2001 11 06 06 METAR CYVR 060600Z 11007KT 15SM FEW070 BKN100 BKN250 06/04 A3021 RMK AC2AC4CI1 VIRGA SLP231
2001 11 06 07 METAR CYVR 060700Z 11009KT 20SM FEW025 SCT042 BKN070 OVC110 06/04 A3020 RMK CF2SC2AC2AC2 SLP227
2001 11 06 08 METAR CYVR 060800Z 12004KT 20SM BKN023 BKN045 OVC070 06/04 A3019 RMK SC5SC2AC2 SLP223
2001 11 06 09 METAR CYVR 060900Z 11009KT 20SM BKN021 BKN040 OVC070 06/04 A3018 RMK SC5SC2AC2 SLP219
2001 11 06 10 METAR CYVR 061000Z 10007KT 20SM SCT022 BKN040 OVC070 06/04 A3016 RMK SC3SC2AC2 SLP213
2001 11 06 11 METAR CYVR 061100Z 09005KT 20SM SCT023 BKN043 OVC070 05/04 A3015 RMK SC4SC2AC2 SLP210
2001 11 06 12 METAR CYVR 061200Z 10007KT 20SM FEW025 SCT045 BKN075 BKN240 05/04 A3013 RMK SC2SC2AC2CI0 SLP203
2001 11 06 13 METAR CYVR 061300Z 11006KT 20SM SCT031 BKN073 BKN240 05/04 A3013 RMK SC3AC2CI0 SLP201
2001 11 06 14 METAR CYVR 061400Z 11007KT 20SM FEW032 BKN071 BKN240 05/04 A3012 RMK SC2AC2CI0 SLP199
2001 11 06 15 METAR CYVR 061500Z 11006KT 30SM FEW015 SCT032 BKN071 OVC240 05/03 A3012 RMK CF1SC2AC2CI0 SLP199
2001 11 06 16 METAR CYVR 061600Z 10003KT 30SM FEW015 SCT032 BKN071 OVC240 04/03 A3013 RMK CF1SC3AC1CI2 SLP204
2001 11 06 17 METAR CYVR 061700Z 10002KT 30SM FEW015 SCT032 BKN200 06/05 A3014 RMK CF1SC2CI2 SLP207
2001 11 06 18 METAR CYVR 061800Z 13002KT 30SM FEW015 FEW032 FEW080 SCT200 08/05 A3014 RMK CF1CU2AC1CI0 SLP207
2001 11 06 19 METAR CYVR 061900Z 24004KT 30SM FEW032TCU FEW140 SCT200 09/05 A3015 RMK TCU2AC1CI0 SLP210
2001 11 06 20 METAR CYVR 062000Z 25004KT 30SM FEW032 FEW140 SCT200 08/05 A3015 RMK CU2AC1CI1 TCU ASCTD VIRGA S SLP209
2001 11 06 21 METAR CYVR 062100Z 22007G15KT 30SM FEW032 FEW140 FEW200 10/05 A3015 RMK CU1AC1CI1 SLP210
2001 11 06 22 METAR CYVR 062200Z 23006KT 30SM FEW032 FEW140 FEW200 10/04 A3016 RMK CU2AC1CI1 SLP214
2001 11 06 23 METAR CYVR 062300Z 14006KT 30SM FEW032 FEW120 10/03 A3018 RMK CU2AC1 SLP218
2001 11 07 00 METAR CYVR 070000Z 15004KT 30SM FEW035 SCT060 BKN100 BKN200 09/03 A3020 RMK CU2SC1AC2CI1 TCU ASCTD SLP226
2001 11 07 01 METAR CYVR 070100Z 13006KT 30SM FEW035 BKN072 BKN100 BKN200 08/04 A3021 RMK CU2AC4AC1CI1 SLP231
2001 11 07 02 METAR CYVR 070200Z 09005KT 30SM FEW040 BKN062 BKN100 07/05 A3023 RMK SC1SC5AC2 SLP238
2001 11 07 03 METAR CYVR 070300Z CCA 10006KT 30SM -SHRA FEW030 BKN056 BKN100 08/05 A3025 RMK SC1SC4AC2 SLP244
2001 11 07 04 METAR CYVR 070400Z 10007KT 30SM -SHRA FEW030 BKN048 BKN082 07/06 A3027 RMK SC1SC4AC2 SHRA VERY LGT SLP250
2001 11 07 05 METAR CYVR 070500Z 08007KT 20SM -SHRA FEW025 BKN038 BKN080 07/05 A3029 RMK SC1SC4AC2 SLP257
2001 11 07 06 METAR CYVR 070600Z 09009KT 10SM -SHRA FEW025 BKN040 BKN080 07/06 A3031 RMK SC1SC4AC2 SLP262
2001 11 07 07 METAR CYVR 070700Z 09008KT 15SM FEW025 BKN043 07/06 A3032 RMK SF1SC6 SLP266
2001 11 07 08 METAR CYVR 070800Z 10007KT 15SM SCT025 BKN045 06/05 A3033 RMK SC3SC3 SLP271
2001 11 07 09 METAR CYVR 070900Z 09005KT 15SM FEW025 SCT040 BKN072 BKN180 06/04 A3035 RMK SC2SC2AC2CI0 SLP277
2001 11 07 10 METAR CYVR 071000Z 09004KT 15SM SCT025 BKN040 OVC070 06/05 A3036 RMK SC3SC3AC2 SLP282
2001 11 07 11 METAR CYVR 071100Z 09009KT 15SM FEW025 SCT040 BKN070 BKN120 06/05 A3038 RMK SC2SC2AC2AC2 SLP286
2001 11 07 12 METAR CYVR 071200Z 09009KT 15SM FEW025 FEW040 SCT070 OVC120 06/05 A3037 RMK SC1SC2AC2AC3 SLP284
2001 11 07 13 METAR CYVR 071300Z 10007KT 15SM FEW025 FEW040 BKN070 OVC120 07/05 A3039 RMK SC1SC2AC2AC2 SLP291
2001 11 07 14 METAR CYVR 071400Z 10008KT 15SM FEW025 FEW040 OVC090 06/04 A3039 RMK SC1SC2AC5 SLP291
2001 11 07 15 METAR CYVR 071500Z 09006KT 20SM FEW025 FEW050 SCT088 BKN120 BKN220 06/04 A3041 RMK SC1SC1AC2AC1CI1 SLP297
2001 11 07 16 METAR CYVR 071600Z 08004KT 20SM FEW025 FEW050 SCT072 BKN100 BKN220 06/04 A3043 RMK SC1SC1AC2AC1CI1 SLP305
2001 11 07 17 METAR CYVR 071700Z 09008KT 20SM FEW025 FEW050 FEW072 SCT088 SCT100 BKN220 09/06 A3042 RMK SC1SC1AC1AC1AC1CI2 SLP301
2001 11 07 18 METAR CYVR 071800Z 11006KT 20SM FEW025 SCT080 SCT200 BKN240 10/06 A3044 RMK SC1AC2CI1CI1 SLP307
2001 11 07 19 METAR CYVR 071900Z 11011KT 20SM FEW015 FEW030 FEW070 FEW080 SCT200 BKN240 11/05 A3043 RMK CF1SC1AC1AC1CI1CI2 TR CF. SLP305
2001 11 07 20 METAR CYVR 072000Z 11011G16KT 20SM FEW015 FEW035 FEW080 BKN240 11/05 A3041 RMK CF1CU1AC1CI2 SLP298
2001 11 07 21 METAR CYVR 072100Z 11013KT 30SM FEW035 FEW080 FEW200 BKN240 12/04 A3039 RMK CU1AC1CI1CI2 SLP289
2001 11 07 22 METAR CYVR 072200Z 10008KT 30SM FEW035 FEW080 FEW200 SCT240 12/04 A3038 RMK CU1AC1CI1CI1 SLP286
2001 11 07 23 METAR CYVR 072300Z 05004KT 30SM FEW035 FEW080 BKN200 12/04 A3038 RMK SC1AC2CI1 TR SC SLP286
2001 11 08 00 METAR CYVR 080000Z 09004KT 30SM FEW080 BKN200 11/03 A3036 RMK AC2CI1 SLP281
2001 11 08 01 METAR CYVR 080100Z 04005KT 30SM FEW080 BKN140 BKN200 10/04 A3036 RMK AC2AC3CI0 SLP282
2001 11 08 02 METAR CYVR 080200Z 07005KT 30SM BKN100 OVC140 10/04 A3036 RMK AC6AC2 SLP282
2001 11 08 03 METAR CYVR 080300Z 08007KT 30SM BKN095 BKN140 OVC200 09/04 A3036 RMK AC5AC2CI1 SLP282
2001 11 08 04 METAR CYVR 080400Z 10007KT 30SM SCT100 OVC250 08/04 A3035 RMK AC3CI5 SLP278
2001 11 08 05 METAR CYVR 080500Z 10006KT 30SM FEW110 SCT140 BKN250 07/04 A3036 RMK AC2AC2CI2 SLP279
2001 11 08 06 METAR CYVR 080600Z 11005KT 30SM FEW100 BKN170 BKN250 07/04 A3036 RMK AC1AC4CI2 SLP282
2001 11 08 07 METAR CYVR 080700Z 10004KT 30SM FEW100 BKN180 BKN250 07/04 A3037 RMK AC1AC5CI1 SLP283
2001 11 08 08 METAR CYVR 080800Z 10002KT 30SM FEW100 BKN120 06/03 A3037 RMK AC2AC5 SLP283
2001 11 08 09 METAR CYVR 080900Z 09003KT 30SM FEW100 BKN170 06/04 A3037 RMK AC1AC6 SLP284
2001 11 08 10 METAR CYVR 081000Z 09002KT 30SM FEW100 BKN160 06/03 A3037 RMK AC1AC6 SLP285
2001 11 08 11 METAR CYVR 081100Z 08004KT 30SM BKN160 BKN250 06/04 A3036 RMK AC6CI1 SLP282
2001 11 08 12 METAR CYVR 081200Z 10005KT 25SM BKN170 OVC250 07/04 A3034 RMK AC6CI2 SLP274
2001 11 08 13 METAR CYVR 081300Z 10006KT 25SM BKN170 OVC250 06/04 A3032 RMK AC6CI2 SLP266
2001 11 08 14 METAR CYVR 081400Z 10004KT 30SM BKN170 BKN220 06/03 A3031 RMK AC6CI0 SLP265
2001 11 08 15 METAR CYVR 081500Z 36002KT 30SM BKN190 BKN220 05/02 A3029 RMK AC5CI1 SLP258
2001 11 08 16 METAR CYVR 081600Z 00000KT 30SM BKN180 BKN230 06/03 A3030 RMK AC5CI2 SLP260
2001 11 08 17 METAR CYVR 081700Z 19002KT 30SM BKN180 OVC230 07/04 A3029 RMK AC6CI2 SLP257
2001 11 08 18 METAR CYVR 081800Z 19002KT 30SM BKN180 OVC230 07/04 A3029 RMK AC6CI2 SLP256
2001 11 08 19 METAR CYVR 081900Z 00000KT 30SM BKN180 OVC230 09/04 A3028 RMK AC6CI2 VIRGA ALQDS. SLP253
2001 11 08 20 METAR CYVR 082000Z 00000KT 30SM BKN180 BKN200 OVC230 10/05 A3026 RMK AC6CI2CI1 VIRGA ALQDS. SLP247
2001 11 08 21 METAR CYVR 082100Z 10003KT 30SM BKN190 OVC230 10/05 A3023 RMK AC6CI1 VIRGA. SLP237
2001 11 08 22 METAR CYVR 082200Z 00000KT 30SM BKN190 OVC230 10/05 A3022 RMK AC6CI1 VIRGA. SLP233
2001 11 08 23 METAR CYVR 082300Z 31002KT 30SM BKN190 BKN250 10/06 A3021 RMK AC6CI2 SLP231
2001 11 09 00 METAR CYVR 090000Z 05002KT 30SM BKN190 BKN250 09/05 A3021 RMK AC6CI2 VIRGA SLP229
2001 11 09 01 METAR CYVR 090100Z 12005KT 30SM BKN190 BKN250 09/05 A3020 RMK AC6CI2 SLP227
2001 11 09 02 METAR CYVR 090200Z 21006KT 30SM BKN200 BKN250 08/05 A3020 RMK AC5CI2 SLP226
2001 11 09 03 METAR CYVR 090300Z 13006KT 30SM SCT130 BKN210 08/04 A3019 RMK AC3CI1 SLP224
2001 11 09 04 METAR CYVR 090400Z 09006KT 30SM FEW120 BKN170 OVC240 07/04 A3018 RMK AC2AC3CI1 SLP219
2001 11 09 05 METAR CYVR 090500Z 11009KT 30SM BKN083 OVC150 08/05 A3017 RMK AC6AC2 SLP215
2001 11 09 06 METAR CYVR 090600Z 12005KT 20SM BKN073 OVC120 08/05 A3018 RMK AC6AC2 SLP218
2001 11 09 07 METAR CYVR 090700Z 10007KT 20SM BKN068 OVC100 08/05 A3017 RMK AC6AC2 SLP216
2001 11 09 08 METAR CYVR 090800Z 09005KT 20SM BKN063 OVC100 09/05 A3016 RMK SC6AC2 SLP213
2001 11 09 09 METAR CYVR 090900Z 09005KT 20SM FEW055 BKN063 OVC100 09/05 A3016 RMK SC2SC5AC2 SLP212
2001 11 09 10 METAR CYVR 091000Z 11005KT 20SM FEW055 BKN065 OVC090 09/05 A3015 RMK SC2SC4AC2 SLP208
2001 11 09 11 METAR CYVR 091100Z 14003KT 20SM FEW055 BKN065 OVC085 09/05 A3014 RMK SC2SC2AC3 SLP207
2001 11 09 12 METAR CYVR 091200Z 16003KT 20SM SCT055 BKN085 BKN100 08/05 A3014 RMK SC3AC2AC2 SLP205
2001 11 09 13 METAR CYVR 091300Z 35003KT 20SM BKN055 BKN085 08/05 A3014 RMK SC5AC2 SLP205
2001 11 09 14 METAR CYVR 091400Z 00000KT 20SM BKN055 BKN085 BKN120 08/05 A3013 RMK SC5AC1AC1 SLP202
2001 11 09 15 METAR CYVR 091500Z 18002KT 20SM FEW055 BKN120 07/05 A3013 RMK SC2AC2 SLP204
2001 11 09 16 METAR CYVR 091600Z 14002KT 20SM SCT085 BKN210 07/04 A3013 RMK AC2CI2 SLP201
2001 11 09 17 METAR CYVR 091700Z 00000KT 30SM FEW060 SCT120 BKN210 08/05 A3013 RMK SC2AC2CI1 SLP204
2001 11 09 18 METAR CYVR 091800Z 11006KT 30SM FEW060 SCT120 BKN210 09/05 A3013 RMK SC2AC2CI0 SLP204
2001 11 09 19 METAR CYVR 091900Z 12005KT 30SM FEW060 BKN210 11/05 A3013 RMK SC2CI1 SLP201
2001 11 09 20 METAR CYVR 092000Z 24004KT 30SM FEW060 BKN210 13/05 A3011 RMK SC1CI1 SLP196
2001 11 09 21 METAR CYVR 092100Z 25005KT 30SM FEW060 BKN210 10/07 A3010 RMK SC1CI1 SLP191
2001 11 09 22 METAR CYVR 092200Z 28004KT 30SM FEW060 BKN210 10/06 A3008 RMK SC1CI1 SLP187
2001 11 09 23 METAR CYVR 092300Z 28004KT 30SM FEW150 BKN240 11/05 A3007 RMK AC1CI1 SLP182
2001 11 10 00 METAR CYVR 100000Z 27004KT 30SM FEW150 BKN240 10/05 A3007 RMK AC1CI1 SLP181
2001 11 10 01 METAR CYVR 100100Z 24004KT 30SM FEW150 BKN240 09/05 A3006 RMK AC1CI0 SLP178
2001 11 10 02 METAR CYVR 100200Z 10002KT 30SM SCT240 08/04 A3005 RMK CI0 SLP175
2001 11 10 03 METAR CYVR 100300Z 10003KT 30SM FEW240 07/02 A3005 RMK CI0 SLP176
2001 11 10 04 METAR CYVR 100400Z 00000KT 30SM FEW240 07/03 A3005 RMK CI0 SLP176
2001 11 10 05 METAR CYVR 100500Z 09004KT 30SM SKC 06/02 A3005 RMK SLP177
2001 11 10 06 METAR CYVR 100600Z 14003KT 30SM SKC 06/03 A3005 RMK HZ OVR CITY N SLP175
2001 11 10 07 METAR CYVR 100700Z 11002KT 30SM SKC 06/04 A3005 RMK SLP174
2001 11 10 08 METAR CYVR 100800Z 04002KT 20SM FEW240 03/01 A3004 RMK CI0 SLP173
2001 11 10 09 METAR CYVR 100900Z 00000KT 20SM FEW240 05/03 A3004 RMK CI0 SLP172
2001 11 10 10 METAR CYVR 101000Z 18002KT 20SM FEW240 05/03 A3005 RMK CI0 SLP174
2001 11 10 11 METAR CYVR 101100Z 04002KT 20SM SKC 03/02 A3003 RMK SLP170
2001 11 10 12 METAR CYVR 101200Z 15002KT 20SM FEW240 04/03 A3003 RMK CI0 SLP168
2001 11 10 13 METAR CYVR 101300Z 00000KT 20SM SCT240 03/02 A3002 RMK CI1 SLP164
2001 11 10 14 METAR CYVR 101400Z 10002KT 20SM BKN240 02/01 A3001 RMK CI2 SLP162
2001 11 10 15 METAR CYVR 101500Z 10003KT 20SM BKN240 03/02 A3001 RMK CI3 SLP162
2001 11 10 16 METAR CYVR 101600Z 04002KT 20SM FEW140 BKN240 04/02 A3002 RMK AC2CI3 SLP166
2001 11 10 17 METAR CYVR 101700Z 19004KT 30SM FEW140 BKN240 06/04 A3002 RMK AC2CI2 SLP165
2001 11 10 18 METAR CYVR 101800Z 18002KT 30SM FEW140 BKN240 09/06 A3002 RMK AC2CI2 SLP167
2001 11 10 19 METAR CYVR 101900Z 21003KT 30SM FEW140 BKN240 11/07 A3002 RMK AC2CI3 SLP164
2001 11 10 20 METAR CYVR 102000Z 18003KT 30SM SCT100 SCT140 BKN240 10/06 A3000 RMK AC3AC1CI1 SLP157
2001 11 10 21 METAR CYVR 102100Z 22003KT 30SM SCT100 BKN240 12/07 A2998 RMK AC4CI2 SLP151
2001 11 10 22 METAR CYVR 102200Z 23005KT 30SM BKN090 BKN240 11/05 A2997 RMK AC6CI2 SLP149
2001 11 10 23 METAR CYVR 102300Z 22005KT 30SM BKN090 BKN120 10/06 A2997 RMK AC6AC2 ACC ASOCTD VIRGA SW-NW SLP147
2001 11 11 00 METAR CYVR 110000Z 00000KT 30SM BKN094 BKN130 09/06 A2997 RMK AC6AC2 ACC ASOCTD VIRGA NW SLP148
2001 11 11 01 METAR CYVR 110100Z 09002KT 30SM BKN100 BKN130 10/04 A2995 RMK AC6AC1 SLP143
2001 11 11 02 METAR CYVR 110200Z 32003KT 30SM SCT100 BKN130 10/06 A2995 RMK AC4AC3 SLP140
2001 11 11 03 METAR CYVR 110300Z 33002KT 30SM BKN098 BKN130 08/06 A2995 RMK AC6AC2 SLP142
2001 11 11 04 METAR CYVR 110400Z 01002KT 30SM BKN095 BKN120 09/05 A2995 RMK AC6AC1 SLP141
2001 11 11 05 METAR CYVR 110500Z 04002KT 30SM BKN100 BKN130 BKN220 09/05 A2995 RMK AC5AC2CI1 SLP140
2001 11 11 06 METAR CYVR 110600Z 30004KT 30SM BKN096 OVC120 09/06 A2994 RMK AC6AC2 SLP137
2001 11 11 07 METAR CYVR 110700Z 00000KT 30SM BKN095 BKN130 BKN220 08/06 A2993 RMK AC5AC2CI1 SLP135
2001 11 11 08 METAR CYVR 110800Z 00000KT 20SM SCT090 BKN120 BKN220 09/06 A2992 RMK AC3AC3CI1 SLP132
2001 11 11 09 METAR CYVR 110900Z 03005KT 20SM SCT090 BKN120 BKN240 08/06 A2990 RMK AC3AC2CI1 SLP125
2001 11 11 10 METAR CYVR 111000Z 19002KT 20SM FEW060 BKN095 OVC120 08/06 A2990 RMK SC2AC4AC2 SLP124
2001 11 11 11 METAR CYVR 111100Z 36004KT 15SM -SHRA FEW060 BKN082 OVC110 08/07 A2990 RMK SC2AC5AC2 SHWRS VRY LGT SLP124
2001 11 11 12 METAR CYVR 111200Z 08005KT 15SM FEW058 BKN080 OVC120 08/07 A2985 RMK SC2AC3AC3 SLP109
2001 11 11 13 METAR CYVR 111300Z 26007KT 15SM FEW060 BKN085 OVC110 09/07 A2986 RMK SC2AC5AC2 OCNL RW- SLP112
2001 11 11 14 METAR CYVR 111400Z 31003KT 15SM -SHRA FEW060 BKN086 BKN110 OVC240 10/07 A2984 RMK SC1AC4AC2CI0 SHWRS VRY LGT SLP104
2001 11 11 15 METAR CYVR 111500Z 21002KT 15SM -SHRA FEW060 BKN086 OVC140 10/08 A2982 RMK SC1AC4AC3 SLP096
2001 11 11 16 METAR CYVR 111600Z 14003KT 20SM FEW060 BKN110 OVC140 10/08 A2982 RMK SC1AC4AC2 ACC ASCOTD SHWRS ALQDS SLP099
2001 11 11 17 METAR CYVR 111700Z 27007KT 20SM FEW080 BKN110 OVC240 10/08 A2984 RMK AC2AS2CI1 HZ SLP103
2001 11 11 18 METAR CYVR 111800Z 30006KT 20SM FEW080 BKN110 OVC240 11/09 A2983 RMK AC2AS3CI2 HZ SLP102
2001 11 11 19 METAR CYVR 111900Z 30007KT 20SM FEW080 BKN095 OVC140 10/09 A2983 RMK AC2AC3AS3 VIRGA SLP101
2001 11 11 20 METAR CYVR 112000Z 32004KT 15SM BKN080 OVC096 10/09 A2982 RMK AC5AS3 PTCHY FG SW-NW HZ VIRGA SLP096
2001 11 11 21 METAR CYVR 112100Z 20003KT 15SM BKN080 OVC095 11/09 A2980 RMK AC6AS2 HZ VIRGA SLP090
2001 11 11 22 METAR CYVR 112200Z 31002KT 12SM BKN081 OVC095 10/09 A2979 RMK AC6AS2 HZ SLP088
2001 11 11 23 METAR CYVR 112300Z 29003KT 12SM BKN081 OVC095 11/09 A2977 RMK AC6AS2 VIRGA SLP082
2001 11 12 00 METAR CYVR 120000Z 26003KT 10SM -RA FEW065 OVC078 10/09 A2979 RMK SC2AC6 SLP087
2001 11 12 01 METAR CYVR 120100Z 06007KT 6SM -RA BR FEW020 OVC060 10/09 A2981 RMK SF2SC6 SLP093
2001 11 12 02 METAR CYVR 120200Z 08009KT 6SM -RA BR FEW020 BKN060 OVC073 11/09 A2981 RMK SF2SC4AC2 SLP095
2001 11 12 03 METAR CYVR 120300Z 06012KT 6SM -RA BR FEW020 BKN058 OVC080 12/09 A2980 RMK SF2SC4AC2 SLP092
2001 11 12 04 METAR CYVR 120400Z 07008KT 15SM FEW050 BKN072 OVC120 12/09 A2979 RMK SC2AC3AC2 SLP088
2001 11 12 05 METAR CYVR 120500Z 09003KT 15SM -RA FEW050 BKN070 OVC120 11/10 A2980 RMK SC2AC4AC2 SLP091
2001 11 12 06 METAR CYVR 120600Z 07006KT 15SM -RA FEW055 OVC070 11/10 A2979 RMK SC2AC6 SLP087
2001 11 12 07 METAR CYVR 120700Z 09009KT 15SM -RA FEW055 OVC075 11/10 A2979 RMK SC2AC6 SLP086
2001 11 12 08 METAR CYVR 120800Z 11008KT 15SM -RA FEW050 OVC078 11/10 A2979 RMK SC2AC6 SLP086
2001 11 12 09 METAR CYVR 120900Z 11008KT 8SM -RA FEW050 OVC074 11/10 A2978 RMK SC2AC6 SLP085
2001 11 12 10 METAR CYVR 121000Z 12006KT 15SM -RA FEW045 BKN075 OVC100 11/10 A2977 RMK SC2AC5AC2 SLP082
2001 11 12 11 METAR CYVR 121100Z 12007KT 15SM -RA FEW040 BKN072 OVC100 11/10 A2976 RMK SC2AC5AC2 PCPN VRY LGT SLP078
2001 11 12 12 METAR CYVR 121200Z 08008KT 10SM -RA SCT040 BKN072 OVC090 11/10 A2974 RMK SC3AC3AC2 SLP072
2001 11 12 13 METAR CYVR 121300Z 12006KT 15SM -RA FEW040 BKN072 OVC090 11/10 A2974 RMK SC2AC4AC2 SLP069
2001 11 12 14 METAR CYVR 121400Z 11006KT 8SM -RA FEW038 BKN060 OVC076 11/10 A2972 RMK SC2SC3AC2 SLP065
2001 11 12 15 METAR CYVR 121500Z 09008KT 8SM -RA FEW038 BKN060 OVC076 11/10 A2971 RMK SC2SC3AC3 SLP062
2001 11 12 16 METAR CYVR 121600Z CCA 11008KT 20SM -RA FEW040 FEW065 BKN080 OVC094 11/11 A2971 RMK SF1SC2AC2AC3 VSBY LWR W SLP061
2001 11 12 17 METAR CYVR 121700Z 09009KT 10SM -RA FEW040 SCT065 BKN080 OVC096 11/11 A2970 RMK SF2SC2AC3AC2 SLP058
2001 11 12 18 METAR CYVR 121800Z 12006KT 20SM FEW030 FEW045 BKN072 OVC095 12/11 A2971 RMK SF1SF2AC2AC3 SLP059
2001 11 12 19 METAR CYVR 121900Z 09013KT 10SM -RA FEW030 SCT056 BKN071 OVC110 13/11 A2970 RMK SF2SC2AC2AC2 SLP058
2001 11 12 20 METAR CYVR 122000Z 13008G16KT 15SM FEW020 BKN037 BKN078 OVC100 14/11 A2971 RMK SF1SC4AC2AC2 SLP062
2001 11 12 21 METAR CYVR 122100Z 14006KT 20SM BKN030 BKN050 OVC070 13/11 A2970 RMK SC5SC2AC2 SLP057
2001 11 12 22 METAR CYVR 122200Z 14007KT 20SM BKN032 BKN055 OVC080 14/11 A2968 RMK SC5SC2AC2 SLP051
2001 11 12 23 METAR CYVR 122300Z 10008KT 20SM -SHRA SCT042 BKN110 OVC130 14/11 A2966 RMK SC3AC2AC2 SLP044
2001 11 13 00 METAR CYVR 130000Z 19003KT 20SM BKN041 BKN110 OVC150 14/11 A2968 RMK SC6AC2AC1 SLP049
2001 11 13 01 METAR CYVR 130100Z 19004KT 20SM SCT040 OVC100 12/11 A2968 RMK SC4AC4 SLP051
2001 11 13 02 METAR CYVR 130200Z 14003KT 20SM FEW040 SCT090 OVC190 11/10 A2967 RMK SC2AC2AC3 SLP046
2001 11 13 03 METAR CYVR 130300Z 09007KT 20SM BKN062 OVC090 11/10 A2968 RMK SC6AC2 SLP049
2001 11 13 04 METAR CYVR 130400Z 13005KT 20SM SCT060 OVC091 13/10 A2967 RMK SC4AC4 SLP046
2001 11 13 05 METAR CYVR 130500Z 10004KT 20SM FEW052 BKN094 OVC150 12/10 A2969 RMK SC2AC3AC2 SLP055
2001 11 13 06 METAR CYVR 130600Z 09006KT 20SM FEW050 SCT090 OVC170 11/10 A2969 RMK SC2AC2AC5 SLP054
2001 11 13 07 METAR CYVR 130700Z 09005KT 30SM FEW040 FEW090 BKN170 10/09 A2969 RMK SC1AC2AC3 SLP054
2001 11 13 08 METAR CYVR 130800Z 12006KT 30SM FEW035 BKN054 BKN150 11/09 A2970 RMK SF2SC3AC2 SLP057
2001 11 13 09 METAR CYVR 130900Z 10006KT 30SM FEW020 SCT046 BKN085 11/09 A2969 RMK SF2SC2AC2 SLP054
2001 11 13 10 METAR CYVR 131000Z 12005KT 30SM FEW020 SCT045 BKN070 BKN090 12/10 A2970 RMK SF2SC2AC1AC1 SLP058
2001 11 13 11 METAR CYVR 131100Z 11006KT 30SM FEW016 BKN040 OVC075 12/10 A2971 RMK SF2SC3AC2 SLP061
2001 11 13 12 METAR CYVR 131200Z 11008KT 30SM FEW018 BKN045 OVC082 11/10 A2970 RMK SF2SC4AC2 SLP056
2001 11 13 13 METAR CYVR 131300Z 11007KT 20SM BKN019 OVC045 11/10 A2970 RMK SC5SC3 SLP058
2001 11 13 14 METAR CYVR 131400Z 09008KT 20SM BKN019 BKN045 OVC084 11/10 A2969 RMK SC5SC2AC1 SLP054
2001 11 13 15 METAR CYVR 131500Z 09014KT 30SM FEW020 BKN079 BKN140 11/09 A2967 RMK SC2AC5AC1 SLP046
2001 11 13 16 METAR CYVR 131600Z 11011G16KT 30SM FEW020 FEW040 BKN079 BKN140 12/10 A2967 RMK SC2SC1AC4AC1 SLP047
2001 11 13 17 METAR CYVR 131700Z 11010KT 30SM FEW018 SCT042 BKN079 OVC140 12/10 A2966 RMK SC2SC2AC4AC1 SLP045
2001 11 13 18 METAR CYVR 131800Z 11016G21KT 20SM FEW015 BKN022 OVC079 12/09 A2966 RMK SF1SC6AC2 SLP043
2001 11 13 19 METAR CYVR 131900Z 14019G25KT 20SM FEW015 BKN024 OVC079 12/09 A2966 RMK SF1SC6AC2 SLP044
2001 11 13 20 METAR CYVR 132000Z 13017KT 10SM -RA FEW015 SCT024 OVC065 11/08 A2963 RMK SF1SC2SC5 SLP035
2001 11 13 21 METAR CYVR 132100Z 13020KT 10SM FEW015 SCT025 BKN053 OVC063 11/09 A2962 RMK SF1SC2SC3SC2 SLP029
2001 11 13 22 METAR CYVR 132200Z 10018G24KT 4SM -RA BR FEW015 FEW030 BKN036 OVC060 10/09 A2958 RMK SF1SF1SC4SC2 PRESFR. SLP017
2001 11 13 23 METAR CYVR 132300Z 08015KT 4SM -RA BR FEW012 BKN026 OVC040 10/08 A2956 RMK SF2SF4SC2 SLP008
2001 11 14 00 METAR CYVR 140000Z 09012G18KT 5SM -RA BR FEW012 BKN030 OVC040 10/08 A2953 RMK SF2SF4SC2 SLP999
2001 11 14 01 METAR CYVR 140100Z 10016G24KT 5SM -RA BR FEW012 BKN028 OVC040 09/08 A2951 RMK SF2SF4SC2 SLP994
2001 11 14 02 METAR CYVR 140200Z 10015G20KT 4SM -RA BR SCT013 OVC025 09/08 A2951 RMK SF3SF5 SLP992
2001 11 14 03 METAR CYVR 140300Z 10011KT 3SM -RA BR FEW008 BKN013 OVC020 09/09 A2953 RMK SF2SF4SC2 SLP999
2001 11 14 04 METAR CYVR 140400Z 15018KT 5SM -RA BR FEW008 SCT013 BKN020 OVC085 11/10 A2955 RMK SF2SF2SC2AC2 SLP005
2001 11 14 05 METAR CYVR 140500Z 14012G17KT 8SM -RA FEW015 SCT040 OVC080 11/10 A2957 RMK SF2SC2AC4 SLP013
2001 11 14 06 METAR CYVR 140600Z 14010KT 8SM FEW010 SCT045 OVC085 11/10 A2958 RMK SF2SC2AC5 SLP017
2001 11 14 07 METAR CYVR 140700Z 12009KT 10SM FEW010 SCT040 OVC075 11/10 A2959 RMK SF2SC2AC5 SLP019
2001 11 14 08 METAR CYVR 140800Z 12009KT 10SM FEW010 BKN053 OVC080 11/10 A2961 RMK SF2SC3AC3 SLP026
2001 11 14 09 METAR CYVR 140900Z 13010KT 10SM -RA FEW010 SCT060 OVC075 11/10 A2961 RMK SF2SC2AC4 VRY LGT R SLP028
2001 11 14 10 METAR CYVR 141000Z 13006KT 10SM -RA FEW008 BKN055 OVC080 11/10 A2962 RMK SF1SC5AC2 SLP030
2001 11 14 11 METAR CYVR 141100Z 13007KT 6SM -RA BR FEW008 SCT030 BKN050 OVC075 11/10 A2964 RMK SF2SC2SC3AC2 SLP037
2001 11 14 12 METAR CYVR 141200Z 13006KT 6SM -RA BR FEW006 SCT030 BKN046 OVC060 11/10 A2965 RMK SF2SC2SC3SC2 SLP040
2001 11 14 13 METAR CYVR 141300Z 15006KT 6SM -RA BR FEW006 FEW025 BKN052 OVC080 11/10 A2967 RMK SF2SC1SC4AC2 SLP046
2001 11 14 14 METAR CYVR 141400Z 15007KT 5SM -RA BR FEW006 FEW025 BKN055 OVC080 11/10 A2969 RMK SF2SC1SC4AC2 SLP053
2001 11 14 15 METAR CYVR 141500Z 13011KT 5SM -RA BR FEW006 FEW025 BKN050 BKN080 11/10 A2969 RMK SF2SC1SC4AC1 SLP055
2001 11 14 16 METAR CYVR 141600Z 14008KT 5SM -RA BR FEW006 FEW025 BKN059 11/10 A2972 RMK SF2SC1SC5 VSBY SW-W 15 SLP064
2001 11 14 17 METAR CYVR 141700Z 13008KT 10SM -RA FEW006 BKN060 BKN085 11/09 A2973 RMK SF2SC3AC2 PCPN VRY LGT VSBY E 5 SLP066
2001 11 14 18 METAR CYVR 141800Z 09009KT 20SM FEW006 SCT060 BKN090 BKN200 12/10 A2976 RMK SF1SC2AC3CC1 VSBY E 8 SLP076
2001 11 14 19 METAR CYVR 141900Z 09010KT 30SM FEW011 BKN060 BKN090 OVC200 13/11 A2979 RMK SF2SC2AC2CI0 VSBY LWR S SLP086
2001 11 14 20 METAR CYVR 142000Z 11010KT 20SM FEW011 BKN050 BKN090 13/11 A2979 RMK CF1SC5AC2 SLP087
2001 11 14 21 METAR CYVR 142100Z 10007KT 12SM -RA FEW012 BKN044 BKN090 13/11 A2979 RMK ST2SC5AC1 VSBY E+W 8 SLP086
2001 11 14 22 METAR CYVR 142200Z 10009KT 5SM -RA BR FEW012 SCT022 OVC045 12/10 A2977 RMK ST2SC2SC5 SLP081
2001 11 14 23 METAR CYVR 142300Z 08006KT 20SM SCT022 BKN060 OVC100 12/10 A2975 RMK SC3SC2AC2 PCPN DSNT NW SLP073
2001 11 15 00 METAR CYVR 150000Z 10011KT 15SM -RA BKN026 BKN060 OVC100 12/10 A2974 RMK SC5SC2AC1 SLP070
2001 11 15 01 METAR CYVR 150100Z 10013G18KT 10SM -RA FEW010 BKN019 OVC060 11/10 A2975 RMK SF1SC6SC2 SLP073
2001 11 15 02 METAR CYVR 150200Z 08013KT 10SM -RA FEW010 BKN020 OVC060 11/10 A2969 RMK SF1SC5SC2 RERA/PRESFR/GUST OF 22KT PST HR SLP052
2001 11 15 03 METAR CYVR 150300Z 10018KT 10SM -RA BKN015 OVC035 12/10 A2968 RMK SF6SC2 RERA SLP051
2001 11 15 04 METAR CYVR 150400Z 09016KT 4SM RA BR FEW007 OVC012 12/11 A2969 RMK SF2SF6 SLP053
2001 11 15 05 METAR CYVR 150500Z 10012KT 10SM -RA FEW007 SCT012 BKN020 OVC050 12/12 A2968 RMK SF2SF2SF2SC2 RERA SLP050
2001 11 15 06 METAR CYVR 150600Z 11010G15KT 10SM FEW012 BKN020 BKN050 OVC080 13/12 A2968 RMK SF2SF3SC2AC1 SLP050
2001 11 15 07 METAR CYVR 150700Z 16012KT 10SM FEW020 BKN050 BKN080 OVC140 14/11 A2969 RMK SF2SC2AC2AC2 SLP054
2001 11 15 08 METAR CYVR 150800Z 10009KT 10SM FEW015 SCT040 BKN090 OVC120 14/11 A2969 RMK SF2SC2AC4AC1 SLP054
2001 11 15 09 METAR CYVR 150900Z 12016KT 10SM FEW015 FEW040 BKN100 OVC120 14/11 A2963 RMK SF1SC1AC5AC2 PRESFR SLP035
2001 11 15 10 METAR CYVR 151000Z 12020G25KT 10SM FEW015 FEW040 OVC100 15/11 A2959 RMK SF1SC1AC6 SLP020
2001 11 15 11 METAR CYVR 151100Z 13020G29KT 10SM -RA FEW015 FEW040 SCT080 OVC100 15/10 A2956 RMK SF1SC1AC2AC4 SLP011
2001 11 15 12 METAR CYVR 151200Z 14022G32KT 12SM FEW015 SCT080 OVC100 16/10 A2952 RMK SF2AC2AC4 SLP995
2001 11 15 13 METAR CYVR 151300Z 20009G16KT 6SM -RA BR FEW015 SCT055 OVC080 15/10 A2955 RMK SF1SC3AC4 SLP006
2001 11 15 14 METAR CYVR 151400Z 16018G24KT 6SM -RA BR FEW015 SCT050 BKN075 OVC085 14/11 A2953 RMK SF2SC2AC2AC2 SLP999
2001 11 15 15 METAR CYVR 151500Z 16018G25KT 6SM -RA BR FEW015 BKN055 OVC075 14/10 A2953 RMK SF2SC6AC1 SLP001
2001 11 15 16 METAR CYVR 151600Z 15017KT 8SM -RA FEW015 BKN050 OVC090 14/10 A2953 RMK SF2SC5AC2 SLP000
2001 11 15 17 METAR CYVR 151700Z 16013G19KT 6SM -RA BR FEW020 BKN049 BKN090 12/11 A2958 RMK SF1SC6AC1 SML BRK W SLP016
2001 11 15 18 METAR CYVR 151800Z 16014G20KT 10SM FEW025 BKN060 BKN120 13/11 A2960 RMK SC2SC4AC1 SLP023
2001 11 15 19 METAR CYVR 151900Z 15008KT 12SM FEW015 FEW060 BKN140 13/11 A2963 RMK CU1SC2AC4 SLP033
2001 11 15 20 METAR CYVR 152000Z 17010KT 20SM FEW015 FEW060 SCT120 BKN150 14/09 A2966 RMK CF1SC2AC2AC3 PCPN DSNT NE-E VSBY RDCD/TCU W SLP042
2001 11 15 21 METAR CYVR 152100Z 19010KT 20SM FEW018 FEW060 BKN140 15/10 A2967 RMK CU1SC1AC3 SHWRS DSNT NE SLP048
2001 11 15 22 METAR CYVR 152200Z 10009G15KT 20SM FEW020 SCT120 BKN250 15/07 A2970 RMK CU1AC2CI1 TCU SLP058
2001 11 15 23 METAR CYVR 152300Z 19010G17KT 20SM FEW020 FEW045 SCT120 BKN220 14/07 A2972 RMK CU1SC2AC2CI0 SLP064
2001 11 16 00 METAR CYVR 160000Z 16005KT 20SM FEW020 FEW045 SCT120 BKN250 13/06 A2975 RMK SC1CU2AC1CI0 SLP075
2001 11 16 01 METAR CYVR 160100Z 12005KT 20SM FEW035 FEW060 SCT120 BKN250 12/06 A2977 RMK SC2SC1AC2CI0 SLP082
2001 11 16 02 METAR CYVR 160200Z 15009KT 20SM FEW035 FEW065 SCT120 BKN250 12/07 A2979 RMK SC1SC2AC1CI0 SLP087
2001 11 16 03 METAR CYVR 160300Z 16007KT 20SM FEW035 SCT065 BKN250 11/07 A2980 RMK SC1SC2CI0 SLP091
2001 11 16 04 METAR CYVR 160400Z 12008KT 20SM FEW035 SCT065 BKN140 11/09 A2982 RMK SC1SC2AC2 SLP097
2001 11 16 05 METAR CYVR 160500Z 15008KT 20SM FEW040 SCT055 BKN140 11/09 A2984 RMK SC1SC3AC2 SLP103
2001 11 16 06 METAR CYVR 160600Z 15007KT 15SM FEW035 SCT050 BKN080 OVC130 11/09 A2985 RMK SC1SC2AC3AC2 SLP109
2001 11 16 07 METAR CYVR 160700Z 15004KT 10SM -SHRA FEW030 SCT050 BKN080 OVC130 11/09 A2986 RMK SC1SC2AC3AC2 SLP112
2001 11 16 08 METAR CYVR 160800Z 13006KT 20SM -SHRA FEW020 BKN075 OVC120 10/09 A2987 RMK SF2AC3AC2 SLP115
2001 11 16 09 METAR CYVR 160900Z 12005KT 20SM FEW040 SCT060 OVC091 10/08 A2988 RMK SF2SC2AC4 SLP118
2001 11 16 10 METAR CYVR 161000Z 10008KT 20SM FEW040 SCT061 OVC089 10/09 A2989 RMK SF2SC2AC4 SLP122
2001 11 16 11 METAR CYVR 161100Z 11009KT 10SM -SHRA FEW034 BKN050 OVC068 09/09 A2990 RMK SF2SC3AC2 SLP126
2001 11 16 12 METAR CYVR 161200Z 15010KT 15SM -SHRA SCT034 OVC059 10/08 A2991 RMK SF3SC5 RW-- SLP128
2001 11 16 13 METAR CYVR 161300Z 13007KT 15SM -SHRA FEW038 BKN066 OVC085 09/08 A2992 RMK SF2AC2AC3 SLP133
2001 11 16 14 METAR CYVR 161400Z 16008KT 15SM FEW008 FEW034 BKN062 BKN120 09/08 A2994 RMK SF1SC2SC2AC2 SLP138
2001 11 16 15 METAR CYVR 161500Z 10003KT 15SM FEW008 FEW025 SCT062 BKN120 BKN250 09/07 A2996 RMK SF1SC2SC2AC1CI1 LWR CLD N SLP146
2001 11 16 16 METAR CYVR 161600Z 04004KT 15SM FEW008 FEW015 FEW025 FEW060 SCT120 SCT250 09/07 A2999 RMK SF1SF1SC1SC1AC1CI1 TR SF SLP155
2001 11 16 17 METAR CYVR 161700Z 12003KT 30SM FEW008 FEW025 FEW060 FEW120 FEW250 10/07 A3002 RMK SF1CU1SC1AC1CI1 TR SF SLP165
2001 11 16 18 METAR CYVR 161800Z 00000KT 30SM FEW008 FEW015 FEW025 FEW060 FEW120 SCT250 11/08 A3005 RMK CF1CU1SC1SC1AC1CI1 TR CF SLP174
2001 11 16 19 METAR CYVR 161900Z 03002KT 30SM FEW008 FEW015 SCT080 BKN220 12/07 A3006 RMK CF1CU2AC2CI1 TCU ASOCTD SLP178
2001 11 16 20 METAR CYVR 162000Z 23006KT 30SM FEW015 FEW025 SCT080 BKN220 12/06 A3006 RMK CU1SC2AC1CI1 TCU ASOCTD N-E SLP180
2001 11 16 21 METAR CYVR 162100Z 22007KT 30SM FEW015 FEW030 SCT080 BKN220 11/05 A3006 RMK CU1SC2AC1CI1 TCU ASOCTD N-E SLP179
2001 11 16 22 METAR CYVR 162200Z 25004KT 30SM FEW015 FEW030 FEW080 SCT120 BKN220 11/05 A3006 RMK CF1SC2AC1AC1CI1 TCU N TR CF SLP179
2001 11 16 23 METAR CYVR 162300Z 30008KT 30SM FEW015 FEW030 SCT100 BKN220 10/07 A3007 RMK CF1CU2AC1CI0 SLP182
2001 11 17 00 METAR CYVR 170000Z 28004KT 30SM FEW015 FEW030 SCT100 SCT220 10/05 A3008 RMK CF1CU1AC2CI0 TCU ASOCTD SLP185
2001 11 17 01 METAR CYVR 170100Z 27005KT 30SM FEW030 FEW090 SCT220 09/05 A3010 RMK SC2AC1CI1 SLP191
2001 11 17 02 METAR CYVR 170200Z 27005KT 30SM FEW030 FEW090 SCT220 08/05 A3011 RMK SC1AC2CI1 SLP195
2001 11 17 03 METAR CYVR 170300Z 29011KT 20SM FEW030 FEW090 SCT220 08/06 A3012 RMK SC1AC1CI1 SLP198
2001 11 17 04 METAR CYVR 170400Z 30007KT 20SM FEW100 SCT200 07/05 A3014 RMK AC1CI1 SLP205
2001 11 17 05 METAR CYVR 170500Z 31008KT 20SM FEW200 06/04 A3016 RMK CI1 SLP212
2001 11 17 06 METAR CYVR 170600Z 36003KT 20SM FEW200 05/03 A3018 RMK CI1 SLP218
2001 11 17 07 METAR CYVR 170700Z 35003KT 15SM FEW015 SCT200 05/02 A3019 RMK SF1CI1 SLP223
2001 11 17 08 METAR CYVR 170800Z 31007KT 20SM FEW200 04/02 A3021 RMK CI2 SLP228
2001 11 17 09 METAR CYVR 170900Z 30010KT 20SM FEW200 03/02 A3022 RMK CI2 SLP234
2001 11 17 10 METAR CYVR 171000Z 30012KT 20SM FEW200 05/03 A3024 RMK CI2 SLP239
2001 11 17 11 METAR CYVR 171100Z 29011KT 20SM SKC 05/03 A3025 RMK SLP244
2001 11 17 12 METAR CYVR 171200Z 35005KT 20SM SKC 05/03 A3027 RMK SLP250
2001 11 17 13 METAR CYVR 171300Z 36003KT 20SM FEW040 FEW070 04/02 A3028 RMK SC1AC1 SLP255
2001 11 17 14 METAR CYVR 171400Z 10003KT 20SM FEW020 FEW040 03/01 A3030 RMK SF1SC1 SLP259
2001 11 17 15 METAR CYVR 171500Z 11006KT 3SM PRFG FEW005 SCT020 BKN040 01/01 A3032 RMK ST2SF1SC2 VSBY SW HIR NW LWR. SLP266
2001 11 17 16 METAR CYVR 171600Z 07004KT 12SM FEW005 BKN018 04/03 A3034 RMK SF1SC7 TR SF. SLP274
2001 11 17 17 METAR CYVR 171700Z 34004KT 12SM FEW018 06/04 A3036 RMK SC2 SLP279
2001 11 17 18 METAR CYVR 171800Z 33004KT 20SM FEW012 FEW021 07/05 A3037 RMK SF1SC1 SLP283
2001 11 17 19 METAR CYVR 171900Z 29006KT 20SM FEW015 FEW021 08/05 A3036 RMK SC1SC1 SLP281
2001 11 17 20 METAR CYVR 172000Z 31007KT 20SM FEW018 FEW080 08/05 A3036 RMK SC1AC1 SLP280
2001 11 17 21 METAR CYVR 172100Z 28008KT 20SM FEW018 FEW250 08/04 A3034 RMK SC1CI1 TR SC. SLP275
2001 11 17 22 METAR CYVR 172200Z 28009KT 20SM FEW018 FEW250 08/04 A3034 RMK SF1CI1 TR SF. SLP273
2001 11 17 23 METAR CYVR 172300Z 29010KT 30SM FEW250 08/05 A3034 RMK CI1 SLP274
2001 11 18 00 METAR CYVR 180000Z 29009KT 30SM BKN250 07/05 A3034 RMK CI2 SLP274
2001 11 18 01 METAR CYVR 180100Z 31009KT 30SM SCT250 06/03 A3035 RMK CI2 SLP276
2001 11 18 02 METAR CYVR 180200Z 36005KT 30SM FEW250 05/03 A3034 RMK CI1 SLP273
2001 11 18 03 METAR CYVR 180300Z 35002KT 30SM FEW250 07/03 A3035 RMK CI1 SLP277
2001 11 18 04 METAR CYVR 180400Z 00000KT 30SM FEW250 05/03 A3036 RMK CI1 SLP279
2001 11 18 05 METAR CYVR 180500Z 36003KT 30SM FEW250 03/01 A3036 RMK CI1 SLP279
2001 11 18 06 METAR CYVR 180600Z 03005KT 30SM FEW250 03/02 A3035 RMK CI2 SLP276
2001 11 18 07 METAR CYVR 180700Z 00000KT 30SM FEW250 04/02 A3034 RMK CI1 SLP272
2001 11 18 08 METAR CYVR 180800Z 01002KT 30SM SCT250 03/01 A3034 RMK CI2 SLP272
2001 11 18 09 METAR CYVR 180900Z 12002KT 30SM SCT250 02/01 A3031 RMK CI2 SLP264
2001 11 18 10 METAR CYVR 181000Z 00000KT 30SM SCT250 02/01 A3031 RMK CI2 SLP262
2001 11 18 11 METAR CYVR 181100Z 00000KT 30SM SCT250 02/00 A3028 RMK CI2 SLP255
2001 11 18 12 METAR CYVR 181200Z CCA 00000KT 30SM SCT250 02/01 A3026 RMK CI2 SLP248
2001 11 18 13 METAR CYVR 181300Z 00000KT 30SM SCT250 00/M01 A3026 RMK CI2 SLP248
2001 11 18 14 METAR CYVR 181400Z 08003KT 30SM SCT250 M01/M02 A3026 RMK CI2 FROIN SLP245
2001 11 18 15 METAR CYVR 181500Z 08005KT 30SM FEW025 BKN250 00/M01 A3024 RMK CF1CI2 SLP241
2001 11 18 16 METAR CYVR 181600Z 09003KT 30SM FEW025 BKN250 M00/M02 A3024 RMK CF1CI2 SLP241
2001 11 18 17 METAR CYVR 181700Z 05004KT 30SM FEW080 SCT210 BKN250 02/M00 A3024 RMK AC1CI2CI2 TR AC SLP240
2001 11 18 18 METAR CYVR 181800Z 31002KT 30SM SCT200 BKN240 04/01 A3024 RMK CI2CI2 SLP241
2001 11 18 19 METAR CYVR 181900Z 30005KT 30SM BKN200 BKN240 07/02 A3025 RMK CI2CI2 SLP244
2001 11 18 20 METAR CYVR 182000Z 07008KT 30SM BKN200 BKN240 08/00 A3021 RMK CI2CI2 SLP230
2001 11 18 21 METAR CYVR 182100Z 36003KT 30SM BKN200 BKN240 09/01 A3018 RMK CI2CI3 SLP219
2001 11 18 22 METAR CYVR 182200Z 09004KT 30SM SCT160 BKN200 BKN240 10/01 A3015 RMK AC3CI2CI2 SLP208
2001 11 18 23 METAR CYVR 182300Z 11005KT 30SM SCT160 BKN200 BKN240 09/00 A3012 RMK AC3CI2CI0 SLP199
2001 11 19 00 METAR CYVR 190000Z 32004KT 30SM FEW160 SCT200 BKN240 08/00 A3011 RMK AC2CI1CI1 SLP197
2001 11 19 01 METAR CYVR 190100Z 00000KT 30SM FEW160 FEW200 BKN240 06/M01 A3010 RMK AC2CI1CI1 SLP193
2001 11 19 02 METAR CYVR 190200Z 14002KT 30SM FEW130 BKN160 BKN200 06/01 A3009 RMK AC2AC2CI1 SLP188
2001 11 19 03 METAR CYVR 190300Z 09007KT 30SM BKN120 BKN160 06/01 A3005 RMK AC5AC1 SLP176
2001 11 19 04 METAR CYVR 190400Z 09004KT 30SM FEW100 BKN130 BKN160 06/00 A3003 RMK AC2AC2AC0 SLP168
2001 11 19 05 METAR CYVR 190500Z 05002KT 30SM FEW090 BKN120 BKN200 06/01 A3002 RMK AC2AC2CI0 SLP165
2001 11 19 06 METAR CYVR 190600Z 00000KT 30SM FEW090 BKN130 BKN170 06/02 A3003 RMK AC2AC2AC1 SLP169
2001 11 19 07 METAR CYVR 190700Z 33002KT 30SM FEW095 BKN170 OVC230 06/02 A3001 RMK AC2AC4CI2 SLP161
2001 11 19 08 METAR CYVR 190800Z 00000KT 30SM FEW090 BKN130 06/02 A3000 RMK AC2AC6 SLP159
2001 11 19 09 METAR CYVR 190900Z 07011KT 30SM BKN095 BKN130 07/01 A2994 RMK AC5AC2 PRESSFR SLP138
2001 11 19 10 METAR CYVR 191000Z 12006KT 30SM SCT077 BKN090 08/01 A2996 RMK AC3AC4 SLP146
2001 11 19 11 METAR CYVR 191100Z 02002KT 20SM -RA SCT070 OVC091 08/01 A2995 RMK AC3AC5 PCPN VRY LGT SLP141
2001 11 19 12 METAR CYVR 191200Z 28005KT 15SM -RA SCT044 OVC065 07/04 A2995 RMK SC4SC4 SLP143
2001 11 19 13 METAR CYVR 191300Z 36004KT 15SM -RA FEW044 OVC065 07/04 A2994 RMK SC2SC6 SLP139
2001 11 19 14 METAR CYVR 191400Z 12004KT 15SM -RA OVC045 07/05 A2994 RMK SC8 SLP138
2001 11 19 15 METAR CYVR 191500Z 12004KT 6SM -RA OVC039 06/05 A2993 RMK SC8 SLP136
2001 11 19 16 METAR CYVR 191600Z 13003KT 6SM -RA OVC035 07/05 A2992 RMK SC8 SLP133
2001 11 19 17 METAR CYVR 191700Z 11008KT 6SM -RA OVC034 08/07 A2988 RMK SC8 SLP119
2001 11 19 18 METAR CYVR 191800Z 09014KT 8SM -RA OVC034 09/08 A2985 RMK SC8 SLP107
2001 11 19 19 METAR CYVR 191900Z 09011KT 6SM -RA OVC031 09/08 A2983 RMK SC8 SLP100
2001 11 19 20 METAR CYVR 192000Z 08009KT 6SM -RA BKN031 OVC040 09/08 A2979 RMK SC6SC2 SLP089
2001 11 19 21 METAR CYVR 192100Z 10012KT 6SM -RA SCT031 BKN041 OVC085 10/09 A2974 RMK SC3SC3AC2 SLP072
2001 11 19 22 METAR CYVR 192200Z 10013KT 12SM BKN045 OVC090 11/10 A2971 RMK SC5AC3 SLP060
2001 11 19 23 METAR CYVR 192300Z 10013KT 6SM -SHRA BKN040 OVC090 11/10 A2971 RMK SC6AC2 SLP059
2001 11 20 00 METAR CYVR 200000Z 10017KT 12SM SCT040 OVC080 11/10 A2970 RMK SC3AC5 ACC ASOCTD SE SHWRS NE SLP057
2001 11 20 01 METAR CYVR 200100Z 11012KT 10SM SCT040 BKN080 OVC110 12/10 A2964 RMK SC3AC2AC2 ACC ASOCTD PRESFR SLP037
2001 11 20 02 METAR CYVR 200200Z 11009KT 15SM FEW040 BKN080 OVC130 13/11 A2962 RMK SC2AC3AC2 ACC ASOCTD SLP030
2001 11 20 03 METAR CYVR 200300Z 13012KT 6SM -RA BKN035 OVC080 11/10 A2967 RMK SC6AC2 SLP046
2001 11 20 04 METAR CYVR 200400Z 12013KT 5SM -RA BKN044 OVC080 11/10 A2968 RMK SC6AC2 SLP050
2001 11 20 05 METAR CYVR 200500Z 14021G29KT 10SM FEW030 BKN045 BKN080 OVC230 12/10 A2968 RMK SF2SC2AC2CI0 SLP051
2001 11 20 06 METAR CYVR 200600Z 12016G21KT 15SM FEW030 SCT045 BKN090 OVC230 12/09 A2967 RMK SF2SC2AC2CI0 SLP046
2001 11 20 07 METAR CYVR 200700Z 12028G36KT 15SM FEW030 BKN080 OVC230 13/08 A2965 RMK SF2AC5CI1 SLP040
2001 11 20 08 METAR CYVR 200800Z 12021G30KT 15SM FEW030 OVC080 14/08 A2966 RMK SC2AC6 SLP042
2001 11 20 09 METAR CYVR 200900Z 14019G26KT 15SM -SHRA FEW025 OVC056 13/08 A2966 RMK SC2SC6 -SHRA VRY LGT SLP045
2001 11 20 10 METAR CYVR 201000Z 17021G30KT 10SM -SHRA OVC042 12/09 A2973 RMK SC8 PRESRR SLP066
2001 11 20 11 METAR CYVR 201100Z 17015G21KT 15SM FEW042 BKN062 BKN075 OVC150 12/09 A2979 RMK SC2SC3AC2AC2 PRESRR SLP087
2001 11 20 12 METAR CYVR 201200Z 11011KT 15SM FEW042 SCT062 BKN080 OVC150 11/09 A2983 RMK SC2SC2AC2AC2 SLP101
2001 11 20 13 METAR CYVR 201300Z 13008KT 15SM FEW025 FEW042 SCT080 BKN094 OVC150 11/08 A2986 RMK SC1SC1AC2AC2AC2 SLP111
2001 11 20 14 METAR CYVR 201400Z 17005KT 15SM -SHRA FEW025 SCT056 BKN075 OVC095 10/08 A2988 RMK SC1SC3AC2AC2 SLP119
2001 11 20 15 METAR CYVR 201500Z 04003KT 15SM FEW025 FEW058 SCT075 BKN100 OVC210 10/08 A2989 RMK SC1SC2AC2AC2CI2 SLP121
2001 11 20 16 METAR CYVR 201600Z 08010KT 20SM FEW025 FEW070 BKN110 OVC200 10/08 A2987 RMK SC1AC2AC3CI2 SLP113
2001 11 20 17 METAR CYVR 201700Z 10011KT 20SM FEW025 FEW050 SCT080 OVC140 10/09 A2987 RMK SC1SC2AC2AC4 SLP113
2001 11 20 18 METAR CYVR 201800Z 13011KT 15SM -RA FEW022 BKN037 OVC080 11/09 A2983 RMK SC1SC5AC2 VSBY LWR NW-NE SLP102
2001 11 20 19 METAR CYVR 201900Z 09009KT 15SM FEW020 BKN030 OVC045 11/09 A2980 RMK SC1SC5SC2 SLP092
2001 11 20 20 METAR CYVR 202000Z 10012KT 15SM -RA FEW020 BKN033 OVC045 11/09 A2979 RMK SC1SC6SC2 SLP086
2001 11 20 21 METAR CYVR 202100Z 09013KT 10SM -RA FEW020 SCT030 OVC040 11/09 A2976 RMK SC1SC3SC4 SLP076
2001 11 20 22 METAR CYVR 202200Z 09017KT 10SM -RA FEW020 BKN043 OVC070 11/08 A2971 RMK SC1SC5AC2 SLP062
2001 11 20 23 METAR CYVR 202300Z 09017KT 6SM -RA BR FEW015 SCT030 OVC040 10/08 A2967 RMK SC2SC2SC5 VSBY HIER S SLP048
2001 11 21 00 METAR CYVR 210000Z 10015KT 6SM -RA BR FEW012 FEW030 OVC042 10/08 A2966 RMK SF1SC2SC6 SLP045
2001 11 21 01 METAR CYVR 210100Z 09016KT 8SM -RA FEW011 FEW027 OVC040 09/08 A2965 RMK SF1SC2SC6 SLP040
2001 11 21 02 METAR CYVR 210200Z 09016KT 15SM -RA FEW015 SCT025 BKN045 OVC110 09/08 A2963 RMK SF1SC2SC4AC1 SLP033
2001 11 21 03 METAR CYVR 210300Z 10012G17KT 15SM -RA FEW015 BKN031 OVC090 10/08 A2962 RMK SC2SC5AC2 RA VRY LGT SLP030
2001 11 21 04 METAR CYVR 210400Z 09012KT 15SM -RA FEW015 BKN035 BKN060 OVC100 09/08 A2961 RMK SC2SC3SC2AC2 RA VRY LGT SLP025
2001 11 21 05 METAR CYVR 210500Z 11011KT 15SM -SHRA FEW020 SCT030 BKN052 OVC100 09/07 A2961 RMK SC2SC2SC3AC2 SLP028
2001 11 21 06 METAR CYVR 210600Z 10012KT 12SM -SHRA FEW020 FEW035 BKN070 BKN100 09/07 A2961 RMK SC2SC1AC3AC2 SHRA VRY LGT SLP025
2001 11 21 07 METAR CYVR 210700Z 11012G17KT 15SM FEW020 BKN028 OVC080 10/08 A2961 RMK SC1SC6AC2 SLP025
2001 11 21 08 METAR CYVR 210800Z 13010G15KT 10SM -SHRA BKN018 OVC022 10/08 A2963 RMK SC6SC2 SLP033
2001 11 21 09 METAR CYVR 210900Z 15018KT 10SM -SHRA BKN018 BKN022 OVC055 10/09 A2963 RMK SC5SC2SC1 -SHRA VRY LGT SLP033
2001 11 21 10 METAR CYVR 211000Z 12012KT 15SM FEW018 FEW025 BKN055 OVC080 10/08 A2966 RMK SF1SC2SC3AC2 SLP042
2001 11 21 11 METAR CYVR 211100Z 13009KT 15SM -SHRA FEW018 SCT035 BKN055 OVC080 10/08 A2967 RMK SF1SC2SC3AC2 SLP046
2001 11 21 12 METAR CYVR 211200Z 12012G17KT 15SM FEW015 BKN045 BKN080 10/08 A2966 RMK SF2SC3AC2 SLP045
2001 11 21 13 METAR CYVR 211300Z 15014KT 15SM FEW015 BKN039 BKN080 10/08 A2969 RMK SF2SC4AC2 SLP053
2001 11 21 14 METAR CYVR 211400Z 15014KT 15SM FEW015 SCT048 BKN090 10/08 A2969 RMK SF1SC3AC2 SLP055
2001 11 21 15 METAR CYVR 211500Z 15012G19KT 15SM FEW015 SCT055 BKN100 BKN180 10/08 A2971 RMK CF1SC3AC2AC1 SLP061
2001 11 21 16 METAR CYVR 211600Z 13009KT 15SM FEW015 FEW055 BKN080 BKN100 10/07 A2972 RMK CF1SC2AC2AC2 SLP065
2001 11 21 17 METAR CYVR 211700Z 13012KT 20SM FEW015 BKN057 BKN080 10/07 A2973 RMK CF1SC5AC2 SHWRS DSNT N SLP067
2001 11 21 18 METAR CYVR 211800Z 14010G15KT 20SM FEW015 BKN055 BKN080 OVC120 10/08 A2974 RMK CF1SC5AC2AC1 SLP071
2001 11 21 19 METAR CYVR 211900Z 15006KT 15SM -SHRA FEW015 FEW025 SCT055 BKN080 BKN140 11/09 A2973 RMK CF1SC1SC2AC2AC1 PCPN VRY LGT SLP068
2001 11 21 20 METAR CYVR 212000Z 13011KT 20SM FEW015 SCT045 BKN090 OVC140 10/08 A2972 RMK CF2SC2AC3AC2 VSBY LWR E SLP065
2001 11 21 21 METAR CYVR 212100Z 12009KT 20SM FEW015 SCT050 BKN070 OVC120 10/07 A2970 RMK CF2SC2AC3AC2 VSBY LWR E SLP057
2001 11 21 22 METAR CYVR 212200Z 13010G16KT 15SM -SHRA FEW015 SCT055 BKN075 OVC120 10/07 A2967 RMK CF2SC2AC3AC1 PCPN VRY LGT SLP046
2001 11 21 23 METAR CYVR 212300Z 12010KT 12SM -SHRA FEW015 BKN055 OVC120 10/07 A2964 RMK SF2SC6AC1 SLP036
2001 11 22 00 METAR CYVR 220000Z 09009KT 12SM -SHRA FEW015 BKN042 OVC100 09/07 A2961 RMK SF1SC6AC2 SLP025
2001 11 22 01 METAR CYVR 220100Z 11011KT 10SM -SHRA FEW015 BKN042 OVC100 09/07 A2957 RMK SF2SC6AC1 VRY LGT RW SLP014
2001 11 22 02 METAR CYVR 220200Z 11010G17KT 8SM -SHRA FEW008 BKN017 BKN025 OVC040 09/08 A2954 RMK SF1SC4SC2SC1 SLP003
2001 11 22 03 METAR CYVR 220300Z 09010KT 8SM -SHRA FEW008 FEW035 OVC045 09/07 A2950 RMK SF1SC2SC6 SLP991
2001 11 22 04 METAR CYVR 220400Z 07007KT 12SM -SHRA FEW008 BKN045 OVC080 08/07 A2947 RMK SF1SC6AC2 TR SF SLP978
2001 11 22 05 METAR CYVR 220500Z 04009KT 15SM FEW040 OVC090 08/06 A2942 RMK SC2AC6 SLP961
2001 11 22 06 METAR CYVR 220600Z 04011KT 15SM FEW050 FEW095 BKN130 BKN220 08/06 A2937 RMK SC1AC2AC3CI1 SLP946
2001 11 22 07 METAR CYVR 220700Z 09009KT 20SM FEW050 BKN100 BKN140 08/05 A2934 RMK SC1AC4AC2 SLP936
2001 11 22 08 METAR CYVR 220800Z 12010KT 20SM BKN071 BKN100 08/05 A2934 RMK AC5AC2 SLP934
2001 11 22 09 METAR CYVR 220900Z 12004KT 20SM BKN068 BKN100 08/05 A2932 RMK AC5AC2 SLP930
2001 11 22 10 METAR CYVR 221000Z 04002KT 15SM -SHRA BKN045 OVC060 07/06 A2932 RMK SC6SC2 SLP928
2001 11 22 11 METAR CYVR 221100Z 01009KT 15SM -SHRA FEW030 OVC046 08/05 A2930 RMK SF2SC6 SLP922
2001 11 22 12 METAR CYVR 221200Z 04004KT 15SM -SHRA FEW035 OVC051 08/06 A2929 RMK SF2SC6 SLP919
2001 11 22 13 METAR CYVR 221300Z 32002KT 15SM -SHRA FEW035 OVC050 07/06 A2930 RMK SF2SC6 SLP921
2001 11 22 14 METAR CYVR 221400Z 09002KT 15SM -SHRA FEW035 BKN045 OVC080 08/06 A2931 RMK SF2SC3AC2 SLP924
2001 11 22 15 METAR CYVR 221500Z 36003KT 15SM FEW035 BKN049 OVC080 07/06 A2931 RMK SF1SC4AC2 SLP926
2001 11 22 16 METAR CYVR 221600Z 32006KT 20SM FEW035 BKN050 OVC090 07/06 A2932 RMK SF1SC4AC2 SLP930
2001 11 22 17 METAR CYVR 221700Z 29005KT 15SM -SHRA FEW035 OVC038 08/06 A2935 RMK SF2SC6 SLP940
2001 11 22 18 METAR CYVR 221800Z 32007KT 20SM -SHRA BKN047 OVC080 09/07 A2938 RMK SC6AC2 VSBY LWR NE 5 SLP948
2001 11 22 19 METAR CYVR 221900Z 31007KT 20SM -SHRA FEW010 BKN047 OVC080 09/08 A2940 RMK CU2SC4AC2 SLP955
2001 11 22 20 METAR CYVR 222000Z 30017KT 20SM -SHRA FEW010 BKN051 OVC080 09/08 A2942 RMK CF2SC4AC2 SLP961
2001 11 22 21 METAR CYVR 222100Z 29015KT 20SM FEW010 BKN060 OVC080 09/07 A2944 RMK CF2SC4AC2 SLP968
2001 11 22 22 METAR CYVR 222200Z 29014G19KT 20SM FEW010 OVC075 09/07 A2946 RMK CF1AC7 SLP977
2001 11 22 23 METAR CYVR 222300Z 29014KT 20SM -SHRA FEW010 SCT035 BKN052 OVC075 09/07 A2950 RMK CF1SC2SC4AC1 SLP989
2001 11 23 00 METAR CYVR 230000Z 28014KT 20SM -SHRA FEW010 SCT035 BKN052 OVC075 09/07 A2953 RMK CF1SC2SC3AC2 SLP998
2001 11 23 01 METAR CYVR 230100Z 27010KT 20SM FEW010 FEW035 BKN052 BKN075 OVC120 09/07 A2956 RMK CF1SC1SC5AC1AC1 SLP009
2001 11 23 02 METAR CYVR 230200Z 28013KT 20SM FEW010 SCT052 BKN075 OVC120 09/07 A2959 RMK CF1SC2AC3AC2 SLP020
2001 11 23 03 METAR CYVR 230300Z 27015KT 20SM FEW010 FEW052 SCT080 SCT180 09/07 A2961 RMK CF1SC1AC2AC1 SLP027
2001 11 23 04 METAR CYVR 230400Z 28013KT 20SM FEW010 FEW062 FEW080 SCT180 SCT200 09/06 A2964 RMK CF1SC1AC1AC2CI1 TR CF. SLP038
2001 11 23 05 METAR CYVR 230500Z 27013KT 20SM -SHRA FEW010 SCT047TCU BKN080 BKN180 BKN200 09/07 A2968 RMK CF1TCU3AC1AC2CI1 SLP050
2001 11 23 06 METAR CYVR 230600Z 27014KT 12SM -SHRA FEW010 OVC046 08/07 A2971 RMK CF1SC7 TCU EMBDD. SLP060
2001 11 23 07 METAR CYVR 230700Z 27010G15KT 12SM -SHRA FEW010 OVC048 09/07 A2974 RMK CF1SC7 TCU EMBDD. SLP069
2001 11 23 08 METAR CYVR 230800Z 25015KT 15SM FEW010 SCT050 OVC065 08/07 A2976 RMK CF1SC3SC4 SLP077
2001 11 23 09 METAR CYVR 230900Z 25015KT 15SM FEW010 SCT045 OVC070 08/06 A2978 RMK SC2SC2AC5 SLP084
2001 11 23 10 METAR CYVR 231000Z 25016KT 15SM FEW045 OVC090 08/06 A2980 RMK SC2AC6 SLP092
2001 11 23 11 METAR CYVR 231100Z 26014KT 15SM FEW045 SCT090 BKN180 OVC240 08/06 A2983 RMK SC2AC2AC4CI0 SLP102
2001 11 23 12 METAR CYVR 231200Z 24012KT 20SM FEW045 SCT090 BKN180 BKN240 08/06 A2986 RMK SC1AC2AC2CI0 SLP111
2001 11 23 13 METAR CYVR 231300Z 22009KT 20SM FEW030 SCT060 BKN090 BKN180 08/05 A2988 RMK SC2SC2AC2AC1 SLP119
2001 11 23 14 METAR CYVR 231400Z 22006KT 20SM FEW035 FEW060 BKN160 07/06 A2990 RMK SC2SC1AC2 SLP124
2001 11 23 15 METAR CYVR 231500Z 26006KT 20SM SCT030 BKN060 07/05 A2991 RMK SC3SC2 SLP129
2001 11 23 16 METAR CYVR 231600Z 22005KT 30SM FEW018 BKN063 08/06 A2993 RMK CU1SC5 VSBY LWR NE-E SLP136
2001 11 23 17 METAR CYVR 231700Z 25006KT 30SM FEW018 SCT063 08/06 A2995 RMK CU1SC3 SLP142
2001 11 23 18 METAR CYVR 231800Z 22006KT 30SM FEW018 SCT067 SCT120 09/06 A2997 RMK CU1AC3AC1 SLP147
2001 11 23 19 METAR CYVR 231900Z 21006KT 30SM FEW015TCU SCT068 BKN120 09/05 A2998 RMK TCU1AC3AC1 SLP153
2001 11 23 20 METAR CYVR 232000Z 22004KT 30SM FEW015TCU FEW070 SCT170 10/04 A2997 RMK TCU2AC1AC1 SLP150
2001 11 23 21 METAR CYVR 232100Z 22003KT 30SM FEW015 FEW070 SCT170 10/04 A2997 RMK CU2AC1AC1 SLP150
2001 11 23 22 METAR CYVR 232200Z 23003KT 30SM FEW020 SCT058 BKN140 10/03 A2997 RMK CU2SC2AC1 TCU ASOCTD SLP148
2001 11 23 23 METAR CYVR 232300Z 20002KT 30SM FEW020 SCT058 10/03 A2996 RMK CU2SC2 TCU ASCTD SLP145
2001 11 24 00 METAR CYVR 240000Z 15003KT 30SM FEW025 FEW035TCU SCT065 09/02 A2996 RMK CU1TCU1SC2 SLP145
2001 11 24 01 METAR CYVR 240100Z 13005KT 30SM FEW020 FEW030TCU SCT060 08/05 A2996 RMK CU2TCU1SC1 SLP146
2001 11 24 02 METAR CYVR 240200Z 09006KT 30SM FEW020 FEW035 05/03 A2995 RMK CU1SC2 SLP143
2001 11 24 03 METAR CYVR 240300Z 11008KT 30SM FEW024 SCT040 05/03 A2995 RMK SF2SC2 SLP141
2001 11 24 04 METAR CYVR 240400Z 10005KT 30SM FEW024 SCT040 05/03 A2994 RMK SF1SC2 SLP137
2001 11 24 05 METAR CYVR 240500Z 08006KT 20SM FEW020 FEW050 SCT220 04/03 A2992 RMK SF1SC1CI2 SLP132
2001 11 24 06 METAR CYVR 240600Z 07006KT 20SM FEW020 FEW050 BKN190 06/04 A2992 RMK SF1SC1CS3 SLP130
2001 11 24 07 METAR CYVR 240700Z CCA 05008KT 20SM FEW050 OVC160 06/04 A2990 RMK SC1AS4 SLP125
2001 11 24 08 METAR CYVR 240800Z 05007KT 20SM FEW050 OVC160 06/04 A2989 RMK SC1AS6 SLP120
2001 11 24 09 METAR CYVR 240900Z 09005KT 20SM FEW050 OVC150 06/03 A2986 RMK SC1AS6 SLP111
2001 11 24 10 METAR CYVR 241000Z 00000KT 20SM FEW050 OVC150 05/03 A2983 RMK SC1AC6 SLP100
2001 11 24 11 METAR CYVR 241100Z 00000KT 20SM FEW050 OVC140 05/03 A2980 RMK SC2AC6 SLP092
2001 11 24 12 METAR CYVR 241200Z 21002KT 20SM FEW050 OVC140 05/03 A2977 RMK SC2AC6 SLP082
2001 11 24 13 METAR CYVR 241300Z 15005KT 20SM FEW040 OVC110 05/03 A2974 RMK SC1AC7 SLP071
2001 11 24 14 METAR CYVR 241400Z 12002KT 20SM FEW050 BKN110 BKN250 04/02 A2971 RMK SC1AC3CI0 SLP061
2001 11 24 15 METAR CYVR 241500Z 00000KT 30SM FEW050 FEW110 SCT140 BKN170 BKN250 04/02 A2970 RMK SC2AC1AC2AC2CI0 SLP057
2001 11 24 16 METAR CYVR 241600Z 36002KT 30SM FEW025 SCT120 BKN220 04/02 A2968 RMK CF1AC3CI0 SLP050
2001 11 24 17 METAR CYVR 241700Z 00000KT 30SM FEW020 SCT100 BKN220 04/03 A2966 RMK CF1AC4CI1 VIRGA SE-SW SLP043
2001 11 24 17 METAR CYVR 241700Z 00000KT 30SM FEW020 SCT100 BKN220 04/03 A2966 RMK CF1AC4CI1
2001 11 24 19 METAR CYVR 241900Z 00000KT 30SM FEW020 FEW090 OVC130 07/02 A2962 RMK CF1AC2AS6 VIRGA E-SW SLP031
2001 11 24 20 METAR CYVR 242000Z 26002KT 30SM FEW020 SCT080 OVC130 07/03 A2961 RMK CF1AC3AS4 VIRGA ALQDS SLP026
2001 11 24 21 METAR CYVR 242100Z 30012KT 30SM FEW020 FEW080 OVC120 07/04 A2959 RMK CF1AC2AS6 VIRGA ALQDS SLP020
2001 11 24 22 METAR CYVR 242200Z 30015KT 30SM FEW020 FEW080 OVC130 07/04 A2957 RMK CF1AC2AS6 VIRGA ALQDS SHWR DSNT W SLP012
2001 11 24 23 METAR CYVR 242300Z 31015KT 30SM FEW025 FEW080 OVC140 07/04 A2955 RMK CF1AC2AS6 TR CF SLP007
2001 11 25 00 METAR CYVR 250000Z 30015KT 30SM FEW030 FEW090 OVC130 07/04 A2955 RMK CF1AC2AC6 VIRGA N SLP006
2001 11 25 01 METAR CYVR 250100Z 30012KT 30SM FEW080 OVC130 07/04 A2954 RMK AC2AC6 SLP003
2001 11 25 02 METAR CYVR 250200Z 30015KT 30SM FEW080 OVC130 07/04 A2953 RMK AC2AS6 SLP001
2001 11 25 03 METAR CYVR 250300Z 31014KT 30SM FEW080 OVC130 07/04 A2953 RMK AC2AS6 SLP000
2001 11 25 04 METAR CYVR 250400Z 30012KT 30SM FEW080 BKN140 OVC220 07/04 A2954 RMK AC2AS5CI1 SLP004
2001 11 25 05 METAR CYVR 250500Z 30011KT 30SM SCT140 BKN220 06/04 A2956 RMK AC3CI1 SLP010
2001 11 25 06 METAR CYVR 250600Z 30010KT 30SM FEW100 BKN240 06/04 A2957 RMK AC2CI1 SLP013
2001 11 25 07 METAR CYVR 250700Z 33008KT 30SM FEW100 BKN200 05/03 A2958 RMK AC2CI2 SLP016
2001 11 25 08 METAR CYVR 250800Z 32003KT 30SM FEW100 BKN200 05/02 A2959 RMK AC1CI2 SLP019
2001 11 25 09 METAR CYVR 250900Z 00000KT 30SM FEW100 BKN200 04/02 A2959 RMK AC1CI2 SLP021
2001 11 25 10 METAR CYVR 251000Z 34003KT 30SM FEW130 BKN200 04/02 A2961 RMK AC2CI2 SLP026
2001 11 25 11 METAR CYVR 251100Z 35005KT 30SM FEW130 BKN210 04/02 A2962 RMK AC2CI2 SLP030
2001 11 25 12 METAR CYVR 251200Z 00000KT 30SM FEW130 BKN210 04/02 A2963 RMK AC1CI2 SLP033
2001 11 25 13 METAR CYVR 251300Z 00000KT 30SM FEW130 SCT210 05/02 A2964 RMK AC1CI1 SLP037
2001 11 25 14 METAR CYVR 251400Z 33004KT 30SM FEW130 OVC220 03/01 A2966 RMK AC2CI3 SLP044
2001 11 25 15 METAR CYVR 251500Z 32004KT 30SM FEW130 OVC220 04/01 A2968 RMK AC2CI2 SLP049
2001 11 25 16 METAR CYVR 251600Z 35003KT 30SM FEW090 SCT130 OVC220 02/M00 A2970 RMK AC1AC2CI2 SLP057
2001 11 25 17 METAR CYVR 251700Z 12005KT 30SM BKN089 OVC220 03/01 A2972 RMK AC6CI2 SLP065
2001 11 25 18 METAR CYVR 251800Z 10005KT 30SM BKN080 OVC130 05/02 A2975 RMK AC6AC2 XTNSV VIRGA S-NW SLP075
2001 11 25 19 METAR CYVR 251900Z 11007KT 30SM BKN075 OVC130 05/02 A2978 RMK AC5AS3 XTNSV VIRGA SLP083
2001 11 25 20 METAR CYVR 252000Z 11005KT 30SM BKN070 OVC130 06/03 A2980 RMK AC5AS3 XTNSV VIRGA PCPN MTNS N SLP091
2001 11 25 21 METAR CYVR 252100Z 10005KT 30SM SCT070 OVC130 07/04 A2982 RMK AC4AS4 XTNSV VIRGA PCPN MTNS N SLP099
2001 11 25 22 METAR CYVR 252200Z 11004KT 15SM -RA FEW030 SCT055 OVC120 07/04 A2985 RMK SC1SC3AS5 PCPN VRY LGT SLP107
2001 11 25 23 METAR CYVR 252300Z 10006KT 15SM FEW025 SCT045 OVC120 07/04 A2987 RMK SC2SC2AS4 SLP113
2001 11 26 00 METAR CYVR 260000Z 10008KT 12SM -RA FEW025 SCT055 OVC120 06/04 A2989 RMK SC2SC2AS4 SLP122
2001 11 26 01 METAR CYVR 260100Z 10008KT 12SM -RA FEW030 SCT055 OVC077 05/03 A2992 RMK SC2SC2AC4 SLP131
2001 11 26 02 METAR CYVR 260200Z 11009KT 8SM -RA FEW015 SCT025 OVC037 05/03 A2994 RMK SC2SC2SC4 SLP139
2001 11 26 03 METAR CYVR 260300Z 10007KT 8SM -RA FEW020 OVC031 05/04 A2996 RMK SC2SC6 SLP146
2001 11 26 04 METAR CYVR 260400Z 10008KT 6SM -DZ FEW015 OVC027 05/04 A2998 RMK SC2SC6 SLP152
2001 11 26 05 METAR CYVR 260500Z 08008KT 12SM FEW015 SCT023 BKN037 05/03 A3000 RMK SC2SC2SC4 SLP160
2001 11 26 06 METAR CYVR 260600Z 08008KT 12SM FEW013 SCT019 BKN031 05/04 A3003 RMK SC2SC2SC3 SLP170
2001 11 26 07 METAR CYVR 260700Z 08008KT 12SM FEW013 BKN021 05/04 A3006 RMK SC2SC5 SLP179
2001 11 26 08 METAR CYVR 260800Z 09007KT 12SM FEW013 SCT020 BKN039 05/04 A3008 RMK SF2SC2SC3 SLP185
2001 11 26 09 METAR CYVR 260900Z 09007KT 15SM FEW015 FEW020 BKN039 04/03 A3010 RMK SF1SC1SC3 SLP192
2001 11 26 10 METAR CYVR 261000Z 09007KT 15SM FEW015 BKN040 BKN070 04/03 A3012 RMK SF1SC4AC2 SLP199
2001 11 26 11 METAR CYVR 261100Z 09006KT 15SM FEW015 FEW040 BKN070 BKN110 03/02 A3014 RMK SF1SC2AC2AC2 SLP206
2001 11 26 12 METAR CYVR 261200Z 09004KT 15SM FEW035 FEW070 SCT110 03/02 A3015 RMK SC2AC1AC1 SLP210
2001 11 26 13 METAR CYVR 261300Z 11005KT 15SM FEW035 SCT070 SCT110 03/02 A3017 RMK SC2AC2AC1 SLP216
2001 11 26 14 METAR CYVR 261400Z 13004KT 15SM FEW015 FEW060 SCT085 05/03 A3018 RMK SF2SC1AC2 SLP219
2001 11 26 15 METAR CYVR 261500Z 12003KT 15SM FEW015 FEW030TCU 03/02 A3020 RMK CF1TCU1 SLP225
2001 11 26 16 METAR CYVR 261600Z 11005KT 30SM FEW015 FEW030 FEW100 02/01 A3022 RMK CF1CU1AC1 TCU ASOCTD NE VSBY LWR NE-E SLP232
2001 11 26 17 METAR CYVR 261700Z 13005KT 30SM FEW015 03/02 A3024 RMK CU1 VSBY LWR NE-E SLP239
2001 11 26 L METAR CYVR NIL
2001 11 26 19 METAR CYVR 261900Z 16008KT 30SM BKN017 07/04 A3027 RMK CU5 TCU ASOCTD SLP249
2001 11 26 20 METAR CYVR 262000Z 15007KT 30SM BKN015TCU 07/04 A3027 RMK TCU6 SLP251
2001 11 26 21 METAR CYVR 262100Z 15005KT 30SM SCT018TCU BKN050 08/04 A3028 RMK TCU4SC1 VSBY LWR NE SLP252
2001 11 26 22 METAR CYVR 262200Z 17011KT 30SM FEW018TCU FEW060 SCT210 08/04 A3028 RMK TCU2SC1CI1 VSBY LWR NE-SE SLP252
2001 11 26 23 METAR CYVR 262300Z 15010KT 30SM FEW018TCU BKN058 BKN100 BKN210 08/04 A3028 RMK TCU2SC4AC1CI1 SLP255
2001 11 27 00 METAR CYVR 270000Z 14009KT 20SM FEW018TCU SCT043 BKN050 BKN120 07/04 A3029 RMK TCU2SF2SC2AC2 SHWRS W-N SLP258
2001 11 27 01 METAR CYVR 270100Z 18011KT 20SM FEW015 BKN036 BKN045 08/04 A3029 RMK CU2SC3SC2 SLP257
2001 11 27 02 METAR CYVR 270200Z 18014KT 30SM FEW015 SCT038 BKN060 BKN082 07/03 A3029 RMK CF2SC2SC2AC1 SLP258
2001 11 27 03 METAR CYVR 270300Z 18011G17KT 30SM FEW040 SCT080 06/03 A3030 RMK SC2AC2 SLP260
2001 11 27 04 METAR CYVR 270400Z CCA 18008KT 30SM FEW040 SCT080 06/03 A3030 RMK SC2AC2 SLP261
2001 11 27 05 METAR CYVR 270500Z 12003KT 30SM FEW040 SCT060 BKN080 05/03 A3031 RMK SC2SC2AC2 SLP264
2001 11 27 06 METAR CYVR 270600Z 18005KT 30SM FEW040 FEW060 SCT080 04/02 A3031 RMK SF1SC1AC2 SLP264
2001 11 27 07 METAR CYVR 270700Z 09002KT 30SM FEW040 SCT064 BKN082 03/02 A3031 RMK SF2SC2AC2 SLP265
2001 11 27 08 METAR CYVR 270800Z 09002KT 30SM BKN048 BKN080 04/03 A3032 RMK SC5AC1 SLP266
2001 11 27 09 METAR CYVR 270900Z 20005KT 20SM BKN043 BKN080 06/03 A3033 RMK SC5AC2 SLP269
2001 11 27 10 METAR CYVR 271000Z 26011KT 20SM SCT042 BKN060 06/02 A3034 RMK SC3SC2 SLP272
2001 11 27 11 METAR CYVR 271100Z 27006KT 20SM FEW025 SCT040 BKN070 06/02 A3034 RMK SF2SC2AC2 SLP272
2001 11 27 12 METAR CYVR 271200Z 24008KT 20SM FEW030 BKN073 06/02 A3032 RMK SF2AC6 SLP267
2001 11 27 13 METAR CYVR 271300Z 28004KT 20SM FEW015 BKN072 05/01 A3031 RMK SF1AC6 SLP265
2001 11 27 14 METAR CYVR 271400Z 27004KT 20SM FEW012 FEW050 BKN068 06/02 A3032 RMK CF1SC2AC5 SLP266
2001 11 27 15 METAR CYVR 271500Z 27003KT 20SM FEW012 FEW050 BKN067 06/02 A3032 RMK CF1SC2AC5 SLP266
2001 11 27 16 METAR CYVR 271600Z 25006KT 20SM FEW020 BKN065 BKN080 BKN220 05/02 A3031 RMK CU2SC3AC2CI0 SLP263
2001 11 27 17 METAR CYVR 271700Z 24004KT 20SM FEW015 BKN072 BKN220 05/02 A3031 RMK CF1AC6CI0 ACC ASOCTD SLP265
2001 11 27 18 METAR CYVR 271800Z 14005KT 20SM FEW015 BKN069 BKN220 06/02 A3031 RMK CF1AC6CI0 ACC ASOCTD SLP265
2001 11 27 19 METAR CYVR 271900Z 09004KT 20SM FEW020 OVC070 06/02 A3030 RMK CU2AC6 SLP259
2001 11 27 20 METAR CYVR 272000Z 09004KT 20SM FEW020 OVC072 06/02 A3028 RMK CU2AC6 SLP252
2001 11 27 21 METAR CYVR 272100Z 11007KT 20SM FEW020 BKN069 07/02 A3026 RMK CU2AC5 SHWRS DSTNT E SLP245
2001 11 27 22 METAR CYVR 272200Z 14009KT 20SM FEW025 BKN072 BKN220 06/02 A3023 RMK CU2AC4CI0 SHWRS DSTNT NE-SE SLP236
2001 11 27 23 METAR CYVR 272300Z 11009KT 20SM FEW015 FEW025 BKN072 OVC220 05/02 A3022 RMK CF1SC2AC5CI1 SHWRS NE-SE SLP233
2001 11 28 00 METAR CYVR 280000Z 10008KT 20SM FEW015 SCT030 BKN072 OVC220 05/01 A3020 RMK CF2SC2AC4CI1 SHWRS E SLP226
2001 11 28 01 METAR CYVR 280100Z 08009KT 20SM FEW015 SCT025 OVC069 05/01 A3016 RMK CF2SC2AC4 SLP213
2001 11 28 02 METAR CYVR 280200Z 11006KT 20SM FEW015 FEW025 SCT035 OVC072 05/01 A3015 RMK CF1SC2SC2AC4 SLP209
2001 11 28 03 METAR CYVR 280300Z 09010KT 20SM FEW015 FEW035 BKN050 OVC072 05/01 A3012 RMK CF1SC2SC3AC2 SLP198
2001 11 28 04 METAR CYVR 280400Z 09007KT 15SM -SHRA FEW015 BKN021 OVC050 04/02 A3008 RMK CF2SC5SC2 -SHRA VRY LGT SLP185
2001 11 28 05 METAR CYVR 280500Z 09007KT 15SM -SHRA FEW015 SCT020 OVC050 04/02 A3004 RMK CF2SC2SC4 -SHRA VRY LGT SLP171
2001 11 28 06 METAR CYVR 280600Z 08008KT 15SM FEW020 BKN045 OVC072 04/02 A3000 RMK SC2SC3AC2 SLP157
2001 11 28 07 METAR CYVR 280700Z 08007KT 15SM BKN039 OVC072 04/02 A2996 RMK SC6AC2 SLP145
2001 11 28 08 METAR CYVR 280800Z 08008KT 20SM FEW040 SCT052 OVC065 04/01 A2989 RMK SC2SC2SC4 PRESFR SLP121
2001 11 28 09 METAR CYVR 280900Z 11008KT 20SM SCT040 OVC100 04/01 A2983 RMK SC3AC5 VIRGA PRESFR SLP101
2001 11 28 10 METAR CYVR 281000Z 10012KT 20SM FEW040 OVC062 05/01 A2976 RMK SC2SC6 VIRGA PRESFR SLP077
2001 11 28 11 METAR CYVR 281100Z 09020KT 15SM -RA BKN042 OVC060 06/M00 A2969 RMK SC5SC3 PRESFR SLP055
2001 11 28 12 METAR CYVR 281200Z 10017G24KT 12SM -RA BKN025 OVC040 05/01 A2965 RMK SC6SC2 SLP039
2001 11 28 13 METAR CYVR 281300Z 10013G18KT 8SM -RA FEW012 BKN023 OVC040 04/01 A2958 RMK SF2SC6SC1 PRESFR SLP016
2001 11 28 14 METAR CYVR 281400Z 10015KT 6SM -RA BR SCT012 OVC022 03/01 A2946 RMK SF3SC5 PRESFR SLP977
2001 11 28 15 METAR CYVR 281500Z 09016G23KT 4SM -RA BR SCT010 BKN013 OVC020 03/01 A2935 RMK SF3ST2SC2 PRESFR SLP940
2001 11 28 16 METAR CYVR 281600Z 09018G25KT 4SM -RA BR SCT009 BKN011 OVC022 02/01 A2928 RMK SF3ST2SC2 SLP914
2001 11 28 17 METAR CYVR 281700Z 10018G24KT 4SM -RA BR SCT009 BKN013 OVC022 03/02 A2921 RMK SF3ST2SC2 PRESFR SLP890
2001 11 28 18 METAR CYVR 281800Z 09020G25KT 6SM -RA BR SCT012 BKN016 OVC024 03/02 A2914 RMK SF3ST3SC2 PRESFR SLP869
2001 11 28 19 METAR CYVR 281900Z 10016G22KT 6SM -RA BR FEW012 SCT016 OVC022 04/02 A2911 RMK SF2ST2SC4 SLP859
2001 11 28 20 METAR CYVR 282000Z 10018G24KT 6SM -RA BR SCT011 BKN018 OVC022 04/02 A2911 RMK SF3ST3SC2 SLP858
2001 11 28 21 METAR CYVR 282100Z 10015KT 6SM -RA BR SCT012 BKN016 OVC022 04/03 A2912 RMK SF3ST3SC2 SLP862
2001 11 28 22 METAR CYVR 282200Z 09016G21KT 6SM -RA BR FEW009 SCT012 BKN016 OVC023 04/03 A2912 RMK SF2ST2ST2SC2 SLP862
2001 11 28 23 METAR CYVR 282300Z 09016KT 6SM -RA BR FEW010 OVC022 04/03 A2912 RMK SF2SC6 SLP861
2001 11 29 00 METAR CYVR 290000Z 09017KT 6SM -RA BR SCT010 OVC025 04/03 A2913 RMK SF3SC5 SLP864
2001 11 29 01 METAR CYVR 290100Z 09010KT 6SM -RA BR SCT010 OVC023 04/03 A2913 RMK SF3SC5 SLP863
2001 11 29 02 METAR CYVR 290200Z 10013G18KT 6SM -RA BR SCT010 OVC025 05/03 A2911 RMK SF3SC5 SLP858
2001 11 29 03 METAR CYVR 290300Z 11013KT 6SM -RA BR SCT010 OVC026 05/03 A2911 RMK SF3SC5 SLP856
2001 11 29 04 METAR CYVR 290400Z 10011KT 6SM -RA BR SCT010 OVC026 05/04 A2911 RMK SF3SC5 SLP857
2001 11 29 05 METAR CYVR 290500Z 11012G17KT 6SM -RA BR SCT010 OVC026 05/04 A2911 RMK SF3SC5 SLP859
2001 11 29 06 METAR CYVR 290600Z 09012KT 10SM -RA SCT010 OVC026 05/04 A2912 RMK SF3SC5 SLP861
2001 11 29 07 METAR CYVR 290700Z 09013KT 10SM SCT010 OVC023 06/04 A2914 RMK SF3SC5 SLP866
2001 11 29 08 METAR CYVR 290800Z 10009KT 10SM -SHRA FEW010 BKN024 OVC040 06/04 A2914 RMK SF2SC4SC2 SLP869
2001 11 29 09 METAR CYVR 290900Z 09007KT 10SM -SHRA FEW012 BKN023 OVC040 05/04 A2915 RMK SF2SC4SC2 SLP870
2001 11 29 10 METAR CYVR 291000Z 09006KT 10SM -SHRA FEW012 BKN019 OVC040 05/04 A2917 RMK SF2SC4SC2 SLP878
2001 11 29 11 METAR CYVR 291100Z 09013KT 8SM -RA SCT012 BKN018 OVC035 05/04 A2919 RMK SF4SF2SC2 SLP886
2001 11 29 12 METAR CYVR 291200Z 09009KT 5SM -RA BR SCT006 OVC015 05/04 A2921 RMK SF4SF4 SLP892
2001 11 29 13 METAR CYVR 291300Z 09011KT 6SM -RA BR FEW006 BKN014 OVC025 05/04 A2924 RMK SF1SF5SC3 SLP901
2001 11 29 14 METAR CYVR 291400Z 17003KT 6SM -RA BR FEW006 BKN013 OVC020 05/04 A2927 RMK SF2SF3SC2 SLP913
2001 11 29 15 METAR CYVR 291500Z 30023KT 3SM -RA BR BKN008 BKN012 OVC019 05/04 A2932 RMK SF5SF2SC2 SLP928
2001 11 29 16 METAR CYVR 291600Z 30026G33KT 4SM -RA BR BKN012 OVC025 04/02 A2936 RMK SF5SC3 SLP941
2001 11 29 17 METAR CYVR 291700Z CCA 30028G33KT 12SM SCT015 SCT025 BKN045 04/00 A2940 RMK SF3SC1SC1 CLRNG FM NW SLP955
2001 11 29 18 METAR CYVR 291800Z 29031G37KT 20SM FEW015 FEW025 SCT100 04/M01 A2944 RMK SF2SC1AC1 SLP968
2001 11 29 19 METAR CYVR 291900Z 28036G44KT 30SM FEW015 FEW100 04/M02 A2946 RMK SF1AC1 SLP976
2001 11 29 20 METAR CYVR 292000Z 30034G40KT 30SM FEW015 FEW030 FEW100 04/M02 A2950 RMK SF1CU1AC1 TR SF SLP991
2001 11 29 21 METAR CYVR 292100Z 29033G39KT 30SM FEW030 FEW120 04/M03 A2955 RMK SC2AC1 SLP007
2001 11 29 22 METAR CYVR 292200Z 29030G36KT 30SM FEW030 FEW120 SCT220 04/M03 A2959 RMK SC2AC1CI1 SLP019
2001 11 29 23 METAR CYVR 292300Z 29025KT 30SM FEW030 FEW100 BKN180 04/M03 A2964 RMK SF1AC1AC4 TR SF SLP037
2001 11 30 00 METAR CYVR 300000Z 29017G24KT 30SM FEW030 FEW045 BKN140 04/M03 A2968 RMK SF1SC1AC5 SLP051
2001 11 30 01 METAR CYVR 300100Z 30012G17KT 30SM FEW025 FEW045 BKN120 04/M03 A2971 RMK SC1SC1AC5 SLP060
2001 11 30 02 METAR CYVR 300200Z 31006KT 30SM BKN035 BKN120 04/M03 A2973 RMK SC5AC2 SLP068
2001 11 30 03 METAR CYVR 300300Z 00000KT 30SM BKN035 BKN120 04/M03 A2974 RMK SC5AC2 SLP072
2001 11 30 04 METAR CYVR 300400Z 13005KT 20SM FEW025 BKN040 BKN120 04/M02 A2975 RMK SC2SC4AC1 SLP075
2001 11 30 04 METAR CYVR 300400Z 13005KT 20SM FEW025 BKN040 BKN120 04/M02 A2975 RMK SC2SC4AC1 SLP075
2001 11 30 06 METAR CYVR 300600Z 09010KT 15SM -SHRA FEW012 SCT025 OVC041 02/00 A2976 RMK SF2SC2SC4 SLP077
2001 11 30 07 METAR CYVR 300700Z 09011KT 15SM -SHRA FEW015 SCT025 OVC043 02/00 A2975 RMK SF2SC2SC5 SLP073
2001 11 30 08 METAR CYVR 300800Z 07010KT 15SM -SHRA FEW015 FEW025 OVC045 02/00 A2972 RMK SF1SC2SC6 MOON DMLY VSBL SLP064
2001 11 30 09 METAR CYVR 300900Z 07013KT 12SM -RA FEW015 OVC025 03/00 A2969 RMK SF2SC6 SLP053
2001 11 30 10 METAR CYVR 301000Z 09013G18KT 12SM -RA FEW012 OVC023 03/01 A2966 RMK SF2SC6 -RA INTMT SLP044
2001 11 30 11 METAR CYVR 301100Z 09020G26KT 10SM -RA FEW012 OVC023 03/01 A2963 RMK SF2SC6 SLP032
2001 11 30 12 METAR CYVR 301200Z 10018G24KT 8SM -RA FEW011 BKN017 OVC023 02/01 A2961 RMK SF2SF3SC2 SLP025
2001 11 30 13 METAR CYVR 301300Z 09015G21KT 8SM -RA FEW006 FEW015 OVC020 02/01 A2960 RMK SF2SF1SC6 SLP023
2001 11 30 14 METAR CYVR 301400Z 09014KT 8SM -RA FEW008 BKN016 OVC020 02/01 A2960 RMK SF2SF5SC2 SLP023
2001 11 30 15 METAR CYVR 301500Z 10014G19KT 10SM FEW008 OVC012 03/01 A2960 RMK SF2SC6 SLP024
2001 11 30 16 METAR CYVR 301600Z 09012KT 10SM FEW008 BKN012 OVC072 03/02 A2961 RMK SF2SC5AC2 VSBY LWR NE BR SLP025
2001 11 30 17 METAR CYVR 301700Z 10012KT 6SM -SHRA FEW008 OVC014 04/03 A2961 RMK SF2SC6 SLP027
2001 11 30 18 METAR CYVR 301800Z 09013KT 10SM FEW008 BKN014 OVC072 04/03 A2962 RMK SF2SC5AC1 SLP029
2001 11 30 19 METAR CYVR 301900Z 10012KT 10SM FEW008 BKN014 OVC072 04/03 A2961 RMK SF2ST6AC1 VSBY HIER SE-W SLP028
2001 11 30 20 METAR CYVR 302000Z 08013KT 10SM FEW008 BKN017 OVC040 04/03 A2961 RMK SF2SC5SC2 VSBY LWR N SLP025
2001 11 30 21 METAR CYVR 302100Z 09011KT 12SM FEW008 BKN016 BKN022 OVC060 05/04 A2960 RMK SF2SF4SC2SC1 VSBY HIER S-W SLP022
2001 11 30 22 METAR CYVR 302200Z 10012KT 10SM FEW008 OVC017 05/04 A2958 RMK SF2SC6 SLP018
2001 11 30 23 METAR CYVR 302300Z 08012G17KT 15SM FEW010 BKN018 BKN048 BKN080 BKN220 06/04 A2957 RMK SF1SC4SC1AC1CI1 SLP012
2001 12 01 00 METAR CYVR 010000Z 10013KT 15SM FEW010 SCT020 BKN052 BKN080 OVC220 06/04 A2956 RMK SF1SC3SC2AC1CI1 SLP009
2001 12 01 01 METAR CYVR 010100Z 09012G17KT 15SM FEW010 SCT020 BKN050 OVC080 06/03 A2953 RMK SF1SC3SC2AC2 SLP000
2001 12 01 02 METAR CYVR 010200Z 10012KT 10SM -RA FEW010 BKN022 OVC038 05/04 A2951 RMK SF2SC3SC2 SLP992
2001 12 01 03 METAR CYVR 010300Z 10014KT 8SM -RA FEW012 OVC022 05/04 A2948 RMK SF2SC6 SLP981
2001 12 01 04 METAR CYVR 010400Z 10015KT 6SM -RA BR SCT012 OVC022 05/03 A2945 RMK SF3SC5 SLP971
2001 12 01 05 METAR CYVR 010500Z 09014G19KT 6SM -RA BR SCT012 OVC022 04/03 A2941 RMK SF3SC5 SLP959
2001 12 01 06 METAR CYVR 010600Z 08018G23KT 6SM -RA BR SCT012 OVC022 04/03 A2937 RMK SF3SC5 SLP944
2001 12 01 07 METAR CYVR 010700Z 08016G25KT 6SM -RA BR SCT012 OVC022 05/03 A2932 RMK SF3SC5 SLP928
2001 12 01 08 METAR CYVR 010800Z 09018G25KT 8SM -RA FEW012 BKN025 OVC035 05/03 A2926 RMK SF2SC4SC2 PRESFR SLP907
2001 12 01 09 METAR CYVR 010900Z 09019G25KT 6SM -RA BR FEW012 BKN025 OVC034 06/04 A2919 RMK SF2SC4SC2 PRESFR SLP883
2001 12 01 10 METAR CYVR 011000Z 09020G27KT 10SM -RA FEW012 BKN027 OVC040 05/04 A2915 RMK SF2SC5SC2 SLP870
2001 12 01 11 METAR CYVR 011100Z 10021G26KT 12SM -SHRA FEW012 BKN020 OVC050 05/04 A2911 RMK SF2SC4SC2 SLP858
2001 12 01 12 METAR CYVR 011200Z 10019G25KT 15SM FEW012 BKN025 BKN055 BKN093 06/04 A2908 RMK SF1SC5SC1AC1 SLP848
2001 12 01 13 METAR CYVR 011300Z 11015G21KT 12SM -SHRA FEW010 BKN025 BKN086 06/04 A2906 RMK SF2SC3AC2 SLP842
2001 12 01 14 METAR CYVR 011400Z 13016G28KT 15SM FEW010 SCT025 BKN060 OVC090 09/06 A2905 RMK SF1SC3SC2AC2 SLP837
2001 12 01 15 METAR CYVR 011500Z 14016G22KT 12SM FEW010 SCT025 OVC060 08/06 A2904 RMK SF2SC2SC4 OCNL RW- SLP833
2001 12 01 16 METAR CYVR 011600Z 15019G29KT 10SM -SHRA BKN025 OVC060 09/06 A2903 RMK SC6SC2 RW- OCNL SLP831
2001 12 01 17 METAR CYVR 011700Z 15022G30KT 10SM -SHRA BKN026 BKN060 08/06 A2904 RMK SC5SC2 SLP835
2001 12 01 18 METAR CYVR 011800Z 15017G26KT 20SM FEW025 SCT042 BKN071 BKN120 09/06 A2906 RMK SF2SC2AC2AC1 CIG VSBY LWR N-NE SLP840
2001 12 01 19 METAR CYVR 011900Z 15017G24KT 20SM FEW025 SCT042 BKN068 OVC120 09/06 A2906 RMK SF2SC2AC3AC1 SLP842
2001 12 01 20 METAR CYVR 012000Z 15015G31KT 20SM FEW025 SCT042 BKN068 BKN120 09/05 A2907 RMK SF2SC2AC2AC1 SLP844
2001 12 01 21 METAR CYVR 012100Z 14025G31KT 20SM FEW025 BKN042 BKN068 BKN210 09/06 A2906 RMK SF2SC2AC2CI1 SHWRS NE SLP841
2001 12 01 22 METAR CYVR 012200Z 15025G36KT 20SM FEW025 SCT042 BKN081 OVC120 09/05 A2905 RMK SF2SC2AC3AC1 SHWRS N VIRGA S SLP836
2001 12 01 23 METAR CYVR 012300Z 14026G33KT 20SM FEW030 SCT058 BKN083 OVC120 10/05 A2904 RMK CF2SC2AC3AC1 SHWRS N-NE SLP835
2001 12 02 00 METAR CYVR 020000Z 14019G29KT 20SM FEW023 BKN042 OVC058 09/05 A2907 RMK CF2SC3SC2 SHWRS N-NE SLP843
2001 12 02 01 METAR CYVR 020100Z 16022G32KT 20SM FEW024 BKN058 OVC080 09/04 A2908 RMK CF2SC4AC2 SLP848
2001 12 02 02 METAR CYVR 020200Z 16017G22KT 15SM -SHRA FEW020 BKN035 OVC053 08/06 A2912 RMK SC2SC3SC3 SLP860
2001 12 02 03 METAR CYVR 020300Z 16010G15KT 15SM -SHRA FEW016 BKN038 OVC050 08/07 A2915 RMK SF2SC3SC3 SLP872
2001 12 02 04 METAR CYVR 020400Z 17009KT 15SM -SHRA FEW015 BKN036 OVC052 08/06 A2920 RMK SF1SC5SC2 SLP887
2001 12 02 05 METAR CYVR 020500Z 18013G18KT 12SM -SHRA FEW015 BKN033 OVC050 08/06 A2925 RMK SF1SC6SC2 SLP904
2001 12 02 06 METAR CYVR 020600Z 29019G24KT 15SM FEW009 BKN019 OVC035 06/05 A2931 RMK SF2SC4SC2 PRESRR SLP926
2001 12 02 07 METAR CYVR 020700Z 28013G18KT 12SM -SHRA FEW009 SCT018 OVC034 06/04 A2939 RMK SF2SC2SC4 PRESRR SLP953
2001 12 02 08 METAR CYVR 020800Z 26012G18KT 5SM -SHRA BR BKN018 OVC036 06/04 A2947 RMK SF6SC2 TCU ASOCTD PRESRR SLP978
2001 12 02 09 METAR CYVR 020900Z 25008KT 8SM -SHRA FEW010 SCT017 OVC035 05/03 A2952 RMK SF2SF2SC4 PRESRR SLP995
2001 12 02 10 METAR CYVR 021000Z 24005KT 8SM -SHRA SCT018 OVC031 05/03 A2958 RMK SF3SC5 PRESRR SLP015
2001 12 02 11 METAR CYVR 021100Z 16002KT 10SM FEW022 OVC032 05/02 A2963 RMK SF2SC6 PRESRR SLP033
2001 12 02 12 METAR CYVR 021200Z 07005KT 12SM FEW022 SCT031 OVC055 04/03 A2966 RMK SF1SC3SC4 SLP042
2001 12 02 13 METAR CYVR 021300Z 04007KT 20SM SCT030 BKN055 05/01 A2968 RMK SC3SC3 SLP050
2001 12 02 14 METAR CYVR 021400Z 09007KT 20SM FEW055 02/01 A2967 RMK SC2 SLP047
2001 12 02 15 METAR CYVR 021500Z 06004KT 20SM FEW055 FEW120 03/01 A2966 RMK SC2AC1 SLP044
2001 12 02 16 METAR CYVR 021600Z 06009KT 20SM FEW035 FEW055 SCT120 03/01 A2964 RMK SC1SC2AC1 SLP038
2001 12 02 17 METAR CYVR 021700Z 06007KT 20SM SCT062 BKN220 04/02 A2963 RMK SC3CI0 SLP032
2001 12 02 18 METAR CYVR 021800Z 06008KT 30SM FEW062 BKN220 05/03 A2961 RMK SC2CI2 SLP028
2001 12 02 19 METAR CYVR 021900Z 07005KT 30SM BKN062 BKN220 05/03 A2959 RMK SC5CI1 SLP019
2001 12 02 20 METAR CYVR 022000Z 33007KT 30SM FEW062 BKN230 06/03 A2957 RMK SC2CI5 SLP013
2001 12 02 21 METAR CYVR 022100Z 32012KT 30SM FEW062 SCT150 OVC230 06/02 A2955 RMK SC2AC2CI4 SLP006
2001 12 02 22 METAR CYVR 022200Z 32015KT 30SM FEW062 SCT150 BKN230 06/03 A2952 RMK SC1AC2CI3 SLP995
2001 12 02 23 METAR CYVR 022300Z 31014KT 30SM FEW061 BKN160 06/02 A2950 RMK SC2AS5 SLP988
2001 12 03 00 METAR CYVR 030000Z 30018KT 30SM BKN160 BKN220 05/01 A2948 RMK AS5CI2 SLP984
2001 12 03 01 METAR CYVR 030100Z 30016G24KT 30SM BKN160 BKN220 05/02 A2949 RMK AS5CI1 SLP987
2001 12 03 02 METAR CYVR 030200Z 30020G26KT 30SM BKN160 05/01 A2950 RMK AS6 SLP990
2001 12 03 03 METAR CYVR 030300Z 31017G24KT 30SM BKN160 05/02 A2951 RMK AS6 SLP992
2001 12 03 04 METAR CYVR 030400Z 30020G25KT 30SM BKN160 05/02 A2953 RMK AS4 SLP998
2001 12 03 05 METAR CYVR 030500Z 30019KT 30SM SCT160 BKN240 04/02 A2954 RMK AS2CI2 SLP002
2001 12 03 06 METAR CYVR 030600Z 31017KT 30SM SCT160 BKN240 04/02 A2956 RMK AS2CI2 SLP009
2001 12 03 07 METAR CYVR 030700Z 31013KT 30SM FEW160 BKN240 04/01 A2958 RMK AS2CI2 SLP017
2001 12 03 08 METAR CYVR 030800Z 31013G18KT 30SM FEW160 SCT240 03/01 A2961 RMK AC2CI1 SLP025
2001 12 03 09 METAR CYVR 030900Z 31015KT 30SM FEW020 FEW140 SCT240 03/00 A2963 RMK SC1AC1CI0 SLP033
2001 12 03 10 METAR CYVR 031000Z 30013KT 30SM FEW020 SCT240 02/M00 A2966 RMK SC1CI1 SLP042
2001 12 03 11 METAR CYVR 031100Z 31010KT 30SM FEW023 02/M01 A2969 RMK SC1 SLP053
2001 12 03 12 METAR CYVR 031200Z 31008KT 30SM FEW020 FEW045 02/M01 A2971 RMK SC1SC1 SLP062
2001 12 03 13 METAR CYVR 031300Z 34003KT 30SM FEW020 FEW045 01/M03 A2975 RMK SC2SC1 SLP073
2001 12 03 14 METAR CYVR 031400Z 02004KT 30SM FEW020 FEW045 M00/M03 A2977 RMK SC1SC1 SLP082
2001 12 03 15 METAR CYVR 031500Z 36003KT 30SM FEW020 FEW045 00/M03 A2981 RMK SF1SC2 SLP094
2001 12 03 16 METAR CYVR 031600Z 00000KT 30SM FEW020 SCT045 SCT220 00/M02 A2985 RMK SF1SC2CI0 VIRGA SW-W SLP107
2001 12 03 17 METAR CYVR 031700Z 21003KT 30SM FEW030 SCT045 BKN220 02/M01 A2987 RMK CU2SC2CI0 VIRGA SE-W SLP114
2001 12 03 18 METAR CYVR 031800Z 24009KT 30SM FEW029 SCT047 BKN220 03/01 A2989 RMK CU2SC2CI0 VIRGA SLP123
2001 12 03 19 METAR CYVR 031900Z 24005KT 30SM FEW029 FEW047 FEW220 04/01 A2991 RMK CU1SC1CI1 VIRGA E SLP128
2001 12 03 20 METAR CYVR 032000Z 21003KT 30SM FEW030 FEW047 FEW080 FEW220 05/M00 A2992 RMK CU1SC1AC1CI1 TR SC AC. SLP132
2001 12 03 21 METAR CYVR 032100Z 21004KT 30SM FEW030 SCT047 SCT140 BKN220 06/00 A2992 RMK CU2SC1AC1CI0 SLP133
2001 12 03 22 METAR CYVR 032200Z 20003KT 30SM SCT038 BKN140 BKN220 05/M02 A2992 RMK SC3AC2CI2 CU EMBDD SLP133
2001 12 03 23 METAR CYVR 032300Z 13003KT 30SM FEW025 BKN038 OVC140 05/00 A2991 RMK SF1SC4AC2 SLP127
2001 12 04 00 METAR CYVR 040000Z 09006KT 30SM FEW022 SCT038 OVC100 04/00 A2989 RMK SF1SC3AC4 VIRGA SW-W SLP123
2001 12 04 01 METAR CYVR 040100Z 08012KT 30SM FEW020 SCT040 BKN060 OVC100 04/00 A2986 RMK SF1SC2SC3AC2 PRESFR VIRGA SLP111
2001 12 04 02 METAR CYVR 040200Z 10011G19KT 10SM -RASN FEW015 BKN020 OVC060 04/01 A2984 RMK SF2SF3SC2 SLP106
2001 12 04 03 METAR CYVR 040300Z 11012KT 5SM -RASN BR SCT011 OVC020 03/01 A2984 RMK SF3SF5 SLP103
2001 12 04 04 METAR CYVR 040400Z 07011KT 5SM -RASN BR SCT009 OVC020 02/01 A2979 RMK SF3SF5 SLP089
2001 12 04 05 METAR CYVR 040500Z 09018KT 5SM -RASN BR SCT009 OVC015 02/01 A2974 RMK SF3SF5 PRESFR SLP070
2001 12 04 06 METAR CYVR 040600Z 09014KT 2 1/2SM -SN SCT009 VV012 01/M00 A2971 RMK SF3SN5 SLP061
2001 12 04 07 METAR CYVR 040700Z 08015KT 3SM -RASN SCT008 VV014 01/M00 A2970 RMK SF3SN5 SLP058
2001 12 04 08 METAR CYVR 040800Z 07005KT 10SM SCT008 BKN019 OVC027 01/00 A2969 RMK SF3SC3SC2 VSBY LWR N-E SLP055
2001 12 04 09 METAR CYVR 040900Z 00000KT 15SM SCT008 SCT019 BKN027 OVC047 01/00 A2971 RMK SF3SC1SC2SC2 LWR CLD NW-NE SLP059
2001 12 04 10 METAR CYVR 041000Z 34005KT 15SM FEW008 SCT019 SCT027 BKN047 01/00 A2973 RMK SF2SC2SC1SC2 LWR CLD NW-NE SLP068
2001 12 04 11 METAR CYVR 041100Z 31007KT 15SM FEW008 FEW020 SCT027 SCT047 01/M00 A2976 RMK SF1SC2SC1SC1 SLP076
2001 12 04 12 METAR CYVR 041200Z 30008KT 15SM FEW008 BKN020 02/00 A2976 RMK SF2SC5 SLP078
2001 12 04 13 METAR CYVR 041300Z 31007KT 15SM FEW008 BKN020 02/00 A2977 RMK SF2SC5 SLP082
2001 12 04 14 METAR CYVR 041400Z 09004KT 15SM FEW008 BKN020 01/M00 A2979 RMK SF2SC4 SLP087
2001 12 04 15 METAR CYVR 041500Z 09006KT 15SM FEW010 BKN020 01/M00 A2980 RMK SF2SC5 SLP091
2001 12 04 16 METAR CYVR 041600Z 11003KT 15SM FEW010 BKN018 BKN180 01/00 A2982 RMK SF1SC6AC1 SLP096
2001 12 04 17 METAR CYVR 041700Z 09007KT 15SM BKN023 BKN170 BKN240 02/01 A2982 RMK SC5AC2CI0 SLP097
2001 12 04 18 METAR CYVR 041800Z 08007KT 15SM FEW010 BKN026 BKN180 02/01 A2982 RMK SF1SC5AC2 SLP097
2001 12 04 19 METAR CYVR 041900Z 08009KT 15SM FEW015 BKN032 BKN180 03/01 A2981 RMK SC2SC3AC0 SLP094
2001 12 04 20 METAR CYVR 042000Z 07007KT 15SM BKN029 OVC120 04/01 A2980 RMK SC6AC2 SLP090
2001 12 04 21 METAR CYVR 042100Z 07007KT 12SM FEW015 BKN025 OVC120 04/01 A2979 RMK SC2SC3AC3 SLP086
2001 12 04 22 METAR CYVR 042200Z 08007KT 10SM -SHRA FEW015 BKN020 BKN060 OVC120 04/02 A2977 RMK SC2SC3SC1AC2 SLP081
2001 12 04 23 METAR CYVR 042300Z 09010G15KT 8SM -SHRA FEW008 SCT014 BKN018 OVC040 03/01 A2977 RMK SF2SC2SC3SC1 VSBY NW-NE 6 SLP081
2001 12 05 00 METAR CYVR 050000Z 05008KT 15SM FEW009 FEW015 SCT022 BKN035 BKN080 03/01 A2976 RMK SF1SF2SC2SC2AC1 SHWRS DSNT NW SLP078
2001 12 05 01 METAR CYVR 050100Z 08010KT 8SM -SHRA FEW009 BKN020 OVC030 02/01 A2976 RMK SF1SC5SC2 SLP078
2001 12 05 02 METAR CYVR 050200Z 08009KT 15SM FEW012 SCT027 OVC040 02/01 A2975 RMK SF2SC2SC4 SLP074
2001 12 05 03 METAR CYVR 050300Z 08010KT 15SM FEW012 SCT026 BKN048 02/01 A2975 RMK SF1SC3SC3 SLP073
2001 12 05 04 METAR CYVR 050400Z 08008KT 15SM FEW012 FEW027 BKN056 BKN120 02/01 A2974 RMK SF1SC2SC2AC1 SLP070
2001 12 05 05 METAR CYVR 050500Z 07009KT 12SM FEW012 SCT025 BKN054 03/01 A2973 RMK SF2SC2SC4 SLP066
2001 12 05 06 METAR CYVR 050600Z 09010KT 8SM -SHRA FEW008 BKN025 OVC060 03/01 A2972 RMK SF2SC3SC2 SLP063
2001 12 05 07 METAR CYVR 050700Z 08010KT 15SM FEW009 SCT042 OVC071 03/01 A2971 RMK SF1SC3AC4 SLP061
2001 12 05 08 METAR CYVR 050800Z 05005KT 15SM FEW009 SCT040 OVC070 03/01 A2971 RMK SF1SC2AC5 SLP061
2001 12 05 09 METAR CYVR 050900Z 08005KT 15SM FEW010 SCT034 OVC070 03/02 A2971 RMK SF2SC2AC4 SLP061
2001 12 05 10 METAR CYVR 051000Z 01003KT 12SM -SHRA FEW010 FEW025 BKN040 OVC070 03/02 A2972 RMK SF1SC2SC3AC2 SLP063
2001 12 05 11 METAR CYVR 051100Z 35004KT 8SM -SHRA FEW010 SCT020 BKN040 OVC070 03/02 A2972 RMK SF2SC2SC2AC1 SLP065
2001 12 05 12 METAR CYVR 051200Z 25002KT 10SM -SHRA FEW010 SCT018 BKN036 OVC055 03/02 A2974 RMK SF2SC2SC3SC2 RW- INTMT SLP069
2001 12 05 13 METAR CYVR 051300Z 29006KT 10SM -SHRA FEW010 SCT018 BKN042 OVC060 03/02 A2974 RMK SF1SC3SC2SC1 SLP072
2001 12 05 14 METAR CYVR 051400Z 35003KT 15SM FEW010 FEW018 BKN045 02/00 A2976 RMK SF1SC2SC3 SLP077
2001 12 05 15 METAR CYVR 051500Z 31007KT 15SM FEW010 FEW025 02/M00 A2978 RMK SF1SC2 SLP085
2001 12 05 16 METAR CYVR 051600Z 36006KT 15SM FEW010 SCT025 02/M02 A2980 RMK SF1SC2 SLP091
2001 12 05 17 METAR CYVR 051700Z 36004KT 15SM FEW012 FEW025 BKN034 BKN070 02/M01 A2983 RMK SF1SC2SC2AC1 SLP100
2001 12 05 16 METAR CYVR 051600Z 36006KT 15SM FEW010 SCT025 02/M02 A2980 RMK SF1SC2 SLP091
2001 12 05 19 METAR CYVR 051900Z 11005KT 12SM FEW012 BKN030 04/02 A2986 RMK SF1SC6 VSBY S-NW 30. SLP112
2001 12 05 20 METAR CYVR 052000Z 10007KT 15SM FEW012 BKN034 04/02 A2986 RMK SF1SC6 VSBY SW-NW 30 SLP111
2001 12 05 21 METAR CYVR 052100Z 11010KT 10SM FEW012 BKN030 OVC100 04/02 A2986 RMK SF1SC6AS1 VSBY S-W 30. SLP112
2001 12 05 22 METAR CYVR 052200Z 10007KT 10SM -RA FEW010 SCT018 OVC030 04/02 A2988 RMK SF1SC3SC4 VSBY S-W 30. SLP117
2001 12 05 23 METAR CYVR 052300Z 10011KT 15SM FEW011 FEW018 BKN032 OVC080 04/02 A2987 RMK SF1SC2SC4AC2 SHWRS DSNT W SLP113
2001 12 06 00 METAR CYVR 060000Z 09010KT 10SM VCSH SCT014TCU BKN023 BKN035 OVC070 03/02 A2986 RMK TCU3SC2SC2AC1 SHWRS ALQDS SLP111
2001 12 06 01 METAR CYVR 060100Z 10010KT 8SM -RA FEW008 BKN016 OVC035 03/02 A2984 RMK SF2SC2SC3 SLP104
2001 12 06 02 METAR CYVR 060200Z 09008KT 10SM -RA FEW008 SCT018 BKN048 OVC100 04/03 A2982 RMK SF1SC2SC2AC2 SLP097
2001 12 06 03 METAR CYVR 060300Z 08011KT 8SM -RA FEW008 BKN016 OVC045 04/02 A2981 RMK SF2SC4SC2 SLP093
2001 12 06 04 METAR CYVR 060400Z 09014KT 6SM -RA BR FEW006 BKN015 OVC024 03/02 A2979 RMK SF2SC4SC2 SLP086
2001 12 06 05 METAR CYVR 060500Z 08014KT 4SM -RA BR SCT006 OVC016 03/02 A2974 RMK SF3SC5 RERA SLP070
2001 12 06 06 METAR CYVR 060600Z 09019KT 4SM -RA BR FEW006 SCT015 OVC025 03/02 A2970 RMK SF2SC2SC4 SLP056
2001 12 06 07 METAR CYVR 060700Z 10017G22KT 5SM -RA BR FEW006 BKN015 OVC023 03/01 A2966 RMK SF2SC3SC2 SLP043
2001 12 06 08 METAR CYVR 060800Z 09010G16KT 5SM -RA BR FEW006 BKN015 OVC024 03/01 A2967 RMK SF2SC4SC2 SLP047
2001 12 06 09 METAR CYVR 060900Z 10010KT 5SM -RA BR FEW008 FEW015 OVC027 02/01 A2967 RMK SF1SC2SC6 SLP048
2001 12 06 09 METAR CYVR 060900Z 10010KT 5SM -RA BR FEW008 FEW015 OVC027 02/01 A2967 RMK
2001 12 06 11 METAR CYVR 061100Z 08010KT 8SM FEW006 SCT010 BKN020 OVC040 02/01 A2971 RMK SF1SF2SC3SC1 SLP062
2001 12 06 12 METAR CYVR 061200Z 08011KT 10SM FEW008 FEW025 OVC085 03/02 A2973 RMK SF1SC2AC5 SLP067
2001 12 06 13 METAR CYVR 061300Z 09004KT 12SM FEW008 FEW025 OVC075 03/02 A2975 RMK SF1SC1AC6 SLP073
2001 12 06 14 METAR CYVR 061400Z 07008KT 12SM FEW009 FEW020 BKN060 OVC090 04/02 A2976 RMK SF2SC1SC2AC2 SLP076
2001 12 06 15 METAR CYVR 061500Z 07008KT 10SM -SHRA FEW008 SCT018 BKN033 OVC080 04/03 A2976 RMK SF2SC2SC2AC2 PCPN VRY LGT SLP079
2001 12 06 16 METAR CYVR 061600Z 10005KT 15SM VCSH FEW009 FEW020 BKN035 BKN075 05/04 A2979 RMK SF1SC2SC3AC2 SHWRS E SLP086
2001 12 06 17 METAR CYVR 061700Z 16012KT 15SM -SHRA FEW009 FEW024 BKN035 BKN070 06/05 A2980 RMK SF1SC2SC4AC1 SLP092
2001 12 06 16 METAR CYVR 061600Z 10005KT 15SM VCSH FEW009 FEW020 BKN035 BKN075 05/04 A2979 RMK SF1SC2SC3AC2 SHWRS E SLP086
2001 12 06 19 METAR CYVR 061900Z 18013KT 15SM -SHRA FEW012 FEW025 BKN042 BKN090 07/05 A2985 RMK SF1SC2SC3AC2 SLP109
2001 12 06 20 METAR CYVR 062000Z 19009G16KT 20SM -SHRA FEW012 FEW030 BKN045 BKN090 BKN210 08/05 A2987 RMK SF1SC2SC2AC2CI1 SHWRS VRY LGT SLP116
2001 12 06 21 METAR CYVR 062100Z 23009G16KT 20SM FEW015 FEW030 BKN080 BKN150 BKN220 08/05 A2990 RMK CF1SC2AC2AC1CI1 SLP126
2001 12 06 22 METAR CYVR 062200Z 32003KT 20SM FEW015 FEW035 BKN078 BKN150 BKN220 08/05 A2995 RMK CF1SC2AC2AC1CI0 SLP142
2001 12 06 23 METAR CYVR 062300Z 31002KT 20SM SCT035 BKN083 BKN150 09/05 A2999 RMK SC3AC2AC1 SLP155
2001 12 07 00 METAR CYVR 070000Z 33002KT 20SM FEW015 SCT035 BKN071 07/05 A3005 RMK SF1SC2AC2 VIRGA N PRESRR SLP176
2001 12 07 01 METAR CYVR 070100Z 31004KT 20SM FEW015 FEW035 SCT080 06/04 A3010 RMK SF1SC2AC1 PRESRR SLP191
2001 12 07 02 METAR CYVR 070200Z 27010KT 20SM FEW015 FEW037 FEW080 06/04 A3014 RMK SF1SC1AC1 TR CLD SLP205
2001 12 07 03 METAR CYVR 070300Z 26013KT 20SM FEW015 FEW037 SCT070 06/04 A3018 RMK SF1SC1AC2 SLP221
2001 12 07 04 METAR CYVR 070400Z 28010KT 20SM FEW015 FEW035 SCT070 06/04 A3024 RMK SF1SC2AC2 SLP240
2001 12 07 05 METAR CYVR 070500Z 28011KT 20SM FEW015 FEW035 BKN050 06/04 A3028 RMK SF1SC1SC5 PRESRR SLP255
2001 12 07 06 METAR CYVR 070600Z 26011KT 20SM FEW035 SCT050 SCT080 06/03 A3031 RMK SC1SC2AC1 SLP265
2001 12 07 07 METAR CYVR 070700Z 26013KT 20SM FEW035 06/04 A3034 RMK SC1 SLP275
2001 12 07 08 METAR CYVR 070800Z 26009KT 20SM FEW025 04/02 A3038 RMK SC1 SLP288
2001 12 07 09 METAR CYVR 070900Z 00000KT 20SM FEW025 BKN110 06/04 A3042 RMK SC2AC4 SLP301
2001 12 07 10 METAR CYVR 071000Z 15003KT 20SM FEW025 BKN110 05/04 A3045 RMK SC2AC6 SLP311
2001 12 07 11 METAR CYVR 071100Z 07006KT 20SM FEW025 BKN110 03/02 A3049 RMK SC1AC6 SLP324
2001 12 07 12 METAR CYVR 071200Z 06007KT 20SM FEW025 OVC100 04/03 A3049 RMK SC2AC6 SLP325
2001 12 07 13 METAR CYVR 071300Z 07006KT 20SM FEW025 OVC100 04/03 A3050 RMK SC2AC6 SLP327
2001 12 07 14 METAR CYVR 071400Z 09006KT 20SM FEW020 SCT100 BKN150 03/02 A3049 RMK SC2AC2AC1 SLP325
2001 12 07 15 METAR CYVR 071500Z 09008KT 20SM FEW020 FEW060 BKN100 BKN220 04/02 A3049 RMK SC2SC1AC3CI1 SLP323
2001 12 07 16 METAR CYVR 071600Z 09007KT 20SM BKN011 BKN090 BKN220 05/03 A3049 RMK SC5AC2CI0 SLP326
2001 12 07 17 METAR CYVR 071700Z 08006KT 20SM FEW011 FEW025 SCT090 BKN140 BKN220 06/04 A3051 RMK SC1SC2AC1AS2CI0 CU EMBDD ACC/CC ASOCTD SLP330
2001 12 07 18 METAR CYVR 071800Z 10008KT 20SM FEW013 SCT050 BKN082 BKN140 BKN220 07/05 A3051 RMK SC2SC2AC2AS2CI0 VIRGA CU EMBDD SLP332
2001 12 07 19 METAR CYVR 071900Z 11006KT 20SM FEW018 BKN038 BKN140 OVC220 07/04 A3051 RMK SC2SC3AS2CI0 CU EMBDD SLP330
2001 12 07 20 METAR CYVR 072000Z 12008KT 20SM FEW018 BKN046 BKN080 OVC220 07/05 A3050 RMK CF2SC4AC2CI0 SLP327
2001 12 07 21 METAR CYVR 072100Z 10007KT 20SM FEW018 BKN048 BKN068 OVC220 07/04 A3049 RMK CF1SC4AC2CI0 SLP323
2001 12 07 22 METAR CYVR 072200Z 10009KT 15SM FEW025 BKN050 BKN070 OVC220 07/04 A3046 RMK CF2SC2AC2CI0 SLP314
2001 12 07 23 METAR CYVR 072300Z 10009KT 15SM FEW018 FEW025 OVC050 07/04 A3043 RMK SF1SC2SC6 SLP304
2001 12 08 00 METAR CYVR 080000Z 08011KT 15SM FEW018 BKN050 OVC100 07/04 A3039 RMK SF2SC5AC2 SLP292
2001 12 08 01 METAR CYVR 080100Z 09012KT 15SM FEW018 BKN047 BKN058 OVC100 07/04 A3036 RMK SF2SC4SC2AC1 SLP280
2001 12 08 02 METAR CYVR 080200Z 08008KT 12SM -SHRA FEW018 SCT050 OVC055 07/04 A3035 RMK SF2SC2SC4 SLP278
2001 12 08 03 METAR CYVR 080300Z 07009KT 8SM -SHRA FEW015 FEW025 OVC052 06/05 A3033 RMK SF2SC1SC6 SLP269
2001 12 08 04 METAR CYVR 080400Z 07009KT 15SM FEW015 FEW025 BKN052 OVC100 06/04 A3031 RMK SF1SC2SC4AC2 SLP264
2001 12 08 05 METAR CYVR 080500Z 06007KT 15SM FEW025 BKN051 OVC100 06/04 A3029 RMK SC2SC5AC2 SLP257
2001 12 08 06 METAR CYVR 080600Z 08009KT 15SM FEW025 BKN050 OVC075 06/04 A3027 RMK SC2SC6AC1 SLP250
2001 12 08 07 METAR CYVR 080700Z 09003KT 15SM FEW030 BKN050 OVC075 06/04 A3025 RMK SC2SC5AC2 SLP244
2001 12 08 08 METAR CYVR 080800Z 06007KT 10SM -SHRA FEW025 BKN050 OVC075 06/04 A3022 RMK SC2SC5AC2 SLP233
2001 12 08 09 METAR CYVR 080900Z 06006KT 10SM -SHRA FEW025 BKN042 OVC060 06/04 A3018 RMK SC2SC4SC2 SLP218
2001 12 08 10 METAR CYVR 081000Z 07009KT 10SM -SHRA FEW025 SCT045 OVC065 06/05 A3013 RMK SC2SC2SC4 SLP202
2001 12 08 11 METAR CYVR 081100Z 08010KT 10SM -SHRA FEW025 SCT045 OVC060 06/04 A3009 RMK SC1SC2SC5 SLP190
2001 12 08 12 METAR CYVR 081200Z 07011KT 10SM -SHRA FEW025 SCT040 OVC055 05/04 A3005 RMK SC1SC2SC5 SLP174
2001 12 08 13 METAR CYVR 081300Z 07009KT 10SM -RA FEW025 SCT035 OVC055 06/04 A3000 RMK SC2SC2SC4 SLP158
2001 12 08 14 METAR CYVR 081400Z 08012KT 10SM -RA FEW025 SCT032 OVC055 06/05 A2994 RMK SC2SC2SC4 SLP139
2001 12 08 15 METAR CYVR 081500Z 08013KT 8SM -RA SCT025 BKN035 OVC055 06/05 A2991 RMK SC3SC3SC2 SLP129
2001 12 08 16 METAR CYVR 081600Z 07012KT 6SM -RA FEW025 BKN040 OVC055 06/05 A2987 RMK SC2SC3SC2 SLP113
2001 12 08 17 METAR CYVR 081700Z 08010G15KT 6SM -RA FEW025 BKN037 OVC055 06/05 A2984 RMK SC2SC3SC2 SLP105
2001 12 08 18 METAR CYVR 081800Z 09012KT 6SM -RA FEW020 OVC032 07/06 A2984 RMK SF2SC6 SLP103
2001 12 08 19 METAR CYVR 081900Z 10013KT 6SM -RA FEW020 OVC032 07/06 A2982 RMK SF2SC6 SLP098
2001 12 08 20 METAR CYVR 082000Z 09010KT 6SM -RA FEW020 BKN032 OVC072 07/06 A2981 RMK SF2SC5AC2 SLP094
2001 12 08 21 METAR CYVR 082100Z 10007KT 8SM -RA FEW012 SCT030 BKN050 OVC070 07/07 A2981 RMK SF2SC2SC3AC2 SML BINOVC DSNT W VSBY S-W 20 SLP093
2001 12 08 22 METAR CYVR 082200Z 21008KT 12SM FEW012 FEW030 SCT050 BKN070 08/06 A2980 RMK SF1SC1SC2AC3 OCNL -SHRA VSBY HIR S-W SLP092
2001 12 08 23 METAR CYVR 082300Z 22008G15KT 15SM FEW012 FEW030 SCT050 BKN084 BKN120 08/05 A2983 RMK SF1SC2SC2AC3AC1 SML BRKS DSNT W SHWRS E SLP102
2001 12 09 00 METAR CYVR 090000Z 20004KT 20SM FEW012 FEW030 SCT057 BKN085 BKN140 08/05 A2985 RMK SF1SC1SC2AC2AC2 SHWRS DSNT E SLP109
2001 12 09 01 METAR CYVR 090100Z 27005KT 20SM FEW012 FEW045 BKN060 BKN150 07/05 A2988 RMK SF1SC2SC2AC2 SLP117
2001 12 09 02 METAR CYVR 090200Z 29014KT 20SM FEW015 FEW035 BKN052 OVC150 07/05 A2990 RMK SF1SC2SC4AC2 SLP126
2001 12 09 03 METAR CYVR 090300Z 27021KT 20SM FEW030 BKN079 OVC150 07/05 A2992 RMK SF2AC4AC2 SLP132
2001 12 09 04 METAR CYVR 090400Z 28018G26KT 20SM FEW030 FEW090 SCT150 BKN240 06/04 A2993 RMK SC1AC2AC2CI0 SLP136
2001 12 09 05 METAR CYVR 090500Z 28022KT 20SM FEW050 FEW075 BKN110 BKN240 06/03 A2998 RMK SC1AC2AC3CI0 SLP151
2001 12 09 06 METAR CYVR 090600Z 29029KT 20SM FEW075 FEW110 06/01 A3000 RMK AC1AC2 SLP158
2001 12 09 07 METAR CYVR 090700Z 29027G32KT 30SM FEW075 FEW150 05/01 A3002 RMK AC1AC1 SLP164
2001 12 09 08 METAR CYVR 090800Z 29029G36KT 30SM FEW100 05/00 A3005 RMK AC2 SLP175
2001 12 09 09 METAR CYVR 090900Z 30024G34KT 30SM FEW100 05/M00 A3006 RMK AC1 SLP179
2001 12 09 10 METAR CYVR 091000Z 30024G32KT 30SM FEW100 FEW240 05/M01 A3010 RMK AC1CI0 SLP194
2001 12 09 11 METAR CYVR 091100Z 30027G32KT 30SM FEW040 FEW100 FEW240 05/M00 A3012 RMK SC1AC1CI1 SLP199
2001 12 09 12 METAR CYVR 091200Z 30021G33KT 30SM FEW040 FEW220 04/00 A3014 RMK SC1CI1 SLP206
2001 12 09 13 METAR CYVR 091300Z 29027G33KT 30SM FEW040 FEW220 04/M00 A3014 RMK SC1CI1 TR SC SLP207
2001 12 09 14 METAR CYVR 091400Z 30022G30KT 30SM FEW040 FEW200 04/M00 A3016 RMK SC1CI2 TR SC SLP213
2001 12 09 15 METAR CYVR 091500Z 31018G26KT 30SM FEW040 FEW220 04/M00 A3018 RMK SC1CI1 SLP218
2001 12 09 16 METAR CYVR 091600Z 05003KT 30SM FEW018 FEW040 SCT160 SCT220 02/M01 A3021 RMK CF1SC1AC2CI0 SLP229
2001 12 09 17 METAR CYVR 091700Z 03003KT 30SM FEW018 FEW035 SCT160 BKN220 02/M01 A3025 RMK CF1SC2AC2CI0 SLP242
2001 12 09 18 METAR CYVR 091800Z 04002KT 30SM FEW018 FEW035 SCT160 BKN220 05/M00 A3026 RMK CF1SC2AC2CI0 SLP247
2001 12 09 19 METAR CYVR 091900Z 27004KT 30SM FEW018 FEW035 BKN220 06/00 A3027 RMK CF1SC2CI0 SLP249
2001 12 09 20 METAR CYVR 092000Z 27004KT 30SM FEW018 FEW035 SCT220 06/M00 A3026 RMK CF1SC2CI1 SLP248
2001 12 09 21 METAR CYVR 092100Z 28005KT 30SM FEW018 FEW035 BKN180 BKN220 06/00 A3025 RMK CF1SC2AC2CI0 SLP243
2001 12 09 22 METAR CYVR 092200Z 31003KT 30SM FEW035 BKN180 BKN220 05/01 A3024 RMK SC2AC4CI1 SLP240
2001 12 09 23 METAR CYVR 092300Z 00000KT 30SM FEW044 BKN160 OVC220 05/00 A3024 RMK SC2AC5CI1 VIRGA N SLP240
2001 12 10 00 METAR CYVR 100000Z 05003KT 30SM FEW045 SCT100 OVC160 05/M00 A3023 RMK SC1AC2AC5 SLP236
2001 12 10 01 METAR CYVR 100100Z 09007KT 30SM BKN082 OVC130 04/M01 A3020 RMK AC5AC3 SLP227
2001 12 10 02 METAR CYVR 100200Z 09010KT 30SM FEW027 FEW045 BKN065 OVC120 04/01 A3017 RMK SC1SC1AC5AC2 SLP215
2001 12 10 03 METAR CYVR 100300Z 10010KT 15SM -RA FEW030 OVC052 05/02 A3013 RMK SC2SC6 VRY LGT R SLP202
2001 12 10 04 METAR CYVR 100400Z 17008KT 15SM -RA BKN022 OVC047 05/03 A3012 RMK SC6SC2 SLP199
2001 12 10 05 METAR CYVR 100500Z 15008KT 12SM -RA SCT019 OVC029 04/03 A3009 RMK SF4SC4 SLP188
2001 12 10 06 METAR CYVR 100600Z 12009KT 10SM -RA SCT014 OVC018 04/02 A3003 RMK SF4SC4 SLP170
2001 12 10 07 METAR CYVR 100700Z 13014KT 10SM -RA BKN016 OVC027 04/02 A2999 RMK SF5SC3 SLP156
2001 12 10 08 METAR CYVR 100800Z 08011G16KT 8SM -RA FEW008 BKN014 OVC040 02/01 A2997 RMK SF2SC6SC1 SLP148
2001 12 10 09 METAR CYVR 100900Z 08011G16KT 8SM -RA FEW008 BKN013 OVC025 02/01 A2993 RMK SF2SC5SC2 SLP136
2001 12 10 10 METAR CYVR 101000Z 09012KT 8SM -RASN FEW009 BKN014 OVC022 02/01 A2991 RMK SF2SC4SC2 SLP128
2001 12 10 11 METAR CYVR 101100Z 09011KT 6SM -RA BR FEW009 BKN015 OVC027 02/01 A2990 RMK SF2SC4SC2 SLP125
2001 12 10 12 METAR CYVR 101200Z 08010KT 4SM -RA BR FEW009 BKN015 OVC022 02/01 A2989 RMK SF2SC6SC1 SLP122
2001 12 10 13 METAR CYVR 101300Z 08010KT 5SM -RA BR FEW009 OVC016 03/02 A2988 RMK SF2SC6 SLP118
2001 12 10 14 METAR CYVR 101400Z 07010KT 5SM -RA BR FEW008 OVC018 03/02 A2986 RMK SF2SC6 SLP112
2001 12 10 15 METAR CYVR 101500Z 07009KT 5SM -RA BR FEW008 OVC016 03/02 A2986 RMK SF2SC6 SLP111
2001 12 10 16 METAR CYVR 101600Z 07008KT 8SM FEW008 OVC017 03/02 A2985 RMK SF1SC7 SLP108
2001 12 10 17 METAR CYVR 101700Z 07009KT 8SM -RA FEW006 OVC017 04/02 A2985 RMK SF1SC7 VRY LGT R SLP109
2001 12 10 18 METAR CYVR 101800Z 07007KT 3SM -RA BR FEW006 OVC017 03/02 A2986 RMK SF2SC6 SLP112
2001 12 10 19 METAR CYVR 101900Z 07006KT 5SM -RA BR FEW006 OVC024 03/02 A2987 RMK SF2SC6 SLP115
2001 12 10 20 METAR CYVR 102000Z 03005KT 3SM -RA BR FEW006 OVC014 03/02 A2988 RMK SF2SC6 SLP118
2001 12 10 21 METAR CYVR 102100Z 29002KT 6SM -RA BR FEW006 BKN014 OVC025 04/02 A2988 RMK SF2SC3SC2 SLP117
2001 12 10 22 METAR CYVR 102200Z 32007KT 8SM FEW008 SCT014 BKN020 OVC045 04/03 A2988 RMK SF1SF2SC2SC2 SLP119
2001 12 10 23 METAR CYVR 102300Z 30003KT 8SM -RA FEW008 SCT014 BKN020 OVC032 04/03 A2988 RMK SF2SF2SC2SC2 SLP118
2001 12 11 00 METAR CYVR 110000Z 32002KT 12SM FEW009 BKN015 BKN032 OVC050 05/03 A2989 RMK SF2SC4SC2SC1 SLP123
2001 12 11 01 METAR CYVR 110100Z 36003KT 15SM FEW009 FEW015 BKN024 BKN050 OVC110 05/03 A2990 RMK SF1SC2SC3SC2AC1 SLP126
2001 12 11 02 METAR CYVR 110200Z 00000KT 15SM FEW006 FEW025 SCT050 05/02 A2992 RMK SF1SC2SC1 SLP130
2001 12 11 03 METAR CYVR 110300Z 08004KT 8SM FEW003 SCT017 03/02 A2992 RMK SF1SC3 FG BNK DSNT E SLP132
2001 12 11 04 METAR CYVR 110400Z 09004KT 8SM FEW002 BKN020 02/02 A2992 RMK SF2SC4 VSBY N 4 IN FG SLP133
2001 12 11 05 METAR CYVR 110500Z 10007KT 4SM BR FEW002 SCT006 OVC018 04/03 A2991 RMK SF2SF2SC4 SLP129
2001 12 11 06 METAR CYVR 110600Z 10005KT 8SM FEW002 BKN005 OVC018 04/03 A2994 RMK SF2SF6SC1 VSBY N 4 SLP137
2001 12 11 07 METAR CYVR 110700Z 08006KT 6SM BR FEW003 BKN007 OVC020 04/03 A2992 RMK SF2SF4SC2 SLP131
2001 12 11 08 METAR CYVR 110800Z 08009KT 6SM -SHRA BR FEW005 BKN010 OVC023 04/02 A2992 RMK SF2SF4SC2 SHWRS VRY LGT SLP130
2001 12 11 09 METAR CYVR 110900Z 08010KT 8SM FEW008 BKN015 OVC047 03/02 A2990 RMK SF1SC4SC3 SLP126
2001 12 11 10 METAR CYVR 111000Z 08007KT 10SM FEW009 BKN016 OVC040 03/02 A2993 RMK SF1SC6SC2 SLP136
2001 12 11 11 METAR CYVR 111100Z 09008KT 6SM -SHRA BR FEW009 BKN017 OVC035 03/02 A2992 RMK SF2SC3SC3 SLP130
2001 12 11 12 METAR CYVR 111200Z 09010KT 8SM -SHRA SCT009 OVC018 03/02 A2989 RMK SF3SC5 SLP123
2001 12 11 13 METAR CYVR 111300Z 08010KT 6SM -SHRA BR BKN009 OVC020 03/02 A2989 RMK SF6SC2 SLP120
2001 12 11 14 METAR CYVR 111400Z 08009KT 4SM -RA BR FEW006 BKN011 OVC018 03/02 A2988 RMK SF2SF4SC2 SLP118
2001 12 11 15 METAR CYVR 111500Z 08007KT 4SM -RA BR SCT006 BKN010 OVC018 03/02 A2987 RMK SF3SF3SC2 SLP115
2001 12 11 16 METAR CYVR 111600Z 07011KT 4SM -RA BR FEW006 BKN013 OVC018 03/02 A2988 RMK SF2SF3SC2 SLP117
2001 12 11 17 METAR CYVR 111700Z 06008KT 8SM -RA FEW008 SCT015 BKN025 OVC048 03/02 A2989 RMK SF2SC2SC2SC3 SLP123
2001 12 11 18 METAR CYVR 111800Z 07008KT 15SM FEW015 SCT022 BKN050 BKN080 04/02 A2992 RMK SF1SC3SC2AC1 SLP130
2001 12 11 19 METAR CYVR 111900Z 07006KT 15SM FEW008 BKN023 BKN050 05/03 A2992 RMK CF1SC6SC1 SLP130
2001 12 11 20 METAR CYVR 112000Z 08005KT 20SM FEW012 FEW023 BKN038 05/03 A2992 RMK CF1SC2SC2 SLP131
2001 12 11 21 METAR CYVR 112100Z 00000KT 30SM FEW018 FEW038 FEW210 07/02 A2993 RMK CF2SC1CI1 SLP135
2001 12 11 22 METAR CYVR 112200Z 32006KT 30SM FEW008 FEW018 FEW038 06/03 A2993 RMK CF1CF2SC1 SLP134
2001 12 11 23 METAR CYVR 112300Z 31006KT 30SM FEW008 FEW018 FEW038 FEW200 06/02 A2994 RMK CF1CU1SC1CI1 TR CF/CU SLP138
2001 12 12 00 METAR CYVR 120000Z 32008KT 30SM FEW018 FEW038 FEW200 04/02 A2998 RMK CF1SC1CI1 TR CF/SC SLP152
2001 12 12 01 METAR CYVR 120100Z 34003KT 30SM FEW018 FEW200 03/M00 A2999 RMK CF1CI1 TR CLD. SLP156
2001 12 12 02 METAR CYVR 120200Z 34005KT 30SM FEW018 03/01 A3000 RMK CF1 SLP160
2001 12 12 03 METAR CYVR 120300Z 02004KT 30SM SKC 02/00 A3003 RMK SLP169
2001 12 12 04 METAR CYVR 120400Z 10003KT 30SM SKC 02/00 A3004 RMK SLP172
2001 12 12 05 METAR CYVR 120500Z 09005KT 30SM SKC 01/M00 A3006 RMK SLP178
2001 12 12 06 METAR CYVR 120600Z CCA 09004KT 30SM SKC M00/M01 A3007 RMK K THIN LYR 010 SLP181
2001 12 12 07 METAR CYVR 120700Z 11004KT 30SM MIFG SKC 01/00 A3008 RMK SLP186
2001 12 12 08 METAR CYVR 120800Z 08005KT 30SM FEW015 M00/M02 A3010 RMK SF2 SLP192
2001 12 12 09 METAR CYVR 120900Z 09004KT 30SM FEW010 BKN032 00/M01 A3012 RMK SF2SC5 SLP199
2001 12 12 10 METAR CYVR 121000Z 10009KT 30SM FEW010 SCT022 OVC033 01/00 A3011 RMK SF1SC2SC5 SLP196
2001 12 12 11 METAR CYVR 121100Z 08009KT 30SM FEW022 OVC033 02/01 A3011 RMK SC2SC6 SLP197
2001 12 12 12 METAR CYVR 121200Z 10007KT 20SM FEW020 OVC034 02/01 A3010 RMK SC2SC6 SLP193
2001 12 12 13 METAR CYVR 121300Z 08008KT 20SM FEW020 OVC032 02/01 A3009 RMK SC2SC6 SLP189
2001 12 12 14 METAR CYVR 121400Z 08009KT 20SM FEW028 OVC034 03/01 A3007 RMK SC2SC6 SLP182
2001 12 12 15 METAR CYVR 121500Z 07009KT 20SM FEW028 OVC035 03/01 A3006 RMK SC2SC6 SLP180
2001 12 12 16 METAR CYVR 121600Z 07007KT 10SM -RA SCT023 OVC030 03/02 A3006 RMK SC4SC4 SLP178
2001 12 12 17 METAR CYVR 121700Z 08005KT 4SM -RA BR SCT015 OVC020 03/03 A3004 RMK SC4SC4 SLP171
2001 12 12 18 METAR CYVR 121800Z 07009KT 6SM -RA BR FEW015 OVC020 04/03 A3002 RMK SC2SC6 SLP167
2001 12 12 19 METAR CYVR 121900Z 07012KT 5SM -RA BR SCT015 OVC021 04/03 A3000 RMK SC3SC5 SLP158
2001 12 12 20 METAR CYVR 122000Z 08013G18KT 8SM -RA SCT015 OVC018 04/03 A2996 RMK SF3SC5 SLP146
2001 12 12 21 METAR CYVR 122100Z 08013G18KT 8SM -RA FEW014 OVC019 04/02 A2993 RMK SF2SC6 SLP135
2001 12 12 22 METAR CYVR 122200Z 07015KT 5SM -RA BR SCT014 OVC018 03/02 A2989 RMK SF4SC4 SLP122
2001 12 12 23 METAR CYVR 122300Z 08017KT 8SM -RA OVC018 03/02 A2987 RMK SF8 CIG RGD SLP113
2001 12 13 00 METAR CYVR 130000Z 08016KT 8SM -RA OVC018 03/02 A2983 RMK SF8 CIG RGD SLP102
2001 12 13 01 METAR CYVR 130100Z 08014G19KT 8SM -RA OVC015 04/02 A2979 RMK SF8 CIG RGD SLP087
2001 12 13 02 METAR CYVR 130200Z 09012G18KT 3SM -RA BR OVC011 04/03 A2976 RMK SF8 CIG RGD SLP078
2001 12 13 03 METAR CYVR 130300Z 08013KT 2SM -RA BR SCT007 OVC011 04/04 A2974 RMK SF3SF5 SLP070
2001 12 13 04 METAR CYVR 130400Z 08014G19KT 2SM -RA BR FEW003 SCT008 OVC014 05/04 A2971 RMK SF2SF2SF4 SLP061
2001 12 13 05 METAR CYVR 130500Z 09011KT 1 1/2SM -RA BR SCT003 OVC009 05/04 A2971 RMK SF3SF5 SLP060
2001 12 13 06 METAR CYVR 130600Z 09012KT 1 1/2SM -RA BR FEW003 OVC008 05/05 A2970 RMK SF2SF6 SLP057
2001 12 13 07 METAR CYVR 130700Z 09010KT 3SM -DZ BR OVC006 05/05 A2969 RMK SF8 CIG RGD SLP052
2001 12 13 08 METAR CYVR 130800Z 09012KT 10SM SCT006 BKN010 OVC025 05/05 A2967 RMK SF2SF2SC4 SLP047
2001 12 13 09 METAR CYVR 130900Z 08009KT 15SM SCT008 BKN025 BKN051 06/05 A2966 RMK SF3SC2SC2 SLP042
2001 12 13 10 METAR CYVR 131000Z 05005KT 15SM FEW008 BKN025 OVC048 06/06 A2967 RMK SF2SC2SC3 SLP047
2001 12 13 11 METAR CYVR 131100Z 07008KT 15SM FEW008 SCT025 BKN050 OVC070 06/05 A2966 RMK SF2SF2SC3AC2 SLP044
2001 12 13 12 METAR CYVR 131200Z 07009KT 15SM FEW025 SCT050 OVC150 06/05 A2966 RMK SF2SC2AC4 SLP043
2001 12 13 13 METAR CYVR 131300Z 07008KT 15SM FEW025 SCT041 OVC140 06/06 A2963 RMK SF2SC2AC4 SLP035
2001 12 13 14 METAR CYVR 131400Z 19015KT 10SM -RA FEW012 BKN039 OVC050 09/08 A2963 RMK SF2SC4SC2 SLP032
2001 12 13 15 METAR CYVR 131500Z 18011KT 4SM RA BR FEW012 SCT025 OVC034 08/07 A2962 RMK SF2SF2SC4 SLP030
2001 12 13 16 METAR CYVR 131600Z 16011KT 4SM -RA BR FEW012 SCT025 BKN034 OVC046 07/06 A2958 RMK SF2SF2SC3SC1 VSBY SW-W 30. RERA. SLP018
2001 12 13 17 METAR CYVR 131700Z 11007KT 4SM -RA BR SCT012 OVC030 07/06 A2957 RMK SF4SC4 SLP013
2001 12 13 18 METAR CYVR 131800Z 10008KT 3SM RA BR SCT012 OVC028 06/05 A2954 RMK SF4NS4 /R10/ PRESFR PST HR. SLP004
2001 12 13 19 METAR CYVR 131900Z 09006KT 3SM RA BR FEW005 SCT012 OVC029 06/05 A2946 RMK SF2SF2NS4 PRESFR SLP975
2001 12 13 20 METAR CYVR 132000Z 08013KT 3SM RA BR FEW005 SCT010 OVC025 06/06 A2937 RMK SF2SC2NS4 PRESFR SLP944
2001 12 13 21 METAR CYVR 132100Z 12016KT 4SM -RA BR BKN008 OVC020 07/07 A2929 RMK SF6SC2 PRESFR. SLP919
2001 12 13 22 METAR CYVR 132200Z 09019G27KT 4SM -RA BR FEW003 BKN008 OVC020 06/05 A2919 RMK SF1SF5SC2 PRESFR. SLP884
2001 12 13 23 METAR CYVR 132300Z 09016G22KT 1 1/2SM -RA BR FEW003 BKN008 OVC015 06/05 A2914 RMK SF1SF4SC3 PRESFR. SLP866
2001 12 14 00 METAR CYVR 140000Z 09014G21KT 4SM -RA BR FEW003 SCT008 OVC016 06/05 A2907 RMK SF2SF2SC4 PRESFR SLP844
2001 12 14 01 METAR CYVR 140100Z 09014G20KT 4SM -RA BR FEW003 SCT008 OVC014 06/05 A2901 RMK SF2SF2SC4 SLP824
2001 12 14 02 METAR CYVR 140200Z 08010G15KT 5SM -RA BR FEW003 SCT008 BKN012 OVC016 06/06 A2898 RMK SF2SF2SF2SC2 SLP813
2001 12 14 03 METAR CYVR 140300Z 09011KT 5SM -RA BR FEW003 SCT008 BKN011 OVC016 07/06 A2896 RMK SF2SF2SF2SC2 SLP806
2001 12 14 04 METAR CYVR 140400Z 07011G16KT 5SM -RA BR FEW005 BKN008 OVC016 06/06 A2893 RMK SF2SF4SC2 SLP798
2001 12 14 05 METAR CYVR 140500Z 08004KT 5SM -RA BR FEW005 BKN009 OVC016 07/07 A2893 RMK SF2SF4SC2 SLP795
2001 12 14 06 METAR CYVR 140600Z 29026G33KT 5SM -SHRA BR FEW004 BKN007 OVC016 06/05 A2897 RMK SF2SF5SC2 SLP811
2001 12 14 07 METAR CYVR 140700Z 28031G37KT 8SM FEW008 BKN017 BKN035 OVC065 06/04 A2903 RMK SF2SC2SC2SC2 SLP831
2001 12 14 08 METAR CYVR 140800Z 27034G39KT 10SM FEW015 OVC075 06/04 A2906 RMK SF2AC6 SLP839
2001 12 14 09 METAR CYVR 140900Z 28033G40KT 10SM FEW015 OVC075 06/04 A2912 RMK SF2AC6 PRESRR SLP862
2001 12 14 10 METAR CYVR 141000Z 29039G44KT 10SM FEW015 SCT075 OVC150 06/02 A2917 RMK SF1AC2AC5 SLP877
2001 12 14 11 METAR CYVR 141100Z 30041G51KT 10SM FEW015 FEW080 OVC150 06/00 A2923 RMK SF1AC2AC6 PRESRR SLP898
2001 12 14 12 METAR CYVR 141200Z CCA 30044G51KT 10SM OVC120 06/M01 A2924 RMK AC8 SLP915
2001 12 14 13 METAR CYVR 141300Z 29041G50KT 10SM FEW080 OVC120 05/M02 A2934 RMK AC2AC6 SLP935
2001 12 14 14 METAR CYVR 141400Z 29038G51KT 10SM SCT080 BKN120 05/M02 A2939 RMK AC4AC2 SLP951
2001 12 14 15 METAR CYVR 141500Z CCA 27040KT 15SM SCT085 BKN140 05/M03 A2944 RMK AC4AC2 WIND ESTIMATED-GUSTS TO 50KTS SLP968
2001 12 14 16 METAR CYVR 141600Z 29036G52KT 15SM FEW040 SCT085 BKN140 BKN250 05/M03 A2948 RMK CU2AC2AC2CI1 SLP983
2001 12 14 17 METAR CYVR 141700Z 29036G45KT 25SM FEW045 FEW085 BKN140 BKN250 05/M03 A2953 RMK CU1AC2AC2CI1 SLP998
2001 12 14 18 METAR CYVR 141800Z 30033G49KT 30SM FEW040 SCT075 BKN250 05/M03 A2955 RMK CU2AC2CI1 SLP007
2001 12 14 19 METAR CYVR 141900Z 30031G41KT 30SM FEW045 SCT080 05/M02 A2958 RMK SC2AC1 SLP018
2001 12 14 20 METAR CYVR 142000Z 30035G42KT 30SM SCT050 SCT080 06/M02 A2960 RMK SC3AC1 SLP024
2001 12 14 21 METAR CYVR 142100Z 30033G39KT 30SM FEW050 FEW080 SCT160 06/M02 A2963 RMK CU1AC2AC1 SLP035
2001 12 14 22 METAR CYVR 142200Z 29034G41KT 30SM FEW050 FEW080 SCT180 06/M01 A2966 RMK CU1AC2AC1 TCU SLP045
2001 12 14 23 METAR CYVR 142300Z 29031G37KT 30SM FEW050 FEW080 FEW210 05/M03 A2970 RMK CU1AC1CI1 SLP056
2001 12 15 00 METAR CYVR 150000Z 30022G28KT 30SM FEW050 FEW090 BKN230 05/M03 A2972 RMK CU1AC1CI3 SLP065
2001 12 15 01 METAR CYVR 150100Z 30018KT 30SM FEW090 BKN220 04/M02 A2975 RMK AC1CI4 SLP075
2001 12 15 02 METAR CYVR 150200Z 29012KT 30SM BKN220 03/M02 A2979 RMK CI5 SLP086
2001 12 15 03 METAR CYVR 150300Z 29005KT 30SM BKN170 OVC220 04/M03 A2980 RMK AC6CI2 SLP092
2001 12 15 04 METAR CYVR 150400Z 09006KT 30SM OVC150 03/M01 A2982 RMK AC8 VIRGA SLP097
2001 12 15 05 METAR CYVR 150500Z 10009KT 20SM OVC120 02/M00 A2983 RMK AC8 VIRGA SLP102
2001 12 15 06 METAR CYVR 150600Z 11005KT 20SM OVC090 03/M01 A2984 RMK AC8 VIRGA SLP106
2001 12 15 07 METAR CYVR 150700Z 08009KT 15SM -SHRA BKN040 OVC070 03/M00 A2985 RMK SC6AC2 SLP109
2001 12 15 08 METAR CYVR 150800Z 08009KT 10SM -SHRA FEW020 BKN035 OVC070 03/00 A2986 RMK SF2SC4AC2 RW- VERY LGT SLP112
2001 12 15 09 METAR CYVR 150900Z 07010KT 8SM -SHRA FEW025 OVC060 03/00 A2986 RMK SF2SC6 SLP112
2001 12 15 10 METAR CYVR 151000Z 08011KT 8SM -SHRA FEW012 OVC040 02/01 A2987 RMK SF2SC6 SLP116
2001 12 15 11 METAR CYVR 151100Z 09012KT 8SM -SHRA FEW015 BKN038 OVC045 02/01 A2987 RMK SF2SC2SC3 SLP114
2001 12 15 12 METAR CYVR 151200Z 10010KT 8SM -SHRA FEW030 SCT040 BKN080 OVC120 03/01 A2987 RMK SF2SC2AC2AS2 RW- VRY LGT SLP113
2001 12 15 13 METAR CYVR 151300Z 09009KT 8SM -SHRA FEW018 BKN034 OVC080 03/01 A2988 RMK SF2SC5AC2 SLP117
2001 12 15 14 METAR CYVR 151400Z 09012KT 8SM -SHRA BKN019 OVC035 03/01 A2988 RMK SC5SC3 SLP117
2001 12 15 15 METAR CYVR 151500Z 10011KT 6SM -SHRA BR BKN017 BKN027 OVC040 03/02 A2986 RMK SC5SC2SC2 SLP111
2001 12 15 16 METAR CYVR 151600Z 09012KT 6SM -SHRA BR SCT012 BKN016 OVC025 03/02 A2984 RMK SC3SC3SC2 SLP104
2001 12 15 17 METAR CYVR 151700Z 10010KT 6SM -SHRA BR SCT012 BKN016 OVC020 03/02 A2983 RMK SC3SC3SC2 SLP102
2001 12 15 18 METAR CYVR 151800Z 10015G21KT 6SM -SHRA BR SCT014 OVC019 04/02 A2982 RMK SC3SC5 SLP099
2001 12 15 19 METAR CYVR 151900Z 09012G17KT 6SM -SHRA BR SCT014 OVC020 04/02 A2982 RMK SC3SC5 SLP096
2001 12 15 20 METAR CYVR 152000Z 08016G21KT 4SM RA BR BKN013 OVC020 03/02 A2975 RMK SC5SC3 PRESFR SLP075
2001 12 15 21 METAR CYVR 152100Z 09020KT 4SM -RA BR BKN014 OVC020 02/01 A2969 RMK SC5SC3 PRESFR SLP053
2001 12 15 22 METAR CYVR 152200Z 09018G23KT 3SM RA BR FEW009 BKN011 OVC015 03/02 A2964 RMK ST2SC3SC3 SLP038
2001 12 15 23 METAR CYVR 152300Z 09017KT 5SM -RA BR FEW009 BKN014 OVC020 03/02 A2963 RMK ST2SC4SC2 SLP032
2001 12 16 00 METAR CYVR 160000Z 13023G32KT 5SM -RA BR FEW009 BKN018 OVC025 05/04 A2960 RMK ST2SC4SC2 SLP022
2001 12 16 01 METAR CYVR 160100Z 12020G27KT 5SM -RA BR FEW009 BKN020 OVC032 06/04 A2956 RMK ST2SC5SC2 SLP008
2001 12 16 02 METAR CYVR 160200Z 13026G31KT 8SM -RA FEW009 BKN020 OVC035 06/05 A2951 RMK ST2SC4SC2 SLP994
2001 12 16 03 METAR CYVR 160300Z 13015G22KT 10SM -RA FEW009 SCT022 OVC033 07/05 A2951 RMK ST2SC2SC4 SLP992
2001 12 16 04 METAR CYVR 160400Z 14019G25KT 10SM -RA FEW012 SCT022 OVC035 07/06 A2948 RMK ST2SC2SC4 SLP983
2001 12 16 05 METAR CYVR 160500Z 14020G30KT 10SM -RA FEW012 SCT020 OVC032 07/06 A2943 RMK CF2SC2SC5 SLP966
2001 12 16 06 METAR CYVR 160600Z 14020G28KT 10SM -RA FEW012 BKN025 OVC032 07/06 A2941 RMK CF2SC5SC2 SLP958
2001 12 16 07 METAR CYVR 160700Z 15024G31KT 10SM -RA FEW012 SCT025 OVC045 08/07 A2940 RMK CF2SC2SC4 SLP954
2001 12 16 08 METAR CYVR 160800Z 17023G33KT 10SM -RA FEW030 BKN048 OVC070 08/08 A2940 RMK CF2SC4AC2 SLP956
2001 12 16 09 METAR CYVR 160900Z 17019G25KT 15SM -RA FEW030 BKN060 09/08 A2942 RMK CF2SC3 SLP961
2001 12 16 10 METAR CYVR 161000Z 15014G20KT 25SM FEW025 BKN070 09/08 A2946 RMK CF2AC3 SLP976
2001 12 16 11 METAR CYVR 161100Z 13012KT 15SM FEW020 FEW050 BKN070 BKN170 10/09 A2949 RMK CF2SC1AC2AC1 SLP987
2001 12 16 12 METAR CYVR 161200Z 17015KT 20SM FEW020 FEW050 FEW070 SCT180 10/08 A2950 RMK SF1SF1AC1AC2 SLP991
2001 12 16 L METAR CYVR NIL
2001 12 16 14 METAR CYVR 161400Z 16013G19KT 15SM FEW020 SCT060 BKN069 10/08 A2953 RMK SF2SC2AC4 SLP999
2001 12 16 15 METAR CYVR 161500Z 16015G22KT 15SM FEW015 SCT060 BKN080 OVC100 10/09 A2953 RMK SF2SC2AC2AC2 SLP001
2001 12 16 16 METAR CYVR 161600Z 16016KT 15SM FEW015 SCT060 BKN140 OVC220 10/09 A2953 RMK SF2SC2AS3CS2 SLP999
2001 12 16 17 METAR CYVR 161700Z 13012KT 15SM FEW006 FEW015 BKN032 BKN080 OVC140 10/09 A2954 RMK SF2ST1SC2AC2AS2 SLP003
2001 12 16 18 METAR CYVR 161800Z 14013G18KT 15SM FEW006 SCT015 BKN035 BKN057 OVC080 10/09 A2951 RMK SF2SC2SC2SC2AC1 SLP993
2001 12 16 19 METAR CYVR 161900Z 14016G22KT 6SM -RA BR FEW007 SCT012 BKN040 OVC052 10/09 A2949 RMK SF2ST2SC2SC2 SLP985
2001 12 16 20 METAR CYVR 162000Z 14014G19KT 4SM -RA BR SCT007 BKN011 OVC040 10/09 A2944 RMK SF3ST3SC2 SLP970
2001 12 16 21 METAR CYVR 162100Z 14018KT 6SM -RA BR FEW007 SCT012 BKN040 OVC055 10/09 A2940 RMK SF2ST2SC3SC2 SLP956
2001 12 16 22 METAR CYVR 162200Z 14021G30KT 6SM -RA BR FEW007 FEW012 BKN035 OVC046 10/09 A2937 RMK SF1ST2SC3SC2 SLP945
2001 12 16 23 METAR CYVR 162300Z 14021G29KT 7SM -RA FEW010 BKN032 OVC045 10/09 A2935 RMK CF1SC4SC3 SLP937
2001 12 17 00 METAR CYVR 170000Z 13017G24KT 8SM -RA FEW010 BKN035 OVC050 10/09 A2931 RMK CF2SC3SC3 SLP925
2001 12 17 01 METAR CYVR 170100Z 14020G28KT 8SM -RA FEW010 BKN037 OVC055 10/09 A2926 RMK CF2SC3SC3 SLP909
2001 12 17 02 METAR CYVR 170200Z 16022G30KT 10SM -RA FEW012 BKN042 OVC060 10/09 A2926 RMK CF2SC4SC2 SLP908
2001 12 17 03 METAR CYVR 170300Z 17017G26KT 10SM -RA FEW014 SCT042 BKN060 OVC095 10/09 A2927 RMK CF2SC2SC3AC2 SLP910
2001 12 17 04 METAR CYVR 170400Z 19018G23KT 10SM -RA FEW015 SCT042 BKN065 OVC100 10/08 A2930 RMK CF2SC2SC2AC2 SLP921
2001 12 17 05 METAR CYVR 170500Z 23023KT 12SM FEW015 FEW045 SCT065 OVC100 09/06 A2935 RMK CF1SC2SC2AC4 SLP939
2001 12 17 06 METAR CYVR 170600Z CCA 23022KT 12SM FEW020 FEW045 OVC100 08/04 A2941 RMK SC2SC1AC6 PRESRR SLP960
2001 12 17 07 METAR CYVR 170700Z 25016G24KT 15SM FEW025 FEW070 BKN110 07/02 A2949 RMK SC1AC2AC2 PRESRR SLP986
2001 12 17 08 METAR CYVR 170800Z 23027G36KT 20SM FEW025 FEW070 06/M00 A2957 RMK SF1AC2 PRESRR SLP012
2001 12 17 09 METAR CYVR 170900Z 25017G26KT 20SM FEW025 FEW040 06/M02 A2969 RMK SF1SF2 PRESRR SLP052
2001 12 17 10 METAR CYVR 171000Z 25009G16KT 20SM FEW025 FEW050 SCT090 SCT110 05/M01 A2977 RMK SF1SC2AC1AC1 PRESRR SLP080
2001 12 17 11 METAR CYVR 171100Z 22015G20KT 20SM FEW040 FEW060 BKN080 04/M00 A2983 RMK SF1SC2AC3 SLP100
2001 12 17 12 METAR CYVR 171200Z 26024KT 20SM FEW040 FEW060 BKN080 05/M02 A2988 RMK SF1SF1AC3 SLP117
2001 12 17 13 METAR CYVR 171300Z 26012KT 20SM FEW030 SCT050 05/M03 A2993 RMK SF1SC3 SLP135
2001 12 17 14 METAR CYVR 171400Z 33005KT 20SM FEW040 03/M02 A2997 RMK SF2 SLP148
2001 12 17 15 METAR CYVR 171500Z 13005KT 20SM FEW030 SCT070 04/M02 A3000 RMK SF2AC2 SLP159
2001 12 17 16 METAR CYVR 171647Z 20014G20KT 6SM -SHRA BKN030 BKN080 RMK SF5AC2
2001 12 17 17 METAR CYVR 171700Z 20013G20KT 4SM -SHRA FEW009 BKN019 OVC030 04/M00 A3005 RMK SF1SC5SC2 SLP176
2001 12 17 18 METAR CYVR 171800Z 18012KT 10SM VCSH FEW009 BKN036 OVC080 04/01 A3006 RMK SF2SC3AC2 SLP179
2001 12 17 19 METAR CYVR 171900Z 18020KT 6SM -SHRA FEW009 SCT016 OVC030 04/01 A3006 RMK SF2SC2SC4 SLP178
2001 12 17 20 METAR CYVR 172000Z 19013G21KT 10SM FEW009 SCT016 SCT030 OVC056 05/01 A3005 RMK SF2SC2SC1SC4 OCNL RW- SLP175
2001 12 17 21 METAR CYVR 172100Z 18015G27KT 6SM -SHRA FEW009 BKN018 OVC030 04/01 A3007 RMK SF2SC3SC3 SLP181
2001 12 17 22 METAR CYVR 172200Z 17017KT 6SM -SHRA FEW009 BKN012 OVC030 04/01 A3006 RMK SF2SC3SC3 SLP179
2001 12 17 23 METAR CYVR 172300Z 16017KT 15SM -SHRA FEW009 BKN018 OVC035 04/02 A3006 RMK SF2SC4SC2 SHWRS VRY LGT SLP180
2001 12 18 00 METAR CYVR 180000Z 18015G22KT 10SM -SHRA FEW009 BKN022 BKN035 OVC060 04/01 A3007 RMK SF2SC3SC2SC2 SLP182
2001 12 18 01 METAR CYVR 180100Z 12004KT 15SM FEW015 SCT030 BKN045 BKN070 05/01 A3006 RMK SC2SC2SC2AC1 VIRGA N SLP178
2001 12 18 02 METAR CYVR 180200Z 12009KT 20SM FEW015 FEW030 SCT045 BKN100 05/02 A3006 RMK CF1SC2SC2AC2 SLP179
2001 12 18 03 METAR CYVR 180300Z 14012KT 20SM FEW015 FEW040 BKN110 BKN230 06/01 A3006 RMK CF1SC2AC2CI2 SLP178
2001 12 18 04 METAR CYVR 180400Z 10010KT 20SM FEW015 SCT032 BKN100 BKN230 04/01 A3005 RMK CF1SC2AC2CI1 SLP175
2001 12 18 05 METAR CYVR 180500Z 14012KT 20SM FEW025 FEW060 BKN120 OVC230 06/00 A3004 RMK SC2SC1AC4CI1 SLP173
2001 12 18 06 METAR CYVR 180600Z 11013G19KT 20SM FEW025 FEW055 OVC120 05/M00 A3003 RMK SC2SC1AC6 SLP170
2001 12 18 07 METAR CYVR 180700Z 10014KT 20SM FEW030 FEW060 OVC100 04/M01 A3002 RMK SC2SC1AC6 SLP164
2001 12 18 08 METAR CYVR 180800Z 09014KT 20SM FEW035 SCT080 BKN100 04/M00 A2999 RMK SC2AC2AC3 SLP154
2001 12 18 09 METAR CYVR 180900Z 08019G24KT 10SM -SHRA FEW035 BKN075 BKN100 04/M01 A2995 RMK SC2AC4AC2 PCPN VRY LGT SLP141
2001 12 18 10 METAR CYVR 181000Z 09018KT 10SM -SHRA FEW030 BKN065 OVC090 05/M01 A2991 RMK SC2SC5AC2 PCPN VRY LGT SLP129
2001 12 18 11 METAR CYVR 181100Z 10014G21KT 10SM -SHRA FEW030 BKN053 OVC090 05/M02 A2987 RMK SC2SC5AC2 PCPN VRY LGT SLP116
2001 12 18 12 METAR CYVR 181200Z 11016G25KT 15SM FEW025 OVC048 05/M01 A2982 RMK SC2SC6 SLP098
2001 12 18 13 METAR CYVR 181300Z 09023KT 15SM FEW030 BKN052 OVC070 05/M01 A2975 RMK SC1SC6AC2 SLP075
2001 12 18 14 METAR CYVR 181400Z 09023KT 20SM FEW025 OVC055 06/M01 A2972 RMK SC2SC6 SLP063
2001 12 18 15 METAR CYVR 181500Z 09019G25KT 10SM FEW025 OVC062 06/M01 A2968 RMK SC2SC6 SLP049
2001 12 18 16 METAR CYVR 181600Z 11027G35KT 8SM -RA FEW012 OVC030 06/M01 A2966 RMK SF2SC6 SLP044
2001 12 18 17 METAR CYVR 181700Z 11019G25KT 8SM -RA FEW012 OVC041 05/01 A2965 RMK SF2SC6 SLP041
2001 12 18 16 METAR CYVR 181600Z 11027G35KT 8SM -RA FEW012 OVC030 06/M01 A2966 RMK SF2SC6 SLP044
2001 12 18 19 METAR CYVR 181900Z 09014G19KT 10SM FEW012 OVC028 04/02 A2965 RMK SF2SC6 SLP041
2001 12 18 20 METAR CYVR 182000Z 10017G22KT 15SM FEW030 OVC070 05/02 A2961 RMK SF2AC5 SLP027
2001 12 18 21 METAR CYVR 182100Z 13024G30KT 15SM BKN025 OVC070 07/03 A2960 RMK SC5AC2 SLP022
2001 12 18 22 METAR CYVR 182200Z 14024G32KT 15SM BKN025 OVC065 07/03 A2961 RMK SC5AC2 SLP025
2001 12 18 23 METAR CYVR 182300Z 16020G29KT 12SM -SHRA BKN025 BKN045 OVC065 07/04 A2963 RMK SC5SC2SC2 OCNL LGT RASH SLP032
2001 12 19 00 METAR CYVR 190000Z 16022G29KT 15SM SCT025 BKN043 BKN083 07/04 A2963 RMK SC3SC2AC2 SLP035
2001 12 19 01 METAR CYVR 190100Z 18019KT 15SM FEW022 SCT042 BKN090 07/04 A2966 RMK SC2SC2AC3 SLP044
2001 12 19 02 METAR CYVR 190200Z 18017KT 15SM FEW022 FEW040 BKN100 07/04 A2971 RMK SC2SC1AC5 SLP061
2001 12 19 03 METAR CYVR 190300Z 18015KT 15SM FEW035 SCT075 BKN100 07/03 A2976 RMK SC1AC2AC4 SLP078
2001 12 19 04 METAR CYVR 190400Z 19020G25KT 15SM FEW030 SCT065 BKN100 OVC170 07/02 A2981 RMK SC2SC2AC2AC2 SLP095
2001 12 19 05 METAR CYVR 190500Z 20016G22KT 15SM FEW030 SCT065 BKN110 OVC170 07/01 A2986 RMK SC2SC2AC2AC3 SLP110
2001 12 19 06 METAR CYVR 190600Z 19013G19KT 15SM FEW030 BKN065 BKN110 OVC160 06/02 A2990 RMK SC2SC3AC2AC2 SLP124
2001 12 19 07 METAR CYVR 190700Z 20014KT 15SM FEW030 SCT065 BKN100 OVC160 06/01 A2993 RMK SC2SC2AC2AC2 SLP135
2001 12 19 08 METAR CYVR 190800Z 20009KT 15SM FEW030 SCT065 BKN140 06/01 A2995 RMK SC2SC2AC4 SLP141
2001 12 19 09 METAR CYVR 190900Z 18007KT 15SM FEW030 SCT070 BKN120 06/02 A2996 RMK SC2AC2AC4 SLP146
2001 12 19 10 METAR CYVR 191000Z 09002KT 12SM FEW030 BKN070 BKN120 05/02 A2999 RMK SC1AC4AC2 SLP154
2001 12 19 11 METAR CYVR 191100Z 24002KT 10SM -SHRA SCT030 OVC070 05/02 A3001 RMK SC4AC4 SLP163
2001 12 19 12 METAR CYVR 191200Z 18004KT 15SM FEW030 SCT070 BKN160 05/01 A3002 RMK SC2AC2AC2 SLP164
2001 12 19 13 METAR CYVR 191300Z 08005KT 15SM FEW030 FEW070 BKN160 02/00 A3002 RMK SC2AC1AC2 SLP167
2001 12 19 14 METAR CYVR 191400Z 09005KT 15SM FEW030 FEW080 SCT200 01/M01 A3003 RMK SC2AC1CI1 TR AC SLP169
2001 12 19 15 METAR CYVR 191500Z 09009KT 20SM SCT022 BKN080 02/01 A3005 RMK SF3AC1 SLP175
2001 12 19 16 METAR CYVR 191600Z 10009KT 15SM FEW015 SCT028 02/00 A3007 RMK SF2SC2 SLP182
2001 12 19 17 METAR CYVR 191700Z 09007KT 15SM FEW015 BKN028TCU 02/00 A3010 RMK SF2TCU2 SLP194
2001 12 19 18 METAR CYVR 191800Z 09007KT 15SM FEW015 SCT028TCU BKN120 03/01 A3012 RMK SF2TCU2AC0 SLP198
2001 12 19 19 METAR CYVR 191900Z 09008KT 15SM SCT020 BKN038 BKN120 04/02 A3012 RMK SC3SC2AC0 TCU ASOCTD SLP200
2001 12 19 20 METAR CYVR 192000Z 08009KT 10SM -SHRA BKN014 BKN020TCU OVC120 04/03 A3011 RMK SF5TCU2AC1 CIG RGD SLP197
2001 12 19 21 METAR CYVR 192100Z 08007KT 20SM VCSH FEW014 SCT020TCU BKN070 05/03 A3009 RMK SF1TCU2AC1 SLP189
2001 12 19 22 METAR CYVR 192200Z 09003KT 20SM FEW014 FEW020TCU FEW210 05/02 A3007 RMK SF1TCU1CI0 SLP183
2001 12 19 23 METAR CYVR 192300Z 00000KT 30SM FEW038 FEW060 BKN220 05/02 A3007 RMK SC1SC1CI1 SLP182
2001 12 20 00 METAR CYVR 200000Z 29002KT 30SM FEW030 FEW060 BKN220 04/01 A3007 RMK CU1SC2CI1 SLP181
2001 12 20 01 METAR CYVR 200100Z 09002KT 30SM FEW030 BKN220 04/00 A3006 RMK CU1CI2 SLP179
2001 12 20 02 METAR CYVR 200200Z 05005KT 30SM BKN240 03/M00 A3004 RMK CI2 SLP173
2001 12 20 03 METAR CYVR 200300Z 02002KT 30SM BKN230 02/M00 A3003 RMK CI3 SLP168
2001 12 20 04 METAR CYVR 200400Z 10002KT 30SM FEW140 BKN230 02/M01 A3002 RMK AC1CI3 SLP165
2001 12 20 05 METAR CYVR 200500Z 13003KT 30SM FEW140 BKN220 02/M02 A3000 RMK AC1CI2 SLP159
2001 12 20 06 METAR CYVR 200600Z 11003KT 30SM FEW140 BKN220 02/M02 A2998 RMK AC1CI2 SLP152
2001 12 20 07 METAR CYVR 200700Z 11004KT 30SM FEW140 BKN220 01/M02 A2997 RMK AC1CI2 SLP147
2001 12 20 08 METAR CYVR 200800Z 16003KT 30SM FEW140 BKN220 01/M02 A2996 RMK AC1CI2 SLP144
2001 12 20 09 METAR CYVR 200900Z 00000KT 30SM FEW140 BKN180 01/M02 A2994 RMK AC1CI2 SLP138
2001 12 20 10 METAR CYVR 201000Z 23002KT 30SM BKN170 M00/M03 A2993 RMK CI2 SLP136
2001 12 20 11 METAR CYVR 201100Z 07002KT 30SM FEW140 BKN170 01/M03 A2993 RMK AC1CI2 SLP135
2001 12 20 12 METAR CYVR 201200Z 36006KT 30SM SCT140 BKN170 01/M02 A2992 RMK AC3CI2 SLP132
2001 12 20 13 METAR CYVR 201300Z 01004KT 30SM FEW140 SCT170 00/M02 A2992 RMK AC2CI1 SLP132
2001 12 20 14 METAR CYVR 201400Z 07003KT 30SM FEW140 SCT170 SCT240 M01/M03 A2992 RMK AC2CI1CI1 SLP131
2001 12 20 15 METAR CYVR 201500Z 11003KT 30SM FEW140 FEW170 SCT240 M01/M03 A2992 RMK AC2CI1CI1 SLP130
2001 12 20 16 METAR CYVR 201600Z 34003KT 30SM FEW110 BKN160 BKN240 M01/M03 A2991 RMK AC1AC4CI0 SLP129
2001 12 20 17 METAR CYVR 201700Z 35004KT 30SM FEW030 SCT160 BKN240 00/M03 A2992 RMK CF1AC2CI1 SLP131
2001 12 20 18 METAR CYVR 201800Z 31012G17KT 30SM FEW030 FEW160 SCT240 02/M02 A2992 RMK CF1AC1CI1 SLP130
2001 12 20 19 METAR CYVR 201900Z 32014KT 30SM FEW030 FEW160 FEW240 03/M02 A2992 RMK CF1AC1CI1 SLP130
2001 12 20 20 METAR CYVR 202000Z 32015KT 30SM FEW030 FEW160 FEW240 04/M03 A2991 RMK CF1AC1CI1 SLP127
2001 12 20 21 METAR CYVR 202100Z 30012KT 30SM FEW030 FEW160 FEW240 04/M03 A2990 RMK CF1AC1CI1 SLP124
2001 12 20 22 METAR CYVR 202200Z 30010G15KT 30SM FEW030 FEW160 FEW240 04/M03 A2990 RMK CF1AC1CI1 SLP124
2001 12 20 23 METAR CYVR 202300Z 30011KT 30SM FEW030 FEW120 FEW240 04/M01 A2991 RMK CF1AC1CI1 SLP128
2001 12 21 00 METAR CYVR 210000Z 31010KT 30SM FEW100 FEW240 03/M04 A2992 RMK AC1CI1 SLP131
2001 12 21 01 METAR CYVR 210100Z 31007KT 30SM FEW100 FEW240 03/M04 A2992 RMK AC1CI1 SLP132
2001 12 21 02 METAR CYVR 210200Z 28004KT 30SM FEW100 02/M03 A2992 RMK AC1 SLP131
2001 12 21 03 METAR CYVR 210300Z 34006KT 30SM SKC 01/M03 A2994 RMK SLP137
2001 12 21 04 METAR CYVR 210400Z 01003KT 30SM SKC 01/M03 A2995 RMK SLP141
2001 12 21 05 METAR CYVR 210500Z 35002KT 30SM FEW100 M00/M03 A2995 RMK AC1 SLP143
2001 12 21 06 METAR CYVR 210600Z 35006KT 30SM FEW100 M00/M03 A2997 RMK AC2 SLP150
2001 12 21 07 METAR CYVR 210700Z 06002KT 30SM FEW055 SCT220 M00/M02 A2999 RMK SC2CI0 SLP154
2001 12 21 08 METAR CYVR 210800Z 08005KT 30SM BKN054 BKN220 M00/M02 A3000 RMK SC5CI1 SLP157
2001 12 21 09 METAR CYVR 210900Z 11005KT 30SM FEW054 SCT220 M01/M02 A3000 RMK SC2CI1 SLP158
2001 12 21 10 METAR CYVR 211000Z 00000KT 30SM FEW054 SCT220 M02/M03 A3000 RMK SC2CI1 SLP160
2001 12 21 11 METAR CYVR 211100Z 01004KT 30SM BKN054 M00/M02 A3002 RMK SC5 SLP165
2001 12 21 12 METAR CYVR 211200Z 10002KT 30SM BKN057 M00/M03 A3002 RMK SC5 SLP165
2001 12 21 13 METAR CYVR 211300Z 14006KT 30SM BKN057 01/M02 A3003 RMK SC5 SLP168
2001 12 21 14 METAR CYVR 211400Z 08004KT 30SM BKN058 M00/M02 A3003 RMK SC6 SLP170
2001 12 21 15 METAR CYVR 211500Z 07004KT 30SM BKN032 BKN056 01/M01 A3003 RMK SC5SC2 SLP170
2001 12 21 16 METAR CYVR 211600Z 00000KT 30SM BKN030 OVC050 01/M01 A3005 RMK SC6SC2 SLP177
2001 12 21 17 METAR CYVR 211700Z 28003KT 30SM OVC029 01/M01 A3008 RMK SC8 FLRYS MTNS DSNT N SLP184
2001 12 21 18 METAR CYVR 211800Z 03002KT 20SM -SHSN OVC031 02/M01 A3009 RMK SC8 SLP190
2001 12 21 19 METAR CYVR 211900Z 10003KT 30SM SCT030 BKN065 03/M01 A3008 RMK SC3SC4 SLP187
2001 12 21 20 METAR CYVR 212000Z 12004KT 30SM FEW032 SCT058 BKN072 04/M01 A3008 RMK SC2SC2AC4 SLP185
2001 12 21 21 METAR CYVR 212100Z 20005KT 30SM BKN027 OVC060 03/M00 A3009 RMK SC6SC2 SLP188
2001 12 21 22 METAR CYVR 212200Z 00000KT 30SM SCT027 BKN060 OVC110 03/M01 A3009 RMK SC4SC3AC1 SLP188
2001 12 21 23 METAR CYVR 212300Z 31002KT 30SM SCT025 BKN060 BKN110 04/00 A3009 RMK SC3SC2AC2 SLP188
2001 12 22 00 METAR CYVR 220000Z 00000KT 30SM SCT035 BKN070 OVC110 04/M00 A3008 RMK SC3AC3AC2 SLP185
2001 12 22 01 METAR CYVR 220100Z 11003KT 25SM -SHRA SCT028 BKN070 OVC110 03/00 A3007 RMK SC3AC3AC2 SLP181
2001 12 22 02 METAR CYVR 220200Z 11005KT 20SM -SHRA BKN026 OVC065 03/01 A3007 RMK SC5SC3 SLP182
2001 12 22 03 METAR CYVR 220300Z 00000KT 20SM BKN028 OVC060 04/00 A3007 RMK SC6SC2 SLP183
2001 12 22 04 METAR CYVR 220400Z 00000KT 20SM BKN032 OVC060 03/00 A3007 RMK SC6SC2 SLP182
2001 12 22 05 METAR CYVR 220500Z 23003KT 20SM SCT035 OVC065 04/00 A3007 RMK SC4SC4 SLP182
2001 12 22 06 METAR CYVR 220600Z 18003KT 20SM SCT040 OVC070 04/01 A3008 RMK SC3AC5 SLP185
2001 12 22 07 METAR CYVR 220700Z 00000KT 25SM FEW025 SCT040 BKN080 04/01 A3008 RMK SC2SC2AC2 SLP186
2001 12 22 08 METAR CYVR 220800Z 11006KT 20SM FEW025 SCT045 BKN080 01/M01 A3006 RMK SC2SC2AC1 SLP180
2001 12 22 09 METAR CYVR 220900Z 09006KT 20SM FEW025 FEW045 FEW080 01/M04 A3001 RMK SC1SC1AC1 SLP163
2001 12 22 10 METAR CYVR 221000Z 11008KT 20SM BKN051 02/M01 A3001 RMK SC5 SLP163
2001 12 22 11 METAR CYVR 221100Z 06006KT 20SM FEW051 02/M01 A2999 RMK SC2 SLP156
2001 12 22 12 METAR CYVR 221200Z 32004KT 20SM FEW051 01/M01 A2999 RMK SC1 SLP154
2001 12 22 13 METAR CYVR 221300Z 03002KT 20SM FEW051 01/M01 A2996 RMK SC1 SLP145
2001 12 22 14 METAR CYVR 221400Z 00000KT 20SM FEW051 M00/M02 A2995 RMK SC1 SLP141
2001 12 22 15 METAR CYVR 221500Z 23002KT 20SM SKC M00/M01 A2994 RMK SLP138
2001 12 22 16 METAR CYVR 221600Z 00000KT 20SM FEW080 00/M01 A2995 RMK AC1 SLP143
2001 12 22 17 METAR CYVR 221700Z 14005KT 20SM FEW080 03/M02 A2999 RMK AC1 SLP155
2001 12 22 18 METAR CYVR 221800Z 17003KT 30SM FEW080 04/M00 A3000 RMK AC1 SLP160
2001 12 22 19 METAR CYVR 221900Z 11005KT 30SM FEW080 05/M00 A3002 RMK AC1 SLP164
2001 12 22 20 METAR CYVR 222000Z 09004KT 30SM FEW080 06/01 A3001 RMK AC1 SLP161
2001 12 22 21 METAR CYVR 222100Z 11002KT 30SM SCT080 06/01 A3001 RMK AC3 SLP163
2001 12 22 22 METAR CYVR 222200Z 26003KT 20SM BKN088 06/02 A3002 RMK AC6 SLP167
2001 12 22 23 METAR CYVR 222300Z 25004KT 20SM BKN085 06/01 A3005 RMK AC6 SLP176
2001 12 23 00 METAR CYVR 230000Z 33006KT 20SM BKN070 06/02 A3007 RMK AC6 SLP183
2001 12 23 01 METAR CYVR 230100Z 02003KT 20SM BKN060 06/01 A3010 RMK SC6 SLP191
2001 12 23 02 METAR CYVR 230200Z 01004KT 20SM BKN063 06/02 A3012 RMK SC7 SLP199
2001 12 23 03 METAR CYVR 230300Z 07005KT 20SM BKN063 06/02 A3015 RMK SC7 SLP208
2001 12 23 04 METAR CYVR 230400Z 09003KT 20SM BKN064 06/01 A3018 RMK SC7 SLP221
2001 12 23 05 METAR CYVR 230500Z 10004KT 20SM BKN065 05/02 A3022 RMK SC7 SLP233
2001 12 23 06 METAR CYVR 230600Z 18002KT 20SM BKN059 06/02 A3026 RMK SC7 SLP248
2001 12 23 07 METAR CYVR 230700Z 16003KT 20SM BKN059 05/02 A3029 RMK SC7 SLP256
2001 12 23 08 METAR CYVR 230800Z 10005KT 20SM BKN059 05/01 A3028 RMK SC6 SLP255
2001 12 23 09 METAR CYVR 230900Z 00000KT 20SM BKN059 05/00 A3030 RMK SC7 SLP260
2001 12 23 10 METAR CYVR 231000Z 09002KT 20SM BKN058 04/M00 A3031 RMK SC5 SLP264
2001 12 23 11 METAR CYVR 231100Z 12005KT 20SM FEW060 03/M00 A3032 RMK SC2 SLP268
2001 12 23 12 METAR CYVR 231200Z 34002KT 20SM FEW060 02/M01 A3036 RMK SC2 SLP279
2001 12 23 13 METAR CYVR 231300Z 00000KT 20SM FEW060 01/M00 A3037 RMK SC2 SLP284
2001 12 23 14 METAR CYVR 231400Z 10004KT 20SM FEW060 M00/M02 A3039 RMK SC2 SLP290
2001 12 23 15 METAR CYVR 231500Z 11006KT 20SM FEW060 M01/M03 A3040 RMK SC2 SLP294
2001 12 23 16 METAR CYVR 231600Z 08008KT 20SM FEW080 SCT210 M01/M03 A3041 RMK AC1CI1 SLP297
2001 12 23 17 METAR CYVR 231700Z 13007KT 20SM SCT210 02/M01 A3043 RMK CI1 SLP305
2001 12 23 18 METAR CYVR 231800Z 09006KT 30SM SCT210 03/00 A3045 RMK CI1 SLP311
2001 12 23 19 METAR CYVR 231900Z 09005KT 30SM SCT210 05/01 A3046 RMK CI1 SLP313
2001 12 23 20 METAR CYVR 232000Z 18002KT 30SM SCT210 07/02 A3045 RMK CI1 SLP312
2001 12 23 21 METAR CYVR 232100Z 24005KT 30SM SCT210 06/02 A3044 RMK CI1 SLP308
2001 12 23 22 METAR CYVR 232200Z 28004KT 30SM FEW080 BKN210 06/02 A3045 RMK AC1CI1 SLP312
2001 12 23 23 METAR CYVR 232300Z 00000KT 30SM FEW080 BKN210 07/02 A3046 RMK AC1CI1 SLP315
2001 12 24 00 METAR CYVR 240000Z CCA 25006KT 30SM FEW120 BKN210 05/01 A3047 RMK AC2CI1 SLP318
2001 12 24 01 METAR CYVR 240100Z 12002KT 30SM FEW120 BKN210 04/01 A3046 RMK AC2CI1 SLP315
2001 12 24 02 METAR CYVR 240200Z 09006KT 30SM SCT210 02/M01 A3046 RMK CI2 SLP313
2001 12 24 03 METAR CYVR 240300Z 11003KT 30SM SCT210 03/00 A3046 RMK CI2 SLP314
2001 12 24 04 METAR CYVR 240400Z 23005KT 20SM BKN210 03/00 A3047 RMK CI2 SLP319
2001 12 24 05 METAR CYVR 240500Z 13003KT 20SM BKN210 02/M00 A3048 RMK CI2 SLP321
2001 12 24 06 METAR CYVR 240600Z 13002KT 20SM BKN240 02/M00 A3048 RMK CI3 SLP322
2001 12 24 07 METAR CYVR 240700Z 02002KT 20SM BKN240 01/M01 A3048 RMK CI3 SLP322
2001 12 24 08 METAR CYVR 240800Z 00000KT 30SM FEW240 01/M00 A3047 RMK CI1 SLP319
2001 12 24 09 METAR CYVR 240900Z 00000KT 30SM MIFG FEW240 00/M01 A3047 RMK CI0 SLP317
2001 12 24 10 METAR CYVR 241000Z 00000KT 30SM FEW240 M00/M02 A3047 RMK CI1 SLP317
2001 12 24 11 METAR CYVR 241100Z 11004KT 30SM FEW240 00/M01 A3045 RMK CI1 SLP312
2001 12 24 12 METAR CYVR 241200Z 08004KT 30SM FEW240 M01/M03 A3043 RMK CI1 SLP305
2001 12 24 13 METAR CYVR 241300Z 09006KT 30SM FEW240 M01/M02 A3042 RMK CI1 SLP301
2001 12 24 14 METAR CYVR 241400Z 00000KT 30SM FEW240 00/M01 A3040 RMK CI1 SLP295
2001 12 24 15 METAR CYVR 241500Z 12002KT 30SM FEW150 FEW240 M00/M02 A3040 RMK AC1CI0 SLP293
2001 12 24 16 METAR CYVR 241600Z 10003KT 30SM FEW150 SCT240 M01/M03 A3039 RMK AC2CI0 SLP291
2001 12 24 17 METAR CYVR 241700Z 11004KT 30SM FEW150 BKN240 00/M02 A3039 RMK AC1CI0 SLP292
2001 12 24 18 METAR CYVR 241800Z 10004KT 30SM FEW150 BKN240 02/M01 A3039 RMK AC1CI0 SLP292
2001 12 24 19 METAR CYVR 241900Z 00000KT 30SM FEW150 BKN240 03/01 A3038 RMK AC1CI0 SLP288
2001 12 24 20 METAR CYVR 242000Z 15003KT 30SM FEW150 BKN240 05/01 A3036 RMK AC1CI0 SLP281
2001 12 24 21 METAR CYVR 242100Z 18002KT 30SM SCT240 08/02 A3034 RMK CI1 SLP274
2001 12 24 22 METAR CYVR 242200Z 27005KT 30SM SCT240 05/02 A3034 RMK CI1 SLP272
2001 12 24 23 METAR CYVR 242300Z 31003KT 30SM SCT250 05/02 A3033 RMK CI1 SLP270
2001 12 25 00 METAR CYVR 250000Z 33006KT 30SM FEW250 03/01 A3032 RMK CI0 SLP267
2001 12 25 01 METAR CYVR 250100Z 32007KT 20SM FEW250 02/M00 A3031 RMK CI0 SLP265
2001 12 25 02 METAR CYVR 250200Z 35003KT 20SM FEW250 03/00 A3031 RMK CI0 SLP264
2001 12 25 03 METAR CYVR 250300Z 00000KT 20SM SKC 02/M00 A3031 RMK SLP264
2001 12 25 04 METAR CYVR 250400Z 11004KT 30SM FEW250 M00/M02 A3031 RMK CI0 SLP264
2001 12 25 05 METAR CYVR 250500Z 05003KT 30SM FEW250 00/M02 A3031 RMK CI0 SLP265
2001 12 25 06 METAR CYVR 250600Z 11003KT 30SM MIFG FEW250 M00/M02 A3033 RMK CI0 SLP269
2001 12 25 07 METAR CYVR 250700Z 04003KT 30SM FEW250 M01/M02 A3033 RMK CI0 SLP269
2001 12 25 08 METAR CYVR 250800Z 14002KT 30SM FEW250 M02/M04 A3032 RMK CI1 SLP268
2001 12 25 09 METAR CYVR 250900Z 11002KT 30SM MIFG SKC M01/M02 A3032 RMK SLP268
2001 12 25 10 METAR CYVR 251000Z 12004KT 30SM MIFG SKC M03/M04 A3034 RMK FROIN SLP272
2001 12 25 11 METAR CYVR 251100Z 09004KT 30SM SKC M01/M03 A3034 RMK FROIN SLP275
2001 12 25 12 METAR CYVR 251200Z 11005KT 30SM FEW010 M02/M03 A3034 RMK SF1 SLP275
2001 12 25 13 METAR CYVR 251300Z 09004KT 30SM FEW015 M03/M04 A3036 RMK SC1 FROIN SLP279
2001 12 25 14 METAR CYVR 251400Z 06004KT 30SM FEW012 M03/M04 A3036 RMK SC1 FROIN SLP280
2001 12 25 15 METAR CYVR 251500Z 11005KT 30SM FEW012 M02/M04 A3036 RMK SC1 FROIN SLP281
2001 12 25 16 METAR CYVR 251600Z 09003KT 30SM FEW012 FEW080 M02/M03 A3037 RMK SC1AC1 FROIN SLP284
2001 12 25 17 METAR CYVR 251700Z 12002KT 30SM FEW012 FEW080 M01/M03 A3039 RMK SC1AC1 SLP290
2001 12 25 18 METAR CYVR 251800Z 10004KT 30SM FEW012 FEW080 00/M01 A3040 RMK SC1AC1 SLP293
2001 12 25 19 METAR CYVR 251900Z 13004KT 30SM FEW012 FEW240 03/M00 A3039 RMK ST1CI1 TR CLD SLP292
2001 12 25 20 METAR CYVR 252000Z 14003KT 30SM FEW012 FEW240 05/00 A3038 RMK ST1CI1 TR CLD SLP288
2001 12 25 21 METAR CYVR 252100Z 12002KT 30SM FEW012 FEW240 05/01 A3037 RMK ST1CI1 TR CLD SLP285
2001 12 25 22 METAR CYVR 252200Z 25003KT 30SM SKC 07/01 A3036 RMK SLP279
2001 12 25 23 METAR CYVR 252300Z 26006KT 30SM SKC 04/01 A3036 RMK SLP279
2001 12 26 00 METAR CYVR 260000Z 35003KT 30SM SKC 03/01 A3034 RMK SLP275
2001 12 26 01 METAR CYVR 260100Z 36004KT 20SM SKC 02/M00 A3034 RMK SLP272
2001 12 26 02 METAR CYVR 260200Z 04003KT 20SM FEW200 01/M01 A3033 RMK CI0 SLP269
2001 12 26 03 METAR CYVR 260300Z 30002KT 20SM FEW250 01/M01 A3033 RMK CI1 SLP271
2001 12 26 04 METAR CYVR 260400Z 00000KT 20SM FEW250 01/M01 A3034 RMK CI1 SLP274
2001 12 26 05 METAR CYVR 260500Z 10004KT 20SM FEW250 M01/M03 A3034 RMK CI1 FROIN SLP272
2001 12 26 06 METAR CYVR 260600Z 36002KT 20SM FEW250 M01/M03 A3034 RMK CI1 FROIN SLP274
2001 12 26 07 METAR CYVR 260700Z 09004KT 30SM SKC M01/M02 A3034 RMK SLP272 CYZYX 260715 WRRRYMYT ETAR WRRR 260700Z 22005KT OOOO FEW020 31/25 Q1011
2001 12 26 08 METAR CYVR 260800Z 11004KT 20SM FEW100 M01/M02 A3033 RMK AC1 SLP271
2001 12 26 09 METAR CYVR 260900Z 09006KT 20SM SKC M02/M03 A3032 RMK SLP268
2001 12 26 10 METAR CYVR 261000Z 01003KT 20SM MIFG FEW100 M02/M03 A3031 RMK AC1 SLP265
2001 12 26 11 METAR CYVR 261100Z 12002KT 20SM MIFG FEW100 M03/M03 A3031 RMK AC1 TR AC SLP264
2001 12 26 12 METAR CYVR 261200Z 00000KT 20SM SKC M03/M04 A3028 RMK SLP255
2001 12 26 13 METAR CYVR 261300Z 13004KT 20SM MIFG SKC M02/M03 A3026 RMK SLP247
2001 12 26 14 METAR CYVR 261400Z 09004KT 20SM FEW010 M03/M05 A3026 RMK SF1 SLP246
2001 12 26 15 METAR CYVR 261500Z 12003KT 25SM SKC M02/M03 A3026 RMK SLP247
2001 12 26 16 METAR CYVR 261600Z 08005KT 25SM FEW010 FEW100 SCT220 M04/M06 A3025 RMK SF1AC2CI0 SLP242
2001 12 26 17 METAR CYVR 261700Z 09004KT 30SM FEW010 FEW100 BKN220 M02/M03 A3026 RMK ST1AC2CI0 SLP245
2001 12 26 18 METAR CYVR 261800Z 12005KT 30SM FEW010 FEW100 BKN220 M00/M02 A3024 RMK ST1AC2CI0 SLP241
2001 12 26 19 METAR CYVR 261900Z 20003KT 30SM FEW010 SCT100 BKN220 01/M02 A3026 RMK ST1AC2CI2 SLP246
2001 12 26 20 METAR CYVR 262000Z 02005KT 30SM FEW010 FEW100 BKN220 03/M01 A3023 RMK ST1AC2CI2 SLP235
2001 12 26 21 METAR CYVR 262100Z 12003KT 30SM FEW010 FEW100 BKN220 05/M00 A3020 RMK ST1AC1CI2 SLP226
2001 12 26 22 METAR CYVR 262200Z 23003KT 30SM FEW010 FEW100 BKN220 06/M00 A3018 RMK ST1AC1CI2 SLP220
2001 12 26 23 METAR CYVR 262300Z 27005KT 30SM FEW100 BKN220 03/00 A3018 RMK AC2CI2 SLP220
2001 12 27 00 METAR CYVR 270000Z 36002KT 30SM FEW100 BKN220 03/M00 A3015 RMK AC1CI2 SLP210
2001 12 27 01 METAR CYVR 270100Z 23008KT 30SM FEW100 BKN220 02/M00 A3018 RMK AC2CI1 SLP218
2001 12 27 02 METAR CYVR 270200Z 07003KT 30SM FEW120 BKN220 01/M02 A3015 RMK AC2CI2 SLP209
2001 12 27 03 METAR CYVR 270300Z 19004KT 30SM FEW120 BKN250 02/M01 A3014 RMK AC1CI2 SLP206
2001 12 27 04 METAR CYVR 270400Z 11006KT 30SM SCT130 BKN250 02/M00 A3013 RMK AC4CI1 SLP202
2001 12 27 05 METAR CYVR 270500Z 01004KT 30SM SCT110 BKN250 01/M01 A3012 RMK AC4CI1 SLP200
2001 12 27 06 METAR CYVR 270600Z 11002KT 30SM BKN120 BKN250 02/M01 A3011 RMK AC5CI1 SLP196
2001 12 27 07 METAR CYVR 270700Z 00000KT 30SM SCT120 BKN180 02/M01 A3010 RMK AC4AC1 SLP192
2001 12 27 08 METAR CYVR 270800Z 15003KT 30SM SCT080 BKN120 02/M01 A3008 RMK AC3AC3 SLP185
2001 12 27 09 METAR CYVR 270900Z 10005KT 30SM SCT080 OVC120 02/M01 A3006 RMK AC3AC5 SLP179
2001 12 27 10 METAR CYVR 271000Z 00000KT 30SM FEW080 BKN120 OVC180 02/M01 A3004 RMK AC2AC4CI2 SLP173
2001 12 27 11 METAR CYVR 271100Z 03003KT 30SM BKN090 OVC120 02/M01 A3004 RMK AC5AC3 SLP173
2001 12 27 12 METAR CYVR 271200Z 00000KT 30SM BKN086 02/M01 A3001 RMK AC6 SLP162
2001 12 27 13 METAR CYVR 271300Z 20003KT 20SM -RA BKN082 OVC140 02/M00 A3000 RMK AC6AC2 SLP158
2001 12 27 14 METAR CYVR 271400Z 12006KT 20SM BKN080 OVC140 03/M01 A2997 RMK AC5AC3 SLP149
2001 12 27 15 METAR CYVR 271500Z 17003KT 20SM BKN080 OVC140 04/M02 A2998 RMK AC5AC3 SLP151
2001 12 27 16 METAR CYVR 271600Z 13003KT 20SM FEW080 OVC140 02/M01 A2997 RMK AC2AC6 VIRGA E SLP147
2001 12 27 17 METAR CYVR 271700Z 20003KT 20SM FEW080 SCT140 OVC210 02/M01 A2995 RMK AC2AC2CI1 SLP141
2001 12 27 18 METAR CYVR 271800Z 00000KT 20SM FEW080 SCT150 OVC210 04/M01 A2992 RMK AC2AC2CI1 ACSL ASOCTD N SLP133
2001 12 27 19 METAR CYVR 271900Z 00000KT 20SM FEW080 BKN150 OVC210 05/M01 A2989 RMK AC2AC3CI1 SLP122
2001 12 27 20 METAR CYVR 272000Z 21004KT 20SM FEW080 OVC140 06/01 A2986 RMK AC2AC6 ACSL ASOCTD N SLP112
2001 12 27 21 METAR CYVR 272100Z 00000KT 30SM FEW070 BKN130 OVC220 05/01 A2982 RMK AC1SC6CI1 SLP097
2001 12 27 22 METAR CYVR 272200Z 16003KT 30SM FEW070 OVC130 05/01 A2979 RMK AC1AC7 SLP087
2001 12 27 23 METAR CYVR 272300Z 20002KT 30SM FEW100 OVC130 05/M01 A2978 RMK AC1AC7 VIRGA W-NW SLP084
2001 12 28 00 METAR CYVR 280000Z 28002KT 30SM OVC140 04/M00 A2977 RMK AC8 SLP081
2001 12 28 01 METAR CYVR 280100Z 16002KT 30SM OVC110 05/M01 A2979 RMK AC8 SLP087
2001 12 28 02 METAR CYVR 280200Z 04004KT 30SM OVC110 05/M00 A2975 RMK AC8 SLP074
2001 12 28 03 METAR CYVR 280300Z 03005KT 20SM -RA OVC096 05/02 A2970 RMK AC8 SLP057
2001 12 28 04 METAR CYVR 280400Z 15007KT 20SM OVC120 05/01 A2970 RMK AC8 SLP058
2001 12 28 05 METAR CYVR 280500Z 19002KT 20SM OVC110 04/01 A2970 RMK AC8 SLP058
2001 12 28 06 METAR CYVR 280600Z 33003KT 20SM OVC110 04/01 A2974 RMK AC8 SLP070
2001 12 28 07 METAR CYVR 280700Z 05006KT 20SM OVC085 05/01 A2976 RMK AC8 SLP077
2001 12 28 08 METAR CYVR 280800Z 09006KT 15SM -RA FEW040 BKN070 OVC095 04/02 A2977 RMK SC2AC5AC2 SLP081
2001 12 28 09 METAR CYVR 280900Z 08009KT 10SM -RA FEW020 BKN039 OVC060 05/02 A2981 RMK SF2SC4SC2 SLP094
2001 12 28 10 METAR CYVR 281000Z 08006KT 10SM -RA FEW020 OVC035 05/03 A2985 RMK SF2SC6 SLP108
2001 12 28 11 METAR CYVR 281100Z 11007KT 6SM -RA BR FEW012 OVC029 05/03 A2988 RMK SF2SC6 SLP118
2001 12 28 12 METAR CYVR 281200Z 13006KT 5SM -RA BR FEW012 OVC027 04/03 A2990 RMK SF2SC6 SLP124
2001 12 28 13 METAR CYVR 281300Z 11006KT 3SM -RADZ BR FEW006 SCT012 OVC021 04/03 A2992 RMK SF2SF2SC4 SLP133
2001 12 28 14 METAR CYVR 281400Z 09006KT 3SM -RADZ BR FEW006 SCT012 OVC018 05/04 A2994 RMK SF2SF2SC4 SLP139
2001 12 28 15 METAR CYVR 281500Z 08007KT 4SM -DZ BR FEW002 SCT006 BKN012 OVC018 05/04 A2996 RMK SF2SF2SF3SC2 SLP145
2001 12 28 16 METAR CYVR 281600Z 08006KT 8SM FEW006 BKN013 BKN018 OVC040 05/05 A2997 RMK SF2SF3SC2SC1 VSBY HIER S-SW SLP149
2001 12 28 17 METAR CYVR 281700Z 09004KT 8SM FEW006 BKN014 OVC024 05/05 A2998 RMK SF2SF4SC2 VSBY HIER S-SW SLP152
2001 12 28 18 METAR CYVR 281800Z 08006KT 2 1/2SM -DZ BR SCT006 OVC015 06/05 A2999 RMK SF3SF5 SLP154
2001 12 28 19 METAR CYVR 281900Z 11005KT 4SM -DZ BR SCT006 OVC015 06/06 A2998 RMK SF3SF5 L- VRY LGT SLP153
2001 12 28 20 METAR CYVR 282000Z 10005KT 8SM FEW006 SCT011 BKN016 OVC045 07/06 A2997 RMK SF2SF2SC3SC2 SLP147
2001 12 28 21 METAR CYVR 282100Z 10002KT 12SM FEW006 BKN018 BKN025 OVC045 08/07 A2995 RMK SF2SC5SC1SC1 SLP143
2001 12 28 22 METAR CYVR 282200Z 27003KT 15SM FEW006 BKN019 OVC045 08/07 A2997 RMK SF2SC4SC2 SLP148
2001 12 28 23 METAR CYVR 282300Z 36002KT 15SM FEW011 BKN020 OVC045 08/06 A2998 RMK SF1SC5SC2 SLP151
2001 12 29 00 METAR CYVR 290000Z 00000KT 15SM VCSH FEW012 BKN024 OVC050 07/06 A2998 RMK SF1SC6SC2 SLP152
2001 12 29 01 METAR CYVR 290100Z 00000KT 15SM FEW015 BKN029 BKN070 06/05 A2997 RMK SF1SC5AC2 SLP150
2001 12 29 02 METAR CYVR 290200Z 19002KT 15SM FEW015 BKN030 BKN070 08/06 A2997 RMK SF1SC4AC2 SLP149
2001 12 29 03 METAR CYVR 290300Z 20003KT 15SM BKN032 BKN080 07/06 A2997 RMK SC5AC2 SLP148
2001 12 29 04 METAR CYVR 290400Z 02004KT 15SM BKN034 BKN080 07/06 A2995 RMK SC5AC2 SLP142
2001 12 29 05 METAR CYVR 290500Z 00000KT 15SM FEW035 BKN080 06/04 A2994 RMK SC2AC2 SLP139
2001 12 29 06 METAR CYVR 290600Z 22004KT 15SM MIFG FEW036 BKN080 06/05 A2994 RMK SC2AC4 SLP138
2001 12 29 07 METAR CYVR 290700Z 01006KT 15SM FEW030 BKN080 05/03 A2994 RMK SC2AC4 SLP137
2001 12 29 08 METAR CYVR 290800Z CCA 11004KT 15SM MIFG FEW010 FEW110 SCT220 03/02 A2993 RMK ST1AC2CI2 FG BNK E SLP135
2001 12 29 09 METAR CYVR 290900Z 13003KT 15SM MIFG FEW010 SCT170 02/01 A2995 RMK ST1AC4 SLP140
2001 12 29 10 METAR CYVR 291000Z 00000KT 15SM BCFG FEW010 BKN180 03/02 A2994 RMK ST1AC5 SLP139
2001 12 29 11 METAR CYVR 291100Z 13002KT 15SM BCFG FEW010 BKN180 02/02 A2995 RMK ST1AC7 SLP142
2001 12 29 12 METAR CYVR 291200Z 00000KT 3SM BR PRFG FEW010 BKN180 01/M00 A2996 RMK FG1ST1AC6 FG BNK NW AND NE-SE VSBY 1/2 SLP144
2001 12 29 13 METAR CYVR 291300Z 00000KT 1/2SM FG FEW006 SCT180 02/00 A2995 RMK FG2ST1AC2 VSBY W-N 11/2 SLP142
2001 12 29 14 METAR CYVR 291400Z 10002KT 1/2SM FG FEW006 BKN180 02/01 A2996 RMK FG2ST1AC6 VSBY E-S 2 SLP145
2001 12 29 15 METAR CYVR 291500Z 10005KT 1/4SM FG VV001 01/00 A2998 RMK FG8 SLP152
2001 12 29 16 METAR CYVR 291600Z 09006KT 1/8SM FG VV001 02/01 A3000 RMK FG8 SLP159
2001 12 29 17 METAR CYVR 291700Z 09004KT 1/4SM FG BKN002 BKN240 03/02 A3001 RMK FG6ST1CI0 SLP163
2001 12 29 18 METAR CYVR 291800Z 13004KT 10SM FEW050 SCT180 SCT240 04/04 A3002 RMK SC1AC2CI0 FG BNK OVR WTR S-W SLP167
2001 12 29 19 METAR CYVR 291900Z 08003KT 15SM FEW010 FEW140 BKN180 BKN240 05/04 A3003 RMK SF1AC2AC2CI0 TR SF VSBY LWR E + SW-W SLP169
2001 12 29 20 METAR CYVR 292000Z 00000KT 15SM FEW008 SCT100 BKN170 BKN240 06/05 A3002 RMK ST2AC2AC2CI0 ST LYR OVR WTR SW-NW SLP167
2001 12 29 21 METAR CYVR 292100Z 29003KT 15SM SCT100 BKN150 06/05 A3002 RMK AC3AC3 FG BNK OVR WTR SW-NW HZ SLP165
2001 12 29 22 METAR CYVR 292200Z 27005KT 15SM SCT100 BKN150 06/04 A3002 RMK AC3AC3 HZ SLP166
2001 12 29 23 METAR CYVR 292300Z 25005KT 15SM SCT100 BKN150 06/04 A3003 RMK AC3AC3 SLP170
2001 12 30 00 METAR CYVR 300000Z 27004KT 15SM FEW100 BKN130 BKN220 05/04 A3004 RMK AC2AC4CI1 HZ SLP173
2001 12 30 01 METAR CYVR 300100Z 00000KT 15SM BKN110 BKN130 05/04 A3005 RMK AC5AC2 HZ SLP176
2001 12 30 02 METAR CYVR 300200Z 00000KT 15SM BKN080 BKN120 05/04 A3006 RMK AC5AC2 HZ SLP178
2001 12 30 03 METAR CYVR 300300Z 09005KT 15SM FEW020 BKN089 BKN120 05/04 A3006 RMK ST1AC5AC2 TR ST SLP179
2001 12 30 04 METAR CYVR 300400Z 06002KT 15SM MIFG FEW025 SCT080 BKN120 04/03 A3007 RMK ST1AC2AC2 SLP183
2001 12 30 05 METAR CYVR 300500Z 02003KT 10SM BCFG FEW012 SCT150 03/03 A3008 RMK ST1AC2 SLP184
2001 12 30 06 METAR CYVR 300600Z 00000KT 15SM BCFG FEW012 SCT150 03/03 A3008 RMK ST1AC1 SLP186
2001 12 30 07 METAR CYVR 300700Z 04003KT 6SM BR SCT120 01/00 A3009 RMK FG1AC2 ROOF VSBY 15 SLP188
2001 12 30 08 METAR CYVR 300800Z CCA 27002KT 3SM BR BCFG FEW130 02/02 A3010 RMK AC2 VSBY NE 2 ROOF VSBY 15 SLP191
2001 12 30 09 METAR CYVR 300900Z 00000KT 3SM BR BCFG FEW130 02/01 A3010 RMK AC1 ROOF VSBY 15 SLP193
2001 12 30 10 METAR CYVR 301000Z 08002KT 1/4SM FZFG SCT130 M00/M01 A3011 RMK FG4AC1 TR AC SLP196
2001 12 30 11 METAR CYVR 301100Z 36002KT 3SM BR BKN150 M00/M01 A3012 RMK FG2AC4 SLP200
2001 12 30 12 METAR CYVR 301200Z 00000KT 3/4SM BR FEW001 M01/M01 A3010 RMK FG2ST1 SLP194
2001 12 30 13 METAR CYVR 301300Z 00000KT 1/8SM FZFG SKC M00/M02 A3010 RMK FG6 SLP192
2001 12 30 14 METAR CYVR 301400Z 00000KT 3SM BR OVC002 M01/M02 A3010 RMK FG2ST6 SLP192
2001 12 30 15 METAR CYVR 301500Z 00000KT 1 1/2SM BR SCT005 BKN140 00/M01 A3009 RMK FG2ST1AC1 VSBY VRBL 11/2-3 SLP188
2001 12 30 16 METAR CYVR 301600Z 02003KT 6SM BR PRFG FEW240 M00/M01 A3007 RMK CI0 FG XTENSV W SIDE OF FLD SLP183
2001 12 30 17 METAR CYVR 301700Z 02002KT 20SM FEW240 00/M00 A3007 RMK CI0 SHLW FG PTCHS E FG BNK OVR WTR W SLP183
2001 12 30 18 METAR CYVR 301800Z 19002KT 30SM FEW240 03/02 A3008 RMK CI1 FG BNK OVR WTR DSTNT SW-W SLP185
2001 12 30 19 METAR CYVR 301900Z 00000KT 30SM FEW180 05/04 A3006 RMK AC1 FG BNK XTNSV W SIDE OF FLD VSBY 1/2SM IN FG SLP178
2001 12 30 20 METAR CYVR 302000Z 27002KT 30SM PRFG FEW001 SCT180 04/03 A3004 RMK ST2AC2 FG SW-N VSBY 1SM SLP172
2001 12 30 21 METAR CYVR 302100Z 00000KT 30SM FEW001 FEW180 06/04 A2999 RMK ST1AC2 FG BNK OVR WTR SW-NW PRESFR SLP156
2001 12 30 22 METAR CYVR 302200Z 27005KT 30SM SCT180 05/04 A2997 RMK AC2 SLP149
2001 12 30 23 METAR CYVR 302300Z 33006KT 30SM SCT200 05/03 A2995 RMK CI2 SLP143
2001 12 31 00 METAR CYVR 310000Z 33009KT 30SM SCT200 04/03 A2993 RMK CI2 SLP135
2001 12 31 01 METAR CYVR 310100Z 34002KT 30SM SCT200 04/02 A2992 RMK CI2 SLP132
2001 12 31 02 METAR CYVR 310200Z 32002KT 30SM FEW200 04/02 A2991 RMK CI0 SLP127
2001 12 31 03 METAR CYVR 310300Z 30002KT 30SM FEW200 03/01 A2992 RMK CI1 SLP130
2001 12 31 04 METAR CYVR 310400Z 00000KT 30SM FEW200 02/00 A2992 RMK CI1 SLP132
2001 12 31 05 METAR CYVR 310500Z 02003KT 30SM FEW200 02/01 A2991 RMK CI1 SLP128
2001 12 31 06 METAR CYVR 310600Z 00000KT 30SM SCT100 BKN200 01/M00 A2992 RMK AC2CI1 SLP131
2001 12 31 07 METAR CYVR 310700Z 00000KT 30SM SCT100 02/01 A2992 RMK AC1 SLP131
2001 12 31 08 METAR CYVR 310800Z 02003KT 30SM SCT060 BKN100 01/00 A2991 RMK SC4AC2 SLP129
2001 12 31 09 METAR CYVR 310900Z 32002KT 30SM BKN060 OVC100 02/01 A2992 RMK SC6AC2 SLP133
2001 12 31 10 METAR CYVR 311000Z 00000KT 30SM OVC063 03/02 A2994 RMK SC8 SLP139
2001 12 31 11 METAR CYVR 311100Z 34002KT 20SM -RA OVC058 03/02 A2997 RMK SC8 SLP150
2001 12 31 12 METAR CYVR 311200Z 01006KT 15SM -RA OVC056 04/02 A3000 RMK SC8 SLP158
2001 12 31 13 METAR CYVR 311300Z 36005KT 12SM -RA OVC038 04/02 A3003 RMK SC8 SLP169
2001 12 31 14 METAR CYVR 311400Z 07006KT 12SM -RA SCT035 OVC056 04/03 A3003 RMK SC3SC5 SLP168
2001 12 31 15 METAR CYVR 311500Z 15004KT 12SM BKN038 OVC061 04/03 A3005 RMK SC5SC3 SLP177
2001 12 31 16 METAR CYVR 311600Z 05003KT 12SM BKN033 OVC061 04/03 A3009 RMK SC6SC2 SLP188
2001 12 31 17 METAR CYVR 311700Z 00000KT 12SM FEW010 BKN027 OVC035 04/03 A3011 RMK CF1SC5SC2 SLP195
2001 12 31 18 METAR CYVR 311800Z 36002KT 12SM FEW010 BKN027 OVC035 05/03 A3012 RMK CF1SC5SC2 SLP199
2001 12 31 19 METAR CYVR 311900Z 12002KT 1 1/2SM -DZ BR BKN008 OVC025 05/04 A3015 RMK ST6SC2 SLP208
2001 12 31 20 METAR CYVR 312000Z 00000KT 1 1/2SM -DZ BR FEW002 BKN007 OVC020 05/04 A3015 RMK SF2ST5SC2 SLP210
2001 12 31 21 METAR CYVR 312100Z 10003KT 1 1/2SM -DZ BR BKN006 BKN010 OVC022 06/05 A3013 RMK ST5ST2SC2 SLP204
2001 12 31 22 METAR CYVR 312200Z 10006KT 2SM -DZ BR FEW004 BKN006 OVC020 06/05 A3014 RMK SF2ST4SC2 SLP205
2001 12 31 23 METAR CYVR 312300Z 09004KT 10SM FEW005 BKN021 OVC050 06/05 A3014 RMK SF2SC4SC2 SLP207
